<?xml version="1.0" encoding="UTF-8"?>
<kml xmlns="http://www.opengis.net/kml/2.2">
 <Document>
  <name>Suginami Suki · Suginami neighborhoods</name>
  <description>From suginami-town-api, https://suginamisuki.com/. Check sources before you go.
「令和2年国勢調査町丁・字等別境界データ」（総務省統計局）を加工して作成 / 出典：政府統計の総合窓口(e-Stat) https://www.e-stat.go.jp/</description>
  <Style id="neighborhood">
   <LineStyle>
    <color>ff3b4c26</color>
    <width>2</width>
   </LineStyle>
   <PolyStyle>
    <color>403b4c26</color>
   </PolyStyle>
  </Style>
  <Folder>
   <name>Neighborhoods</name>
   <Placemark>
    <name>Amanuma · 天沼</name>
    <description>Familiar residential backstreets: bakeries, bicycles and flowerpots.</description>
    <styleUrl>#neighborhood</styleUrl>
    <MultiGeometry>
     <Polygon>
      <outerBoundaryIs>
       <LinearRing>
        <coordinates>139.62642,35.70467 139.62897,35.70473 139.62938,35.70559 139.62995,35.7062 139.63041,35.70704 139.63067,35.70718 139.63065,35.70774 139.62997,35.70906 139.6298,35.70979 139.62911,35.71178 139.63129,35.71211 139.63413,35.71272 139.63455,35.71338 139.63487,35.71416 139.63121,35.71509 139.62783,35.71633 139.62111,35.71836 139.62154,35.71633 139.62124,35.71518 139.62087,35.71463 139.61916,35.71288 139.61979,35.71125 139.62021,35.71088 139.62087,35.71077 139.62112,35.7106 139.61739,35.70899 139.61561,35.70785 139.61829,35.70631 139.61933,35.70581 139.62034,35.70546 139.62079,35.70535 139.62311,35.70518 139.6245,35.70462 139.62642,35.70467</coordinates>
       </LinearRing>
      </outerBoundaryIs>
     </Polygon>
    </MultiGeometry>
   </Placemark>
   <Placemark>
    <name>Asagaya · 阿佐ヶ谷</name>
    <description>Leafy and literary: cafés, zelkova trees and jazz.</description>
    <styleUrl>#neighborhood</styleUrl>
    <MultiGeometry>
     <Polygon>
      <outerBoundaryIs>
       <LinearRing>
        <coordinates>139.63562,35.69949 139.638,35.69859 139.6401,35.698 139.64217,35.69783 139.64388,35.69783 139.64368,35.69912 139.64367,35.70092 139.64371,35.70167 139.64391,35.70275 139.6439,35.70325 139.64487,35.70485 139.64492,35.70523 139.64256,35.70518 139.64199,35.70563 139.6419,35.70641 139.64251,35.70812 139.64352,35.71148 139.6428,35.7117 139.64214,35.7123 139.64142,35.71277 139.6416,35.71486 139.64009,35.71543 139.63816,35.71598 139.6373,35.71651 139.63602,35.7167 139.63521,35.71472 139.63486,35.71415 139.63455,35.71338 139.63413,35.71272 139.63129,35.71211 139.62911,35.71178 139.6298,35.70979 139.62997,35.70906 139.63065,35.70774 139.63067,35.70718 139.63041,35.70704 139.62995,35.7062 139.62938,35.70559 139.62897,35.70473 139.6245,35.70462 139.62747,35.70332 139.62909,35.70233 139.63043,35.70163 139.63562,35.69949</coordinates>
       </LinearRing>
      </outerBoundaryIs>
     </Polygon>
    </MultiGeometry>
   </Placemark>
   <Placemark>
    <name>Eifuku / Nishi-Eifuku · 永福</name>
    <description>A meal and a quiet walk home: noodle-shop doorways.</description>
    <styleUrl>#neighborhood</styleUrl>
    <MultiGeometry>
     <Polygon>
      <outerBoundaryIs>
       <LinearRing>
        <coordinates>139.64228,35.66764 139.64503,35.668 139.64599,35.6682 139.6479,35.66891 139.64964,35.6699 139.65018,35.67009 139.64991,35.67132 139.64953,35.6718 139.64457,35.6753 139.64364,35.67585 139.64399,35.67643 139.64393,35.67647 139.64411,35.67737 139.64391,35.67814 139.64353,35.68078 139.64352,35.68137 139.64335,35.68193 139.63623,35.6802 139.63546,35.67981 139.63539,35.67984 139.63492,35.67926 139.63441,35.67939 139.63406,35.67865 139.63346,35.678 139.63364,35.67778 139.63375,35.67653 139.63452,35.67656 139.63454,35.67576 139.63481,35.67505 139.63523,35.67464 139.63519,35.67457 139.63554,35.67416 139.63573,35.67352 139.63648,35.67282 139.63639,35.67256 139.63711,35.67229 139.63874,35.67091 139.63933,35.67059 139.64087,35.6702 139.64222,35.67013 139.64168,35.66902 139.64159,35.6687 139.64156,35.66798 139.64161,35.66756 139.64228,35.66764</coordinates>
       </LinearRing>
      </outerBoundaryIs>
     </Polygon>
    </MultiGeometry>
   </Placemark>
   <Placemark>
    <name>Hamadayama · 浜田山</name>
    <description>Green and leisurely: the meadow and pond of Kashinomiya Park.</description>
    <styleUrl>#neighborhood</styleUrl>
    <MultiGeometry>
     <Polygon>
      <outerBoundaryIs>
       <LinearRing>
        <coordinates>139.62677,35.67537 139.62723,35.67532 139.62889,35.67572 139.6292,35.67562 139.62947,35.67563 139.62983,35.67578 139.63075,35.67594 139.63317,35.67615 139.63375,35.67584 139.63519,35.67457 139.63523,35.67464 139.63481,35.67505 139.63454,35.67576 139.63452,35.67656 139.63375,35.67653 139.63364,35.67778 139.63346,35.678 139.63406,35.67865 139.63441,35.67939 139.63492,35.67926 139.63539,35.67984 139.63546,35.67981 139.63616,35.68016 139.63508,35.68071 139.63589,35.68367 139.63364,35.68482 139.62829,35.68697 139.62641,35.6876 139.62498,35.68819 139.62399,35.68653 139.62584,35.68309 139.62514,35.68138 139.6255,35.68003 139.6245,35.67852 139.62336,35.67758 139.6256,35.67587 139.62677,35.67537</coordinates>
       </LinearRing>
      </outerBoundaryIs>
     </Polygon>
    </MultiGeometry>
   </Placemark>
   <Placemark>
    <name>Hōnan · 方南</name>
    <description>Community-minded: a shopping street, greengrocers and festival bunting.</description>
    <styleUrl>#neighborhood</styleUrl>
    <MultiGeometry>
     <Polygon>
      <outerBoundaryIs>
       <LinearRing>
        <coordinates>139.66199,35.67987 139.66169,35.68023 139.66166,35.68038 139.65984,35.6798 139.65959,35.67985 139.65935,35.68003 139.65945,35.68011 139.65958,35.68008 139.65978,35.68026 139.6597,35.68031 139.65973,35.68039 139.66007,35.6805 139.66061,35.68111 139.66011,35.68132 139.66019,35.6817 139.65992,35.68176 139.66001,35.68204 139.65935,35.6822 139.65942,35.68317 139.65925,35.68319 139.65954,35.68363 139.65994,35.68365 139.66016,35.68414 139.66052,35.68423 139.6602,35.6849 139.65987,35.68478 139.65978,35.68512 139.65938,35.68514 139.65953,35.68572 139.6593,35.68601 139.6592,35.68603 139.65915,35.68664 139.65728,35.68659 139.65625,35.68632 139.6568,35.68488 139.65725,35.67988 139.6574,35.67907 139.6607,35.67261 139.66143,35.67281 139.66138,35.67294 139.6618,35.67368 139.66161,35.67429 139.66134,35.67462 139.66155,35.67481 139.6618,35.67533 139.66174,35.67553 139.66188,35.67568 139.664,35.67656 139.66368,35.67727 139.66352,35.67722 139.66341,35.67761 139.6634,35.67802 139.66453,35.67774 139.6646,35.67794 139.66472,35.67794 139.6648,35.67891 139.66384,35.67888 139.66397,35.67936 139.66397,35.67956 139.66388,35.67963 139.66305,35.6796 139.66289,35.67953 139.66271,35.67962 139.66251,35.67958 139.66219,35.67984 139.66199,35.67987</coordinates>
       </LinearRing>
      </outerBoundaryIs>
     </Polygon>
    </MultiGeometry>
   </Placemark>
   <Placemark>
    <name>Horinouchi / Umezato · 堀ノ内</name>
    <description>Daily rituals: temple streets and sweets shops.</description>
    <styleUrl>#neighborhood</styleUrl>
    <MultiGeometry>
     <Polygon>
      <outerBoundaryIs>
       <LinearRing>
        <coordinates>139.64813,35.68868 139.64551,35.68471 139.64667,35.68457 139.64752,35.68399 139.64715,35.68363 139.64716,35.68295 139.64732,35.68284 139.64801,35.68292 139.64971,35.68267 139.65187,35.68261 139.65363,35.68302 139.65694,35.68344 139.65675,35.6851 139.65524,35.68903 139.65439,35.6935 139.65435,35.69416 139.65449,35.69565 139.65484,35.69808 139.65129,35.69805 139.64772,35.69788 139.64242,35.69782 139.64036,35.69795 139.63921,35.69824 139.63903,35.69789 139.64054,35.69624 139.64093,35.69547 139.64104,35.69493 139.64149,35.69447 139.64625,35.6961 139.64741,35.69643 139.64807,35.6968 139.64812,35.69675 139.64798,35.69591 139.64804,35.69583 139.64801,35.69502 139.64717,35.69517 139.64636,35.69388 139.64633,35.69357 139.64647,35.69257 139.64611,35.6917 139.64602,35.69102 139.64613,35.69031 139.64622,35.69033 139.64631,35.68982 139.64607,35.68977 139.64621,35.68922 139.64685,35.68914 139.64813,35.68868</coordinates>
       </LinearRing>
      </outerBoundaryIs>
     </Polygon>
    </MultiGeometry>
   </Placemark>
   <Placemark>
    <name>Igusa / Iogi / Shimo-Igusa · 井草</name>
    <description>Shops and pockets of countryside: vegetable stands and garden plots.</description>
    <styleUrl>#neighborhood</styleUrl>
    <MultiGeometry>
     <Polygon>
      <outerBoundaryIs>
       <LinearRing>
        <coordinates>139.62721,35.72408 139.62425,35.72953 139.62443,35.73008 139.62274,35.73035 139.62126,35.73045 139.62032,35.73037 139.61987,35.73019 139.62023,35.73145 139.61782,35.73093 139.61683,35.73055 139.61713,35.73004 139.61591,35.72979 139.61582,35.72985 139.61591,35.72994 139.61574,35.73015 139.61548,35.73008 139.61531,35.73014 139.61349,35.72959 139.61351,35.72954 139.6096,35.72856 139.60906,35.72837 139.6083,35.72793 139.60434,35.72684 139.60179,35.72577 139.60192,35.72542 139.60368,35.72532 139.6037,35.72539 139.60387,35.72526 139.61434,35.72482 139.61408,35.71911 139.61796,35.71928 139.62701,35.71659 139.63121,35.71509 139.63487,35.71416 139.63537,35.71506 139.63602,35.7167 139.6321,35.71712 139.63207,35.71734 139.63189,35.71743 139.63149,35.7179 139.63111,35.71849 139.6313,35.71911 139.63154,35.7194 139.63163,35.71973 139.63155,35.71998 139.63076,35.72065 139.6306,35.72063 139.63043,35.72084 139.6295,35.72039 139.62882,35.72097 139.62816,35.72191 139.62806,35.72247 139.62752,35.72361 139.62721,35.72408</coordinates>
       </LinearRing>
      </outerBoundaryIs>
     </Polygon>
    </MultiGeometry>
   </Placemark>
   <Placemark>
    <name>Izumi / Daitabashi side · 和泉</name>
    <description>Intimate alleys and Okinawan flavors.</description>
    <styleUrl>#neighborhood</styleUrl>
    <MultiGeometry>
     <Polygon>
      <outerBoundaryIs>
       <LinearRing>
        <coordinates>139.65846,35.67705 139.6574,35.67907 139.6573,35.67942 139.65694,35.68344 139.65363,35.68302 139.65187,35.68261 139.64971,35.68267 139.64781,35.68292 139.64335,35.68193 139.64352,35.68137 139.64353,35.68078 139.64391,35.67814 139.64411,35.67737 139.64393,35.67647 139.64399,35.67643 139.64364,35.67585 139.64457,35.6753 139.64953,35.6718 139.64991,35.67132 139.65016,35.67031 139.65391,35.67089 139.65434,35.67092 139.65444,35.67063 139.65516,35.67076 139.65672,35.67131 139.65679,35.67149 139.65744,35.67172 139.66071,35.67259 139.65846,35.67705</coordinates>
       </LinearRing>
      </outerBoundaryIs>
     </Polygon>
    </MultiGeometry>
   </Placemark>
   <Placemark>
    <name>Kami-Igusa · 上井草</name>
    <description>Playful creativity and animation studios.</description>
    <styleUrl>#neighborhood</styleUrl>
    <MultiGeometry>
     <Polygon>
      <outerBoundaryIs>
       <LinearRing>
        <coordinates>139.61358,35.72482 139.60387,35.72526 139.6037,35.72539 139.60368,35.72532 139.60192,35.72542 139.60195,35.72534 139.60147,35.72536 139.60022,35.72402 139.59976,35.72374 139.59824,35.7232 139.59756,35.72283 139.59675,35.72219 139.59577,35.72203 139.59582,35.72157 139.59392,35.71803 139.5945,35.71768 139.59622,35.71727 139.59667,35.71708 139.60596,35.7191 139.61408,35.7191 139.61434,35.72482 139.61358,35.72482</coordinates>
       </LinearRing>
      </outerBoundaryIs>
     </Polygon>
    </MultiGeometry>
   </Placemark>
   <Placemark>
    <name>Kami-Takaido / Hachimanyama side · 上高井戸</name>
    <description>Unexpected green: tucked-away produce stands.</description>
    <styleUrl>#neighborhood</styleUrl>
    <MultiGeometry>
     <Polygon>
      <outerBoundaryIs>
       <LinearRing>
        <coordinates>139.6068,35.67758 139.60721,35.67698 139.6075,35.67605 139.60771,35.67606 139.60768,35.67637 139.60848,35.67643 139.60849,35.67612 139.60865,35.67611 139.60914,35.67508 139.60912,35.6749 139.60882,35.67489 139.60883,35.67477 139.60928,35.67473 139.60936,35.67405 139.60894,35.67404 139.60902,35.67273 139.60896,35.67187 139.60909,35.67066 139.60922,35.67023 139.6094,35.67025 139.60936,35.67067 139.6106,35.67087 139.6107,35.67052 139.6114,35.67046 139.61143,35.6703 139.61126,35.67027 139.61129,35.66998 139.61347,35.67049 139.61349,35.67066 139.6136,35.67064 139.61374,35.67019 139.61421,35.66962 139.61479,35.66916 139.61555,35.66957 139.61569,35.66956 139.61564,35.66942 139.61529,35.66912 139.61539,35.66902 139.6156,35.66914 139.61595,35.66915 139.61606,35.66941 139.61647,35.66991 139.61638,35.67039 139.61649,35.67158 139.61664,35.67156 139.61668,35.67255 139.61336,35.67282 139.61343,35.67372 139.61331,35.67389 139.61282,35.67426 139.61177,35.67465 139.61022,35.67652 139.6106,35.67655 139.61188,35.67622 139.61193,35.6755 139.6122,35.67549 139.61249,35.67603 139.6126,35.67602 139.61279,35.67582 139.61327,35.67555 139.61329,35.67545 139.61396,35.67532 139.61493,35.6749 139.61829,35.67388 139.62114,35.6728 139.62213,35.67223 139.62318,35.67149 139.62344,35.67171 139.62013,35.67468 139.61917,35.67537 139.61666,35.67663 139.61442,35.67739 139.61444,35.67759 139.61441,35.67744 139.6126,35.67835 139.60922,35.67959 139.60652,35.68042 139.60648,35.6802 139.60412,35.68082 139.60401,35.68053 139.60365,35.68052 139.60362,35.68035 139.60374,35.68019 139.60351,35.68013 139.60543,35.67881 139.60566,35.67851 139.6068,35.67758</coordinates>
       </LinearRing>
      </outerBoundaryIs>
     </Polygon>
    </MultiGeometry>
   </Placemark>
   <Placemark>
    <name>Kōenji · 高円寺</name>
    <description>Expressive: records, vintage clothes and small music venues.</description>
    <styleUrl>#neighborhood</styleUrl>
    <MultiGeometry>
     <Polygon>
      <outerBoundaryIs>
       <LinearRing>
        <coordinates>139.65484,35.69809 139.65764,35.69811 139.66197,35.6975 139.66211,35.69803 139.66237,35.69836 139.6624,35.69869 139.66217,35.69931 139.6618,35.69932 139.66197,35.69999 139.66177,35.70006 139.66178,35.70022 139.66155,35.70022 139.66145,35.70118 139.66134,35.70134 139.66108,35.70141 139.66071,35.70137 139.66114,35.70251 139.66099,35.7048 139.65799,35.70518 139.6582,35.7056 139.65804,35.7076 139.65801,35.7092 139.65628,35.70913 139.65627,35.70925 139.65611,35.70924 139.65611,35.70911 139.65593,35.70908 139.65589,35.70916 139.65532,35.70915 139.65516,35.70923 139.65517,35.70908 139.65411,35.70907 139.65405,35.70928 139.65129,35.70897 139.65128,35.70906 139.65101,35.70903 139.65094,35.70942 139.65076,35.70948 139.64352,35.71148 139.64251,35.70812 139.64189,35.70636 139.64199,35.706 139.64199,35.70563 139.64256,35.70518 139.64492,35.70523 139.64487,35.70485 139.6439,35.70325 139.64391,35.70275 139.64371,35.70167 139.64367,35.70092 139.64368,35.69912 139.64388,35.69783 139.65484,35.69809</coordinates>
       </LinearRing>
      </outerBoundaryIs>
     </Polygon>
    </MultiGeometry>
   </Placemark>
   <Placemark>
    <name>Kugayama · 久我山</name>
    <description>A waterway and footbridges, with fireflies in June.</description>
    <styleUrl>#neighborhood</styleUrl>
    <MultiGeometry>
     <Polygon>
      <outerBoundaryIs>
       <LinearRing>
        <coordinates>139.59151,35.68578 139.59149,35.68542 139.59255,35.68512 139.59241,35.6848 139.59258,35.68473 139.59242,35.68447 139.59222,35.68455 139.59203,35.68432 139.59241,35.68402 139.5931,35.68321 139.59291,35.68288 139.59403,35.6823 139.5945,35.68234 139.59582,35.68223 139.5988,35.68187 139.60064,35.6814 139.60281,35.68073 139.60302,35.68062 139.60351,35.68013 139.60374,35.68019 139.60362,35.68035 139.60365,35.68052 139.60401,35.68053 139.60412,35.68082 139.60648,35.6802 139.60655,35.68075 139.60636,35.68164 139.60637,35.6821 139.6067,35.68288 139.60799,35.68466 139.60847,35.68808 139.60864,35.68884 139.60768,35.68873 139.60599,35.68906 139.60476,35.68953 139.6038,35.69003 139.60111,35.69168 139.59956,35.69209 139.59872,35.69218 139.594,35.69333 139.58817,35.69559 139.58675,35.69414 139.58691,35.6939 139.58718,35.69369 139.58753,35.69357 139.58804,35.6931 139.58964,35.6925 139.59128,35.69148 139.59141,35.69128 139.59239,35.69052 139.59239,35.69043 139.59286,35.68994 139.5935,35.6894 139.59341,35.68926 139.5938,35.68882 139.59362,35.68868 139.59309,35.68903 139.59281,35.68899 139.59289,35.68846 139.59304,35.68828 139.59282,35.68795 139.59188,35.68783 139.59128,35.68751 139.59054,35.68687 139.59168,35.68606 139.5917,35.68593 139.59152,35.6859 139.59151,35.68578</coordinates>
       </LinearRing>
      </outerBoundaryIs>
     </Polygon>
    </MultiGeometry>
   </Placemark>
   <Placemark>
    <name>Miyamae · 宮前</name>
    <description>Hidden greenery: woodland and streams.</description>
    <styleUrl>#neighborhood</styleUrl>
    <MultiGeometry>
     <Polygon>
      <outerBoundaryIs>
       <LinearRing>
        <coordinates>139.61654,35.69008 139.61693,35.69276 139.61565,35.69384 139.61433,35.69476 139.61318,35.69542 139.60571,35.69856 139.60515,35.69902 139.60361,35.6951 139.60091,35.69648 139.59843,35.69791 139.59753,35.69557 139.59622,35.6928 139.59872,35.69218 139.59956,35.69209 139.60111,35.69168 139.6038,35.69003 139.60476,35.68953 139.60599,35.68906 139.60758,35.68874 139.60992,35.68904 139.61285,35.68969 139.61441,35.68947 139.61634,35.68876 139.61654,35.69008</coordinates>
       </LinearRing>
      </outerBoundaryIs>
     </Polygon>
    </MultiGeometry>
   </Placemark>
   <Placemark>
    <name>Momoi / Imagawa · 桃井</name>
    <description>Open sky: Momoi Harappa Park and distant rooftops.</description>
    <styleUrl>#neighborhood</styleUrl>
    <MultiGeometry>
     <Polygon>
      <outerBoundaryIs>
       <LinearRing>
        <coordinates>139.61441,35.71507 139.6141,35.7191 139.60596,35.7191 139.59667,35.71708 139.5971,35.71674 139.59971,35.71345 139.60003,35.71312 139.60058,35.71276 139.60244,35.71211 139.60495,35.71155 139.60779,35.71119 139.60957,35.71082 139.61326,35.70921 139.61509,35.70816 139.61441,35.71507</coordinates>
       </LinearRing>
      </outerBoundaryIs>
     </Polygon>
    </MultiGeometry>
   </Placemark>
   <Placemark>
    <name>Narita · 成田</name>
    <description>Riverside wandering: bends of the Zenpukuji River and cherry trees.</description>
    <styleUrl>#neighborhood</styleUrl>
    <MultiGeometry>
     <Polygon>
      <outerBoundaryIs>
       <LinearRing>
        <coordinates>139.63002,35.68623 139.63364,35.68482 139.63589,35.68367 139.63708,35.68292 139.63765,35.6843 139.63782,35.68514 139.63762,35.68547 139.63761,35.68609 139.63745,35.68672 139.63781,35.68684 139.63813,35.68685 139.63896,35.68642 139.63965,35.6863 139.63991,35.6861 139.63976,35.68695 139.64033,35.68775 139.64032,35.68792 139.63997,35.68853 139.6396,35.68901 139.63971,35.6896 139.64031,35.69014 139.64103,35.69046 139.64109,35.69055 139.64124,35.69085 139.64112,35.69133 139.64114,35.69201 139.64123,35.69232 139.64133,35.69232 139.64145,35.69214 139.642,35.69251 139.64216,35.69298 139.64219,35.69358 139.64184,35.69414 139.64104,35.69493 139.64093,35.69547 139.64054,35.69624 139.63903,35.69789 139.63919,35.69822 139.63602,35.6993 139.63104,35.70135 139.62982,35.70192 139.6284,35.70274 139.62821,35.70242 139.62803,35.70138 139.62825,35.70124 139.62815,35.69958 139.62851,35.69768 139.62851,35.69722 139.62882,35.69642 139.62888,35.69605 139.62901,35.69591 139.62885,35.69556 139.62835,35.69479 139.62789,35.6943 139.62763,35.69368 139.62702,35.69313 139.6262,35.69269 139.62592,35.69266 139.62566,35.69265 139.62464,35.69291 139.62442,35.69289 139.62403,35.69242 139.62364,35.6921 139.62224,35.69137 139.62132,35.69017 139.62219,35.68952 139.6235,35.68897 139.62498,35.68818 139.62641,35.6876 139.62829,35.68697 139.63002,35.68623</coordinates>
       </LinearRing>
      </outerBoundaryIs>
     </Polygon>
    </MultiGeometry>
   </Placemark>
   <Placemark>
    <name>Nishi-Ogikubo · 西荻窪</name>
    <description>Independent and curious: books, antiques and ceramics.</description>
    <styleUrl>#neighborhood</styleUrl>
    <MultiGeometry>
     <Polygon>
      <outerBoundaryIs>
       <LinearRing>
        <coordinates>139.60369,35.69531 139.60515,35.69902 139.60587,35.69849 139.60722,35.70129 139.60791,35.70315 139.60815,35.70348 139.60807,35.70354 139.60867,35.70417 139.61088,35.70423 139.61063,35.70461 139.61019,35.70502 139.60779,35.70621 139.60753,35.70641 139.60743,35.70671 139.60786,35.70792 139.60779,35.70829 139.60769,35.7084 139.60719,35.70858 139.60377,35.70868 139.60331,35.70865 139.6026,35.70823 139.60186,35.70807 139.60197,35.71059 139.60164,35.71148 139.59931,35.71083 139.59601,35.70954 139.59411,35.70922 139.5908,35.70914 139.5931,35.70713 139.59549,35.70568 139.59443,35.70374 139.59436,35.70349 139.59411,35.70321 139.59284,35.70087 139.59271,35.70094 139.59007,35.69482 139.594,35.69333 139.59622,35.6928 139.59753,35.69557 139.59843,35.69791 139.60091,35.69648 139.60317,35.69531 139.60361,35.6951 139.60369,35.69531</coordinates>
       </LinearRing>
      </outerBoundaryIs>
     </Polygon>
    </MultiGeometry>
   </Placemark>
   <Placemark>
    <name>Ogikubo · 荻窪</name>
    <description>Established and comforting: ramen counters and garden streets.</description>
    <styleUrl>#neighborhood</styleUrl>
    <MultiGeometry>
     <Polygon>
      <outerBoundaryIs>
       <LinearRing>
        <coordinates>139.62868,35.69528 139.62901,35.69591 139.62888,35.69605 139.62882,35.69642 139.62851,35.69722 139.62851,35.69768 139.62815,35.69958 139.62825,35.70124 139.62803,35.70138 139.62821,35.70242 139.6284,35.70274 139.62778,35.70315 139.62311,35.70518 139.62079,35.70535 139.61933,35.70581 139.61734,35.70682 139.61326,35.70921 139.60978,35.71075 139.60903,35.71097 139.60779,35.71119 139.6051,35.71152 139.60186,35.7123 139.60164,35.71148 139.60197,35.71059 139.60186,35.70807 139.6026,35.70823 139.60331,35.70865 139.60719,35.70858 139.60754,35.7085 139.60779,35.70829 139.60786,35.70792 139.60743,35.70671 139.60753,35.70641 139.60779,35.70621 139.61019,35.70502 139.61063,35.70461 139.61088,35.70423 139.60867,35.70417 139.60807,35.70354 139.60815,35.70348 139.60791,35.70315 139.60722,35.70129 139.60587,35.69849 139.61351,35.69525 139.61518,35.69419 139.61677,35.69285 139.61794,35.69206 139.61982,35.69123 139.62086,35.69058 139.62132,35.69017 139.62224,35.69137 139.62364,35.6921 139.62403,35.69242 139.62442,35.69289 139.62464,35.69291 139.62566,35.69265 139.62592,35.69266 139.6262,35.69269 139.62702,35.69313 139.62763,35.69368 139.62789,35.6943 139.62835,35.69479 139.62868,35.69528</coordinates>
       </LinearRing>
      </outerBoundaryIs>
     </Polygon>
    </MultiGeometry>
   </Placemark>
   <Placemark>
    <name>Ōmiya / Matsunoki · 大宮</name>
    <description>Woodland shade and the approach to Omiya Hachimangu.</description>
    <styleUrl>#neighborhood</styleUrl>
    <MultiGeometry>
     <Polygon>
      <outerBoundaryIs>
       <LinearRing>
        <coordinates>139.63959,35.68917 139.63962,35.68896 139.63985,35.68871 139.64032,35.68792 139.64031,35.68768 139.64004,35.68741 139.63976,35.68695 139.63991,35.6861 139.63965,35.6863 139.63896,35.68642 139.63813,35.68685 139.63781,35.68684 139.63745,35.68672 139.63761,35.68609 139.63762,35.68547 139.63782,35.68514 139.63765,35.6843 139.63727,35.68346 139.63713,35.68296 139.63708,35.68292 139.63589,35.68367 139.63508,35.68071 139.63616,35.68016 139.6431,35.68188 139.64732,35.68284 139.64716,35.68295 139.64715,35.68363 139.64752,35.68399 139.64667,35.68457 139.64551,35.68471 139.64813,35.68868 139.64685,35.68914 139.64621,35.68922 139.64607,35.68977 139.64631,35.68982 139.64622,35.69033 139.64613,35.69031 139.64602,35.69102 139.64611,35.6917 139.64647,35.69257 139.64633,35.69357 139.64636,35.69388 139.64717,35.69517 139.64801,35.69502 139.64804,35.69583 139.64798,35.69591 139.64812,35.69675 139.64807,35.6968 139.64741,35.69643 139.64625,35.6961 139.64149,35.69447 139.64184,35.69414 139.64219,35.69358 139.64207,35.69262 139.64145,35.69214 139.64133,35.69232 139.64123,35.69232 139.64114,35.69201 139.64112,35.69133 139.64124,35.69085 139.64109,35.69055 139.64103,35.69046 139.64031,35.69014 139.63989,35.68982 139.63971,35.6896 139.63959,35.68917</coordinates>
       </LinearRing>
      </outerBoundaryIs>
     </Polygon>
    </MultiGeometry>
   </Placemark>
   <Placemark>
    <name>Shimizu · 清水</name>
    <description>Quiet discovery: Myoshoji Park's pond and shaded benches.</description>
    <styleUrl>#neighborhood</styleUrl>
    <MultiGeometry>
     <Polygon>
      <outerBoundaryIs>
       <LinearRing>
        <coordinates>139.61596,35.70808 139.61739,35.70899 139.62112,35.7106 139.62087,35.71077 139.62021,35.71088 139.61979,35.71125 139.61916,35.71288 139.62087,35.71463 139.62124,35.71518 139.62154,35.71633 139.62112,35.71836 139.61796,35.71928 139.61408,35.71911 139.61509,35.70816 139.61563,35.70784 139.61596,35.70808</coordinates>
       </LinearRing>
      </outerBoundaryIs>
     </Polygon>
    </MultiGeometry>
   </Placemark>
   <Placemark>
    <name>Shimo-Takaido / Sakurajōsui side · 下高井戸</name>
    <description>Open and breezy: lawns and a big sky.</description>
    <styleUrl>#neighborhood</styleUrl>
    <MultiGeometry>
     <Polygon>
      <outerBoundaryIs>
       <LinearRing>
        <coordinates>139.62479,35.67036 139.62487,35.66925 139.62671,35.66912 139.62912,35.66882 139.63269,35.66822 139.63333,35.66797 139.63436,35.66771 139.63644,35.6668 139.63694,35.66666 139.63683,35.66626 139.63687,35.66612 139.63809,35.66592 139.63915,35.66588 139.64146,35.66668 139.64133,35.66759 139.64159,35.66762 139.64159,35.6687 139.64222,35.67013 139.64087,35.6702 139.63954,35.67052 139.63874,35.67091 139.63711,35.67229 139.63639,35.67256 139.63648,35.67282 139.63573,35.67352 139.63559,35.67404 139.63541,35.67434 139.63436,35.67532 139.63336,35.6761 139.63261,35.67615 139.63075,35.67594 139.62983,35.67578 139.62947,35.67563 139.6292,35.67562 139.62889,35.67572 139.62709,35.67531 139.62658,35.67541 139.6256,35.67587 139.62336,35.67758 139.62296,35.67744 139.6223,35.67744 139.62129,35.67706 139.61869,35.67656 139.61846,35.67641 139.61806,35.67595 139.61917,35.67537 139.62013,35.67468 139.62344,35.67171 139.62313,35.67145 139.62312,35.67061 139.62479,35.67036</coordinates>
       </LinearRing>
      </outerBoundaryIs>
     </Polygon>
    </MultiGeometry>
   </Placemark>
   <Placemark>
    <name>Takaido / Fujimigaoka · 高井戸</name>
    <description>River and everyday movement: trains and a distant white chimney.</description>
    <styleUrl>#neighborhood</styleUrl>
    <MultiGeometry>
     <Polygon>
      <outerBoundaryIs>
       <LinearRing>
        <coordinates>139.62296,35.67744 139.62336,35.67758 139.6245,35.67852 139.6255,35.68003 139.62514,35.68138 139.62584,35.68309 139.62399,35.68653 139.62498,35.68819 139.6235,35.68897 139.62219,35.68952 139.62086,35.69058 139.61982,35.69123 139.61938,35.69147 139.61839,35.69182 139.61693,35.69274 139.61634,35.68876 139.61441,35.68947 139.61285,35.68969 139.60992,35.68904 139.60864,35.68884 139.60847,35.68808 139.60799,35.68466 139.6067,35.68288 139.60637,35.6821 139.60636,35.68164 139.60655,35.68075 139.60652,35.68042 139.60922,35.67959 139.61228,35.67848 139.61402,35.6776 139.61441,35.67744 139.61444,35.67759 139.61442,35.67739 139.61606,35.67688 139.61806,35.67595 139.61846,35.67641 139.61869,35.67656 139.62129,35.67706 139.6223,35.67744 139.62296,35.67744</coordinates>
       </LinearRing>
      </outerBoundaryIs>
     </Polygon>
    </MultiGeometry>
   </Placemark>
   <Placemark>
    <name>Wada · 和田</name>
    <description>Neighborly creativity: art supplies and park greenery.</description>
    <styleUrl>#neighborhood</styleUrl>
    <MultiGeometry>
     <Polygon>
      <outerBoundaryIs>
       <LinearRing>
        <coordinates>139.6645,35.69539 139.66217,35.6952 139.66145,35.69506 139.66096,35.69483 139.66083,35.69546 139.66037,35.69646 139.66105,35.6966 139.66097,35.69718 139.66193,35.697 139.66197,35.6975 139.65764,35.69811 139.65484,35.69809 139.65449,35.69565 139.65435,35.69416 139.65439,35.6935 139.65524,35.68903 139.65624,35.68631 139.65728,35.68659 139.65915,35.68664 139.66087,35.68676 139.66127,35.68685 139.66343,35.68802 139.66364,35.68842 139.66375,35.68884 139.66396,35.68913 139.66636,35.69041 139.6668,35.69084 139.667,35.69092 139.66695,35.69119 139.66781,35.69137 139.66769,35.69187 139.66752,35.69186 139.66731,35.69281 139.66726,35.69329 139.66739,35.69375 139.66669,35.69346 139.66587,35.69479 139.66541,35.69465 139.66507,35.69525 139.66492,35.69538 139.66455,35.69533 139.6645,35.69539</coordinates>
       </LinearRing>
      </outerBoundaryIs>
     </Polygon>
    </MultiGeometry>
   </Placemark>
   <Placemark>
    <name>Zenpukuji · 善福寺</name>
    <description>Reflective: a pond, waterbirds and overhanging branches.</description>
    <styleUrl>#neighborhood</styleUrl>
    <MultiGeometry>
     <Polygon>
      <outerBoundaryIs>
       <LinearRing>
        <coordinates>139.5955,35.70945 139.59652,35.70969 139.59931,35.71083 139.60164,35.71148 139.60186,35.7123 139.60058,35.71276 139.60003,35.71312 139.59908,35.71418 139.59688,35.71696 139.59622,35.71727 139.5945,35.71768 139.59392,35.71803 139.59349,35.71812 139.59298,35.71836 139.59273,35.71849 139.59106,35.71985 139.59061,35.72011 139.59021,35.72027 139.58852,35.72014 139.58712,35.71973 139.58607,35.71912 139.58515,35.7179 139.58505,35.71674 139.58511,35.71634 139.58587,35.71515 139.58638,35.71456 139.58679,35.71365 139.58702,35.71263 139.58671,35.71174 139.58749,35.71143 139.58894,35.71033 139.5908,35.70914 139.59353,35.70918 139.5955,35.70945</coordinates>
       </LinearRing>
      </outerBoundaryIs>
     </Polygon>
    </MultiGeometry>
   </Placemark>
  </Folder>
  <Folder>
   <name>Shrines</name>
   <Placemark>
    <name>Amanuma Kumano Shrine · 天沼熊野神社</name>
    <description>The guardian shrine of old Amanuma village, founded by tradition in 768. It was called Jūnisho Gongen until the Meiji era, when it took the name Kumano Jinja.
Enshrined kami: Izanami
Amanuma · As of 2026-09-23
Source: 杉並区公式ホームページ https://www.city.suginami.tokyo.jp/s113/7417.html</description>
    <Point>
     <coordinates>139.626784,35.708911</coordinates>
    </Point>
   </Placemark>
   <Placemark>
    <name>Amanuma Hachiman Shrine · 天沼八幡神社</name>
    <description>The guardian shrine of Nakayato in old Amanuma village, said to date from the 1570s or 80s. Ichikishimahime, enshrined here since a local Itsukushima shrine was merged in 1907, is prayed to for safe childbirth, and the Ōtori shrine in its grounds holds a Tori-no-ichi fair in November.
Enshrined kami: Hachiman, Ichikishimahime
Amanuma · As of 2026-09-23
Source: 杉並区公式ホームページ https://www.city.suginami.tokyo.jp/s113/7416.html</description>
    <Point>
     <coordinates>139.623104,35.708231</coordinates>
    </Point>
   </Placemark>
   <Placemark>
    <name>Hon-Amanuma Inari Shrine · 本天沼稲荷神社</name>
    <description>The guardian shrine of Honmura in old Amanuma village, founded before 1614. Because Amanuma was land of the Sannō shrine in Akasaka, today's Hie Shrine, its inner sanctuary was brought from there around 1868, and a large votive painting of the Sannō festival is a ward cultural property.
Enshrined kami: Ukemochi
Amanuma · As of 2026-09-23
Source: 杉並区公式ホームページ https://www.city.suginami.tokyo.jp/s113/7536.html</description>
    <Point>
     <coordinates>139.62485,35.712604</coordinates>
    </Point>
   </Placemark>
   <Placemark>
    <name>Asagaya Shinmei-gū · 阿佐ヶ谷神明宮</name>
    <description>The guardian shrine of old Asagaya village. Its sacred object is a stone brought back from the Miyagawa River at Ise in the 1190s, and Asagaya-bayashi festival music, handed down since the late Edo period, is played on its Noh stage at the autumn festival.
Enshrined kami: Amaterasu, Tsukuyomi, Susanoo, Toyouke
Asagaya · As of 2026-09-23
Source: 杉並区公式ホームページ https://www.city.suginami.tokyo.jp/s113/7408.html</description>
    <Point>
     <coordinates>139.636988,35.707221</coordinates>
    </Point>
   </Placemark>
   <Placemark>
    <name>Mabashi Inari Shrine · 馬橋稲荷神社</name>
    <description>The guardian shrine of old Mabashi village, said to date from the late Kamakura period. Its stone torii, carved with a rising and a descending dragon, is counted among Tokyo's three dragon torii, and the bell in its vermilion gate is said to be the largest in Tokyo.
Enshrined kami: Ukanomitama (Inari), Ōmatonotsu
Asagaya · As of 2026-09-23
Source: 杉並区公式ホームページ https://www.city.suginami.tokyo.jp/s113/7413.html</description>
    <Point>
     <coordinates>139.642735,35.703274</coordinates>
    </Point>
   </Placemark>
   <Placemark>
    <name>Suginami Sarutahiko Shrine · 杉並猿田彦神社</name>
    <description>Its kami was brought from Tsubaki Ōkami Yashiro in Mie, regarded as Sarutahiko's head shrine. As the kami who leads the way, Sarutahiko draws people praying before building work and new ventures, and for business.
Enshrined kami: Sarutahiko
Asagaya · As of 2026-09-23
Source: 杉並猿田彦神社 https://www.sarutahiko-suginami.com/%E5%BE%A1%E7%A5%AD%E7%A5%9E-%E7%94%B1%E7%B7%92</description>
    <Point>
     <coordinates>139.643606,35.6987</coordinates>
    </Point>
   </Placemark>
   <Placemark>
    <name>Eifuku Inari Shrine · 永福稲荷神社</name>
    <description>Founded in 1530 as guardian of the neighboring temple Eifukuji, with a spirit from Fushimi Inari in Kyoto, and today the guardian shrine of all Eifuku. Its hall was rebuilt in 1878 facing west, to watch over the whole town.
Enshrined kami: Ukanomitama (Inari)
Eifuku / Nishi-Eifuku · As of 2026-09-23
Source: 東京都神社庁 http://www.tokyo-jinjacho.or.jp/suginami/5965</description>
    <Point>
     <coordinates>139.64325,35.672444</coordinates>
    </Point>
   </Placemark>
   <Placemark>
    <name>Horinouchi Kumano Shrine · 堀ノ内熊野神社</name>
    <description>The guardian shrine of old Horinouchi village, founded by tradition in 1267 and run by the nearby temple Myōhōji until Meiji. Its zelkova hall of 1857 carries carving said to be the finest of any shrine building in Suginami.
Enshrined kami: Ōyatsuhime, Isotakeru, Tsumatsuhime
Horinouchi / Umezato · As of 2026-09-23
Source: 杉並区公式ホームページ https://www.city.suginami.tokyo.jp/s113/7531.html</description>
    <Point>
     <coordinates>139.652111,35.686333</coordinates>
    </Point>
   </Placemark>
   <Placemark>
    <name>Ōtori Shrine (Shimo-Igusa) · 大鷲神社（下井草）</name>
    <description>Its sacred object is a stuffed eagle, with a wingspan of over two metres, that villagers caught in a red pine in January 1921 and enshrined so that its death would bring no curse. A Tori-no-ichi fair is held on November's Days of the Rooster, with kumade rakes sold for good business.
Igusa / Iogi / Shimo-Igusa · As of 2026-09-23
Source: 杉並区公式ホームページ https://www.city.suginami.tokyo.jp/s113/7488.html</description>
    <Point>
     <coordinates>139.628876,35.716049</coordinates>
    </Point>
   </Placemark>
   <Placemark>
    <name>Ichō Inari Shrine · 銀杏稲荷神社</name>
    <description>The guardian shrine of old Shimo-Igusa village, named after a great ginkgo that once grew on the hill behind it. A ridge plate dates its founding to around 1616, by the Iguchi family who settled here.
Igusa / Iogi / Shimo-Igusa · As of 2026-09-23
Source: 杉並区公式ホームページ https://www.city.suginami.tokyo.jp/s113/7489.html</description>
    <Point>
     <coordinates>139.626633,35.718796</coordinates>
    </Point>
   </Placemark>
   <Placemark>
    <name>Izumi Kumano Shrine · 和泉熊野神社</name>
    <description>The guardian shrine of old Izumi village, founded by tradition in 1267 with a spirit from the Kumano shrines of Kii. The present hall dates from 1863, and Jōmon and Kofun-period pottery has been dug up in the grounds.
Enshrined kami: Amenominakanushi, Izanagi, Izanami
Izumi / Daitabashi side · As of 2026-09-23
Source: 杉並区公式ホームページ https://www.city.suginami.tokyo.jp/s113/7419.html</description>
    <Point>
     <coordinates>139.647758,35.676423</coordinates>
    </Point>
   </Placemark>
   <Placemark>
    <name>Kifune Shrine (Izumi) · 貴船神社（和泉）</name>
    <description>An outlying shrine of Izumi Kumano, enshrining the rain-bringing dragon kami of Kyoto's Kifune Shrine. Its pond, said never to run dry, was where villagers prayed for rain and is said to have given Izumi, 'spring', its name; it dried up around 1965.
Enshrined kami: Takaokami
Izumi / Daitabashi side · As of 2026-09-23
Source: 杉並区公式ホームページ https://www.city.suginami.tokyo.jp/s113/7420.html</description>
    <Point>
     <coordinates>139.64859,35.677849</coordinates>
    </Point>
   </Placemark>
   <Placemark>
    <name>Kōenji Hikawa Shrine · 高円寺氷川神社</name>
    <description>The guardian shrine of the Hara district of old Kōenji village, founded by tradition in 1189. Its grounds hold the Kishō Jinja, said to be the only weather shrine in Japan.
Enshrined kami: Susanoo
Kōenji · As of 2026-09-23
Source: 杉並区公式ホームページ https://www.city.suginami.tokyo.jp/s113/7483.html</description>
    <Point>
     <coordinates>139.651298,35.704603</coordinates>
    </Point>
   </Placemark>
   <Placemark>
    <name>Kishō Jinja (Weather Shrine) · 気象神社</name>
    <description>Said to be Japan's only weather shrine, in the grounds of Kōenji Hikawa Shrine. People pray here for fine weather on wedding and travel days; its ema are shaped like geta, after the game of kicking off a sandal to tell the weather, and its festival falls on 1 June, Japan's Weather Day.
Enshrined kami: Omoikane
Kōenji · As of 2026-09-23
Source: すぎなみ学倶楽部 https://www.suginamigaku.org/2015/06/koenji-hikawa.html</description>
    <Point>
     <coordinates>139.65101,35.704718</coordinates>
    </Point>
   </Placemark>
   <Placemark>
    <name>Kōenji Tenso Shrine · 高円寺天祖神社</name>
    <description>The guardian shrine of old Kōenji village, founded by its own account in 1087 with a spirit brought from Ise. The worship hall dates from 1831, and a stone water basin in the grounds is carved with the year 1664.
Enshrined kami: Amaterasu
Kōenji · As of 2026-09-23
Source: 杉並区公式ホームページ https://www.city.suginami.tokyo.jp/s113/7470.html</description>
    <Point>
     <coordinates>139.657541,35.700015</coordinates>
    </Point>
   </Placemark>
   <Placemark>
    <name>Tanaka Inari Shrine · 田中稲荷神社</name>
    <description>A guardian shrine for the farmers of old Kōenji village, named for its place among the rice paddies along the Momozono River. The road in front is the Horinouchi Shindō, built privately around 1900 as a pilgrim road to Myōhōji temple.
Enshrined kami: Ukemochi
Kōenji · As of 2026-09-23
Source: 杉並区公式ホームページ https://www.city.suginami.tokyo.jp/s113/7471.html</description>
    <Point>
     <coordinates>139.659691,35.700619</coordinates>
    </Point>
   </Placemark>
   <Placemark>
    <name>Kugayama Inari Shrine · 久我山稲荷神社</name>
    <description>Kugayama's guardian shrine. At its summer festival on 24 July a rare yudate rite is held: water is boiled in a great cauldron, and bamboo leaves dipped in it are shaken over the crowd, a custom that began with prayers to end an epidemic.
Enshrined kami: Ukemochi
Kugayama · As of 2026-09-23
Source: すぎなみ学倶楽部 https://www.suginamigaku.org/2015/06/kugayamainari.html</description>
    <Point>
     <coordinates>139.59653,35.68847</coordinates>
    </Point>
   </Placemark>
   <Placemark>
    <name>Ōmiyamae Kasuga Shrine · 大宮前春日神社</name>
    <description>The guardian shrine of old Ōmiyamae-shinden village, founded by tradition in the 1650s by Iguchi Hachirōemon, who opened its farmland. A stone reading 'Ōmiyamae chinju' in front of the hall keeps alive a place name that has otherwise disappeared.
Enshrined kami: Takemikazuchi, Futsunushi, Amenokoyane, Himegami (Kasuga)
Miyamae · As of 2026-09-23
Source: 杉並区公式ホームページ https://www.city.suginami.tokyo.jp/s113/7548.html</description>
    <Point>
     <coordinates>139.60936,35.69283</coordinates>
    </Point>
   </Placemark>
   <Placemark>
    <name>Narimune Suga Shrine · 成宗須賀神社</name>
    <description>The guardian shrine of the main settlement of old Narimune village. Before Meiji it was called Gozu Tennō-sha, because Susanoo was then identified with the Buddhist deity Gozu Tennō. Its records burned in the 1850s, so its founding date is uncertain.
Enshrined kami: Susanoo
Narita · As of 2026-09-23
Source: 杉並区公式ホームページ https://www.city.suginami.tokyo.jp/s113/7523.html</description>
    <Point>
     <coordinates>139.631616,35.697802</coordinates>
    </Point>
   </Placemark>
   <Placemark>
    <name>Osaki Kumano Shrine · 尾﨑熊野神社</name>
    <description>The guardian shrine of Osaki in old Narimune village, founded by tradition in the late Kamakura period by warriors who came from Kamakura. Its sacred black pine, some 400 to 500 years old, is a ward natural monument, and Jōmon pottery and dwellings have been excavated in the grounds.
Enshrined kami: Isotakeru, Tsumatsuhime, Ōyatsuhime
Narita · As of 2026-09-23
Source: 杉並区公式ホームページ https://www.city.suginami.tokyo.jp/s113/7516.html</description>
    <Point>
     <coordinates>139.631288,35.693604</coordinates>
    </Point>
   </Placemark>
   <Placemark>
    <name>Narimune Hakusan Shrine · 成宗白山神社</name>
    <description>The guardian shrine of Shirahata in old Narimune village. The name Shirahata, 'white banner', comes from the legend that Minamoto no Yoriyoshi saw a white cloud like a Genji banner here on his way to war in Ōshū.
Enshrined kami: Izanami
Narita · As of 2026-09-23
Source: 杉並区公式ホームページ https://www.city.suginami.tokyo.jp/s113/7517.html</description>
    <Point>
     <coordinates>139.637174,35.686959</coordinates>
    </Point>
   </Placemark>
   <Placemark>
    <name>Nishi-Takaido Shōan Inari Shrine · 西高井戸松庵稲荷神社</name>
    <description>The guardian shrine of old Shōan village, which by tradition a doctor named Shōan opened in the 1650s. Two stone towers at the entrance, dated 1690 and 1693, show the village was there by then.
Enshrined kami: Ukemochi
Nishi-Ogikubo · As of 2026-09-23
Source: 杉並区公式ホームページ https://www.city.suginami.tokyo.jp/s113/7502.html</description>
    <Point>
     <coordinates>139.595917,35.699667</coordinates>
    </Point>
   </Placemark>
   <Placemark>
    <name>Fushimi Inari Shrine (Nishi-Ogikubo) · 伏見稲荷神社（西荻窪）</name>
    <description>Founded in 1951 by the shopkeepers of this street, who brought a spirit from Kyoto's Fushimi Inari to pray for good trade; Nishi-Ogi Fushimi-dori is named after it. The pin marks the red torii on the street: the small shrine is about 30m down the alley behind it.
Nishi-Ogikubo · As of 2026-09-23
Source: 西荻伏見通り商店会 https://nishiogi-fushimidori.com/history</description>
    <Point>
     <coordinates>139.598915,35.704259</coordinates>
    </Point>
   </Placemark>
   <Placemark>
    <name>Ogikubo Hachiman Shrine · 荻窪八幡神社</name>
    <description>The guardian shrine of old Kami-Ogikubo village, founded by tradition in the 890s. Ōta Dōkan is said to have prayed here in 1477 and planted an umbrella pine, the Dōkan-maki, which is now the sacred tree and a ward natural monument. The shrine also keeps a great banner written by Katsu Kaishū.
Enshrined kami: Hachiman
Ogikubo · As of 2026-09-23
Source: 杉並区公式ホームページ https://www.city.suginami.tokyo.jp/s113/7458.html</description>
    <Point>
     <coordinates>139.606329,35.710621</coordinates>
    </Point>
   </Placemark>
   <Placemark>
    <name>Ogikubo Hakusan Shrine · 荻窪白山神社</name>
    <description>The guardian shrine of old Shimo-Ogikubo village, said to date from the 1470s or 80s. It is known as a shrine for toothache: legend says the kami told a sufferer in a dream to eat with chopsticks cut from the bush clover in the grounds, and the pain went away.
Enshrined kami: Izanami
Ogikubo · As of 2026-09-23
Source: 杉並区公式ホームページ https://www.city.suginami.tokyo.jp/s113/7455.html</description>
    <Point>
     <coordinates>139.61605,35.705496</coordinates>
    </Point>
   </Placemark>
   <Placemark>
    <name>Minami-Ogikubo Tenso Shrine · 南荻窪天祖神社</name>
    <description>A shrine already stood here at a land survey in 1584. In the Edo period it was called Shinmei-sha, which gave the neighborhood its old name, Shinmei, and to its east there was once a riding ground lined with cherry trees.
Enshrined kami: Amaterasu
Ogikubo · As of 2026-09-23
Source: 杉並区公式ホームページ https://www.city.suginami.tokyo.jp/s113/7544.html</description>
    <Point>
     <coordinates>139.609556,35.7005</coordinates>
    </Point>
   </Placemark>
   <Placemark>
    <name>Tabata Shrine · 田端神社</name>
    <description>The guardian shrine of old Tabata village, once a Tenjin shrine called Kitano Jinja; its name means 'at the edge of the rice fields'. Ōkuninushi, enshrined here, is prayed to for leg and back pain, and the wooden mallets offered in thanks are a registered ward folk cultural property.
Enshrined kami: Sugawara no Michizane (Tenjin), Ōkuninushi
Ogikubo · As of 2026-09-23
Source: 杉並区公式ホームページ https://www.city.suginami.tokyo.jp/s113/7447.html</description>
    <Point>
     <coordinates>139.626204,35.693975</coordinates>
    </Point>
   </Placemark>
   <Placemark>
    <name>Ōmiya Hachimangū · 大宮八幡宮</name>
    <description>Founded by tradition in 1063. On his way to war, Minamoto no Yoriyoshi saw eight bands of white cloud here like Genji banners, and after his victory he brought a spirit from Iwashimizu Hachimangū in Kyoto to found the shrine.
Enshrined kami: Hachiman, Emperor Chūai, Empress Jingū
Ōmiya / Matsunoki · As of 2026-09-23
Source: 大宮八幡宮 https://www.ohmiya-hachimangu.or.jp/hachimangu/history</description>
    <Point>
     <coordinates>139.639664,35.682375</coordinates>
    </Point>
   </Placemark>
   <Placemark>
    <name>Ōmiya Tenmangū · 大宮天満宮</name>
    <description>A shrine to Sugawara no Michizane, patron of learning, within the grounds of Ōmiya Hachimangū. Students come here to pray for exam success.
Enshrined kami: Sugawara no Michizane (Tenjin)
Ōmiya / Matsunoki · As of 2026-09-23
Source: 大宮八幡宮 https://www.ohmiya-hachimangu.or.jp/hachimangu</description>
    <Point>
     <coordinates>139.639573,35.682639</coordinates>
    </Point>
   </Placemark>
   <Placemark>
    <name>Nakase Tenso Shrine · 中瀬天祖神社</name>
    <description>It began as a hall to the Ten Rasetsu on the land of Myōshōji temple, and became a Shinto shrine when Shinto and Buddhism were separated in 1868. Its sacred object is a stone held to be powerful, and it is known locally as a shrine for having children.
Enshrined kami: Amaterasu, Ichikishimahime, Ukemochi
Shimizu · As of 2026-09-23
Source: 杉並区公式ホームページ https://www.city.suginami.tokyo.jp/s113/7485.html</description>
    <Point>
     <coordinates>139.617333,35.718556</coordinates>
    </Point>
   </Placemark>
   <Placemark>
    <name>Shimo-Takaido Hachiman Shrine · 下高井戸八幡神社（浜田山八幡）</name>
    <description>By tradition founded in 1457, when Ōta Dōkan, while building Edo Castle, prayed here for the work to go safely and brought a spirit from Tsurugaoka Hachimangū in Kamakura.
Enshrined kami: Hachiman
Shimo-Takaido / Sakurajōsui side · As of 2026-09-23
Source: 東京都神社庁 http://www.tokyo-jinjacho.or.jp/suginami/5404</description>
    <Point>
     <coordinates>139.63042,35.67522</coordinates>
    </Point>
   </Placemark>
   <Placemark>
    <name>Kami-Takaido Dairokuten Shrine · 上高井戸第六天神社</name>
    <description>Its stone guardian lions, dated 1771, are said to be the oldest outdoor pair in Suginami, and its main hall, rebuilt in 1856, is richly carved. In 1972 the buildings were moved slightly north for the Chūō Expressway, whose elevated road now runs right past the torii.
Enshrined kami: Omodaru, Kashikone
Takaido / Fujimigaoka · As of 2026-09-23
Source: すぎなみ学倶楽部 https://www.suginamigaku.org/2015/06/dairokutenjinja.html</description>
    <Point>
     <coordinates>139.61217,35.67903</coordinates>
    </Point>
   </Placemark>
   <Placemark>
    <name>Kashinomiya Inari Shrine · 柏の宮稲荷神社</name>
    <description>Built in the Meiji era as the private shrine of Kashinomiya-en, the garden estate that is now Kashinomiya Park, and moved to its present spot when the park was laid out. It sits at the top of a flight of steps, guarded by stone foxes on a base dated 1857.
Enshrined kami: Ukanomitama (Inari), Ukemochi
Takaido / Fujimigaoka · As of 2026-09-23
Source: すぎなみ学倶楽部 https://www.suginamigaku.org/2023/09/kashinomiyainari.html</description>
    <Point>
     <coordinates>139.62485,35.67881</coordinates>
    </Point>
   </Placemark>
   <Placemark>
    <name>Igusa Hachimangū · 井草八幡宮</name>
    <description>The guardian shrine of the old villages of Kami-Igusa and Shimo-Igusa. Until the Meiji era it was also called Osonoi Hachimangū, after the area's old name.
Enshrined kami: Hachiman
Zenpukuji · As of 2026-09-23
Source: 杉並区公式ホームページ https://www.city.suginami.tokyo.jp/s113/7503.html</description>
    <Point>
     <coordinates>139.595583,35.716083</coordinates>
    </Point>
   </Placemark>
   <Placemark>
    <name>Ichikishima Shrine (Zenpukuji Benzaiten) · 市杵島神社（善福寺弁天）</name>
    <description>The Benzaiten shrine of Zenpukuji Pond, founded by legend in 1197 with a spirit brought from Enoshima. As guardian of the pond's spring it drew rain-prayer processions in droughts, and villages as far off as Nerima and Nakano helped pay for its rebuilding in 1840.
Enshrined kami: Ichikishimahime
Zenpukuji · As of 2026-09-23
Source: 杉並区公式ホームページ https://www.city.suginami.tokyo.jp/s113/7507.html</description>
    <Point>
     <coordinates>139.588074,35.716306</coordinates>
    </Point>
   </Placemark>
  </Folder>
  <Folder>
   <name>Temples</name>
   <Placemark>
    <name>Kamadera (Tōunji) · 釜寺（東運寺）</name>
    <description>A Jōdo temple said to date from 1573, with an iron rice cauldron on its roof. The story comes from the legend of Anju and Zushiō: when Zushiō was about to be boiled in a cauldron, the Jizō he carried took his place.
Hōnan · As of 2026-09-25
Source: すぎなみ学倶楽部 https://www.suginamigaku.org/2014/10/post-188.html</description>
    <Point>
     <coordinates>139.657776,35.680794</coordinates>
    </Point>
   </Placemark>
  </Folder>
  <Folder>
   <name>Culture</name>
   <Placemark>
    <name>Suginami Local History Museum Annex · 杉並区立郷土博物館分館</name>
    <description>The free annex of the ward's history museum, opened in 2007 in Amanuma Benten-ike Park, in buildings a golf company once used.
Amanuma · As of 2026-09-25
Source: すぎなみ学倶楽部 https://www.suginamigaku.org/2018/07/kyoudo-hakubutukan.html</description>
    <Point>
     <coordinates>139.621887,35.70821</coordinates>
    </Point>
   </Placemark>
   <Placemark>
    <name>Laputa Asagaya · ラピュタ阿佐ヶ谷</name>
    <description>A small cinema for Japanese films, mostly from the 1950s and 60s, shown in month-long seasons, many never released on DVD. It opened in 1998 for animation and is named after the flying island in Gulliver's Travels.
Asagaya · As of 2026-09-25
Source: すぎなみ学倶楽部 https://www.suginamigaku.org/2015/09/laputa.html</description>
    <Point>
     <coordinates>139.635361,35.705544</coordinates>
    </Point>
   </Placemark>
   <Placemark>
    <name>Gundam statue · ガンダム像</name>
    <description>A bronze Gundam reaching for the sky, put up outside Kami-Igusa station in 2008 because Sunrise, the studio behind Mobile Suit Gundam, is nearby. The trains leave to the Gundam theme.
Kami-Igusa · As of 2026-09-25
Source: 上井草商店街 http://www.kami-igusa.com/area/animation</description>
    <Point>
     <coordinates>139.603745,35.725014</coordinates>
    </Point>
   </Placemark>
   <Placemark>
    <name>Za-Kōenji · 座・高円寺</name>
    <description>The ward's theatre, a tent-like building by Itō Toyō opened in 2009, with three halls, an archive of plays and a café with picture books.
Kōenji · As of 2026-09-25
Source: すぎなみ学倶楽部 https://www.suginamigaku.org/2016/03/za-koenji.html</description>
    <Point>
     <coordinates>139.654068,35.705627</coordinates>
    </Point>
   </Placemark>
   <Placemark>
    <name>St Margaret's Chapel · 立教女学院 聖マーガレット礼拝堂</name>
    <description>A Romanesque chapel from 1932 by J. V. W. Bergamini, architect of St Luke's Hospital, at Rikkyo Jogakuin. It's concrete but warm with North American oak inside. It stands on school grounds, so check when visitors can come.
Kugayama · As of 2026-09-25
Source: すぎなみ学倶楽部 https://www.suginamigaku.org/2016/04/st-margarets-college-schools.html</description>
    <Point>
     <coordinates>139.590164,35.694756</coordinates>
    </Point>
   </Placemark>
   <Placemark>
    <name>Seikō Lodging · 西郊ロッヂング</name>
    <description>A boarding house that moved here from Hongō in 1931, with Western-style rooms that locked, rare at the time. The 1931 main building and 1938 annex are registered tangible cultural properties. It is now an inn and apartments, so admire it from the street.
Ogikubo · As of 2026-09-25
Source: すぎなみ学倶楽部 https://www.suginamigaku.org/2016/11/seiko-lodging.html</description>
    <Point>
     <coordinates>139.625565,35.702972</coordinates>
    </Point>
   </Placemark>
   <Placemark>
    <name>Gengi Sanbō (Suginami Poetry House) · 幻戯山房（すぎなみ詩歌館）</name>
    <description>The 1955 house of Kadokawa Gen'yoshi, poet and founder of the Kadokawa publishing house. It was given to the ward and has been open to the public since 2009. His study shows things from his life, and every room looks onto the garden.
Ogikubo · As of 2026-09-25
Source: すぎなみ学倶楽部 https://www.suginamigaku.org/2016/03/gengisanbo.html</description>
    <Point>
     <coordinates>139.624741,35.698811</coordinates>
    </Point>
   </Placemark>
   <Placemark>
    <name>Katsura Bunko · かつら文庫</name>
    <description>In 1958 the children's author Ishii Momoko opened part of her home as a small library for the neighborhood's children. It still runs as a branch of the Tokyo Children's Library, and adults are welcome too.
Ogikubo · As of 2026-09-25
Source: すぎなみ学倶楽部 https://www.suginamigaku.org/2016/09/katsura-bunko.html</description>
    <Point>
     <coordinates>139.625153,35.702042</coordinates>
    </Point>
   </Placemark>
   <Placemark>
    <name>Ōtaguro Park Memorial Hall · 大田黒公園記念館</name>
    <description>The brick-colored studio that the music critic Ōtaguro Motoo built in 1933, now in the Japanese garden of Ōtaguro Park. His German piano and gramophone are still there.
Ogikubo · As of 2026-09-25
Source: すぎなみ学倶楽部 https://www.suginamigaku.org/2016/03/otaguropark-kinenkan.html</description>
    <Point>
     <coordinates>139.624161,35.701576</coordinates>
    </Point>
   </Placemark>
   <Placemark>
    <name>Tekigaisō · 荻外荘</name>
    <description>The house of Konoe Fumimaro, three times prime minister, designed by Itō Chūta in 1927. It is a national historic site. The ward restored it over ten years and opened it as Tekigaisō Park in December 2024.
Ogikubo · As of 2026-09-25
Source: すぎなみ学倶楽部 https://www.suginamigaku.org/2025/03/tekigaiso.html</description>
    <Point>
     <coordinates>139.622894,35.699215</coordinates>
    </Point>
   </Placemark>
   <Placemark>
    <name>Tekigaisō Exhibition Building · 荻外荘展示棟</name>
    <description>Kuma Kengo's exhibition building across the lane from Tekigaisō, opened in July 2025, with a café and shop downstairs and exhibitions upstairs.
Ogikubo · As of 2026-09-25
Source: すぎなみ学倶楽部 https://www.suginamigaku.org/2025/09/tekigaiso-tenjito.html</description>
    <Point>
     <coordinates>139.622803,35.698929</coordinates>
    </Point>
   </Placemark>
   <Placemark>
    <name>Suginami Animation Museum · 杉並アニメーションミュージアム</name>
    <description>A free museum of Japanese animation on the third floor of Suginami Kaikan: its history, and how anime is made. Closed on Mondays.
Ogikubo · As of 2026-09-25
Source: 杉並アニメーションミュージアム https://sam.or.jp/</description>
    <Point>
     <coordinates>139.607574,35.710491</coordinates>
    </Point>
   </Placemark>
   <Placemark>
    <name>Suginami Local History Museum · 杉並区立郷土博物館</name>
    <description>The ward's history museum, opened in 1989 near the Zenpukuji River; you go in through a thatched gatehouse. The land belonged to the Saga family, and in 1937 their daughter Hiro left from here to marry Pujie, brother of the last emperor of China.
Ōmiya / Matsunoki · As of 2026-09-25
Source: すぎなみ学倶楽部 https://www.suginamigaku.org/2018/02/suginami-historical-museum.html</description>
    <Point>
     <coordinates>139.644547,35.685661</coordinates>
    </Point>
   </Placemark>
   <Placemark>
    <name>Takachiho Budōjō · 高千穂学園武道場</name>
    <description>Built in 1913 as the judo and kendo hall of Takachiho College, it's the oldest wooden school building in the ward and a ward cultural property. The original 36 springs and 10 large jars are still under the floor.
Ōmiya / Matsunoki · As of 2026-09-25
Source: すぎなみ学倶楽部 https://www.suginamigaku.org/2016/07/takachiho-budojo.html</description>
    <Point>
     <coordinates>139.638245,35.682804</coordinates>
    </Point>
   </Placemark>
   <Placemark>
    <name>Misawa Bauhaus Collection · ミサワバウハウスコレクション</name>
    <description>Japan's only museum of the Bauhaus, opened by Misawa Homes in 1996 at its research institute. It holds about 1,500 works and puts on free exhibitions, so check the dates before you go.
Takaido / Fujimigaoka · As of 2026-09-25
Source: すぎなみ学倶楽部 https://www.suginamigaku.org/2014/12/misawa-bauhaus.html</description>
    <Point>
     <coordinates>139.614365,35.679562</coordinates>
    </Point>
   </Placemark>
   <Placemark>
    <name>Risshō Kōsei-kai Great Sacred Hall · 立正佼成会 大聖堂</name>
    <description>The great dome you see from Kan-nana, completed in 1964. It's open to everyone every day, and inside the dome stands a Buddha 6.8 metres tall.
Wada · As of 2026-09-25
Source: すぎなみ学倶楽部 https://www.suginamigaku.org/2014/11/rissho-kosei-kai-cathedral.html</description>
    <Point>
     <coordinates>139.658859,35.687988</coordinates>
    </Point>
   </Placemark>
   <Placemark>
    <name>Joshibi Galleria Nike · 女子美ガレリアニケ</name>
    <description>The only art-university gallery in the ward, at Joshibi's Suginami campus, with about eight free exhibitions a year.
Wada · As of 2026-09-25
Source: すぎなみ学倶楽部 https://www.suginamigaku.org/2022/12/galleria-nike.html</description>
    <Point>
     <coordinates>139.662079,35.693089</coordinates>
    </Point>
   </Placemark>
  </Folder>
  <Folder>
   <name>Eat</name>
   <Placemark>
    <name>Harukiya Honten · 春木家本店</name>
    <description>A soba house open since 1931, the root of Harukiya on Ōme Kaidō. Soba is the main business, but its chūka soba is counted among Tokyo's best too.
Amanuma · As of 2026-09-25
Source: すぎなみ学倶楽部 https://www.suginamigaku.org/2014/10/harukiya-honten.html</description>
    <Point>
     <coordinates>139.624451,35.706722</coordinates>
    </Point>
   </Placemark>
   <Placemark>
    <name>Chimoto Sōhonten Asagaya · ちもと総本店 阿佐谷</name>
    <description>A sweets house founded in the Edo period in what is now Ginza and based in Karuizawa since the war. This shop, opened in 2016, is its only other one: kakigōri made from natural ice, and the light Chimoto mochi.
Asagaya · As of 2026-09-25
Source: すぎなみ学倶楽部 https://www.suginamigaku.org/2019/07/timoto-souhonten.html</description>
    <Point>
     <coordinates>139.637344,35.700043</coordinates>
    </Point>
   </Placemark>
   <Placemark>
    <name>Menya Yoichi · 麺や与一</name>
    <description>A ramen shop by Hamadayama station since 2004, with light shio and miso ramen.
Hamadayama · As of 2026-09-25
Source: すぎなみ学倶楽部 https://www.suginamigaku.org/2014/11/menya-yoichi.html</description>
    <Point>
     <coordinates>139.627151,35.683167</coordinates>
    </Point>
   </Placemark>
   <Placemark>
    <name>Shimizuya · 清水屋</name>
    <description>Founded in 1940 and known for the fried manjū sold to people visiting Myōhōji. Since 2015 it has also been a soba shop, where the third-generation owner makes the noodles by hand.
Horinouchi / Umezato · As of 2026-09-25
Source: すぎなみ学倶楽部 https://www.suginamigaku.org/2016/07/shimizuya.html</description>
    <Point>
     <coordinates>139.652985,35.691807</coordinates>
    </Point>
   </Placemark>
   <Placemark>
    <name>Eifukuchō Taishōken · 永福町大勝軒</name>
    <description>Open since 1955 and famous for big bowls of soy ramen rich with niboshi (dried sardines), with two portions of homemade noodles.
Izumi / Daitabashi side · As of 2026-09-25
Source: 永福町大勝軒 https://eifuku-taishouken.com/</description>
    <Point>
     <coordinates>139.643951,35.67622</coordinates>
    </Point>
   </Placemark>
   <Placemark>
    <name>Grill Marino · まちの洋食屋さん グリルマリノ</name>
    <description>A family yōshoku restaurant since 1967: hamburg steak, Napolitan spaghetti, gratin and omurice.
Izumi / Daitabashi side · As of 2026-09-25
Source: すぎなみ学倶楽部 https://www.suginamigaku.org/2014/10/g-marino.html</description>
    <Point>
     <coordinates>139.645706,35.67926</coordinates>
    </Point>
   </Placemark>
   <Placemark>
    <name>Kiyoka · 沖縄料理本店 きよ香</name>
    <description>Opened in 1961 by a woman from Ishigaki, when Tokyo had only a handful of Okinawan restaurants: the root of Kōenji's Okinawan food. Her son still cooks her home recipes.
Kōenji · As of 2026-09-25
Source: すぎなみ学倶楽部 https://www.suginamigaku.org/2023/07/kiyoka.html</description>
    <Point>
     <coordinates>139.649078,35.705482</coordinates>
    </Point>
   </Placemark>
   <Placemark>
    <name>Takaido Mābo Table · 高井戸 麻婆TABLE</name>
    <description>A neighborhood Chinese restaurant opened in 2017 by a chef with more than twenty years' experience. Its mapo tofu balances the numbing heat of Sichuan pepper against chilli.
Miyamae · As of 2026-09-25
Source: すぎなみ学倶楽部 https://www.suginamigaku.org/2019/12/maabo-table.html</description>
    <Point>
     <coordinates>139.616089,35.6894</coordinates>
    </Point>
   </Placemark>
   <Placemark>
    <name>Kokeshiya · こけし屋</name>
    <description>Opened by the station in 1949 as a coffee shop, then added Western cakes and French cooking; the painter Suzuki Shintarō designed its wrapping paper. It closed in 2022 to rebuild and reopened in May 2026.
Nishi-Ogikubo · As of 2026-09-25
Source: すぎなみ学倶楽部 https://www.suginamigaku.org/2014/10/kokeshiya.html</description>
    <Point>
     <coordinates>139.600494,35.703484</coordinates>
    </Point>
   </Placemark>
   <Placemark>
    <name>Amaikko · 甘味処 甘いっ子</name>
    <description>A sweets parlor open since 1965, known for kakigōri with homemade strawberry and apricot syrups. A regular of more than twenty years took it over in 2000.
Nishi-Ogikubo · As of 2026-09-25
Source: すぎなみ学倶楽部 https://www.suginamigaku.org/2015/05/amaikko.html</description>
    <Point>
     <coordinates>139.598969,35.701035</coordinates>
    </Point>
   </Placemark>
   <Placemark>
    <name>Harukiya · 中華そば 春木屋</name>
    <description>Open since 1949 and one of the places that made 'Ogikubo ramen' famous: clear soy-sauce chūka soba topped with a triangle of nori. Its motto is to keep changing so that the taste can stay the same.
Ogikubo · As of 2026-09-25
Source: すぎなみ学倶楽部 https://www.suginamigaku.org/2014/10/harukiya.html</description>
    <Point>
     <coordinates>139.622437,35.705109</coordinates>
    </Point>
   </Placemark>
   <Placemark>
    <name>Juhachiban · 手もみラーメン 十八番</name>
    <description>A hand-kneaded ramen counter since 1966 that opens in the evening and stays open past midnight. The garlicky tokusei juhachiban comes in soy or miso.
Ogikubo · As of 2026-09-25
Source: すぎなみ学倶楽部 https://www.suginamigaku.org/2014/10/juhachiban.html</description>
    <Point>
     <coordinates>139.622406,35.704838</coordinates>
    </Point>
   </Placemark>
   <Placemark>
    <name>Honmura-an · 本むら庵</name>
    <description>A soba house founded in 1924. Each day's buckwheat is ground in a stone mill, and the noodles are bound with well water.
Ogikubo · As of 2026-09-25
Source: すぎなみ学倶楽部 https://www.suginamigaku.org/2014/10/honmuraan.html</description>
    <Point>
     <coordinates>139.611786,35.704506</coordinates>
    </Point>
   </Placemark>
   <Placemark>
    <name>Eiryū · 栄龍</name>
    <description>A neighborhood Chinese restaurant since 1969, serving old-style Tokyo ramen. The curry ramen is a favorite.
Shimo-Takaido / Sakurajōsui side · As of 2026-09-25
Source: すぎなみ学倶楽部 https://www.suginamigaku.org/2014/12/eiryu.html</description>
    <Point>
     <coordinates>139.636536,35.667854</coordinates>
    </Point>
   </Placemark>
   <Placemark>
    <name>Suginami Mangetsu · 手打そば・地酒 杉並まん月</name>
    <description>Started around 1955 as a soba shop attached to a noodle works. Since 2000 it has served sake and small dishes, ending with soba made several times a day.
Wada · As of 2026-09-25
Source: すぎなみ学倶楽部 https://www.suginamigaku.org/2026/06/sobamangetsu.html</description>
    <Point>
     <coordinates>139.657227,35.692963</coordinates>
    </Point>
   </Placemark>
   <Placemark>
    <name>Tenshin Hanten · 天津飯店</name>
    <description>A Chinese restaurant by Nakano-Fujimichō station since 1978, with homemade chilli oil, tantanmen and set meals that change every week.
Wada · As of 2026-09-25
Source: すぎなみ学倶楽部 https://www.suginamigaku.org/2014/11/tenshinhanten.html</description>
    <Point>
     <coordinates>139.666275,35.691109</coordinates>
    </Point>
   </Placemark>
   <Placemark>
    <name>Ramen Ten no Michi · らーめん 天の道</name>
    <description>A ramen shop facing the great torii of Igusa Hachimangū, opened in 2005 by a Suginami local who trained at ten ramen shops. The name comes from Kamen Rider Kabuto.
Zenpukuji · As of 2026-09-25
Source: すぎなみ学倶楽部 https://www.suginamigaku.org/2023/12/tennomichi.html</description>
    <Point>
     <coordinates>139.598358,35.715111</coordinates>
    </Point>
   </Placemark>
  </Folder>
  <Folder>
   <name>Drink</name>
   <Placemark>
    <name>Violon · ヴィオロン</name>
    <description>A classical music café opened in 1980, with one of the world's largest hand-cranked gramophones and handmade speakers.
Asagaya · As of 2026-09-25
Source: すぎなみ学倶楽部 https://www.suginamigaku.org/2014/10/violon.html</description>
    <Point>
     <coordinates>139.632553,35.705189</coordinates>
    </Point>
   </Placemark>
   <Placemark>
    <name>Berry's Tea Room · ベリーズティールーム</name>
    <description>A British tea room open Friday to Sunday afternoons, up the stairs behind a pink door, known for crumpets, still rare in Japan.
Hamadayama · As of 2026-09-25
Source: すぎなみ学倶楽部 https://www.suginamigaku.org/2023/06/berrystearoom.html</description>
    <Point>
     <coordinates>139.627213,35.682365</coordinates>
    </Point>
   </Placemark>
   <Placemark>
    <name>Nanatsumori · 七つ森</name>
    <description>A coffee house since 1978, made from the last unit of an old row of shops, keeping its beams and pillars and filled with antiques.
Kōenji · As of 2026-09-25
Source: すぎなみ学倶楽部 https://www.suginamigaku.org/2014/10/nanatsumori.html</description>
    <Point>
     <coordinates>139.647415,35.700119</coordinates>
    </Point>
   </Placemark>
   <Placemark>
    <name>R-za Reading Room · アール座読書館</name>
    <description>A café for reading, opened in 2008, where conversation is politely declined. Water trickles into aquariums, a wall clock chimes, and every seat is different.
Kōenji · As of 2026-09-25
Source: すぎなみ学倶楽部 https://www.suginamigaku.org/2016/10/r-za-dokusho-kan.html</description>
    <Point>
     <coordinates>139.648422,35.704025</coordinates>
    </Point>
   </Placemark>
   <Placemark>
    <name>Gensōen · 焼きたてパンと喫茶 源宗園</name>
    <description>A tea shop run by a Shizuoka tea company near Momoi Harappa Park, now a bakery café with matcha soft-serve and a terrace where dogs are welcome.
Momoi / Imagawa · As of 2026-09-25
Source: すぎなみ学倶楽部 https://www.suginamigaku.org/2024/07/gensouen.html</description>
    <Point>
     <coordinates>139.607208,35.715725</coordinates>
    </Point>
   </Placemark>
   <Placemark>
    <name>Monozuki · 物豆奇</name>
    <description>A coffee house opened around 1975 and filled with antiques the first owner gathered from all over Japan: wall clocks, oil lamps, pillars from old farmhouses. The second owner has kept it just as it was.
Nishi-Ogikubo · As of 2026-09-25
Source: すぎなみ学倶楽部 https://www.suginamigaku.org/2014/10/monozuki.html</description>
    <Point>
     <coordinates>139.596985,35.705437</coordinates>
    </Point>
   </Placemark>
   <Placemark>
    <name>Shōan Bunko · 松庵文庫</name>
    <description>A book café in a house more than 90 years old, once home to a musician couple. Its windows look onto a garden and an azalea over a century old.
Nishi-Ogikubo · As of 2026-09-25
Source: すぎなみ学倶楽部 https://www.suginamigaku.org/2014/10/tutuji-cafe.html</description>
    <Point>
     <coordinates>139.595505,35.701466</coordinates>
    </Point>
   </Placemark>
   <Placemark>
    <name>Meikyoku Kissa Mignon · 名曲喫茶ミニヨン</name>
    <description>A classical music café opened in 1961, south of the station since 1971. LPs play on a fine sound system, with concerts and exhibitions in the room behind.
Ogikubo · As of 2026-09-25
Source: すぎなみ学倶楽部 https://www.suginamigaku.org/2015/09/mignon.html</description>
    <Point>
     <coordinates>139.622543,35.703632</coordinates>
    </Point>
   </Placemark>
  </Folder>
  <Folder>
   <name>Shop</name>
   <Placemark>
    <name>Satō Korokke · さとうコロッケ店</name>
    <description>Frying croquettes since 1948, when it sold them in the black market by the station. Regulars kept it going when the market closed. It's down a lane off Kyōkai-dōri, with a queue at lunchtime.
Amanuma · As of 2026-09-25
Source: すぎなみ学倶楽部 https://www.suginamigaku.org/2014/10/satou-korokke.html</description>
    <Point>
     <coordinates>139.62027,35.706264</coordinates>
    </Point>
   </Placemark>
   <Placemark>
    <name>Harunaya · 和菓子 榛名屋</name>
    <description>A family wagashi shop on Kyōkai-dōri since 1977, named after Mount Haruna in the founder's Gunma. The mame daifuku is made from nothing but rice, beans, sugar and salt.
Amanuma · As of 2026-09-25
Source: すぎなみ学倶楽部 https://www.suginamigaku.org/2016/02/harunaya.html</description>
    <Point>
     <coordinates>139.61972,35.707432</coordinates>
    </Point>
   </Placemark>
   <Placemark>
    <name>L'Abeille · はちみつ専門店ラベイユ</name>
    <description>A honey shop that began on Kyōkai-dōri in 1969, with honeys from around the world to taste before you choose.
Amanuma · As of 2026-09-25
Source: すぎなみ学倶楽部 https://www.suginamigaku.org/2014/10/honey-raveille.html</description>
    <Point>
     <coordinates>139.620102,35.706799</coordinates>
    </Point>
   </Placemark>
   <Placemark>
    <name>Toraya Chinzan · とらや椿山</name>
    <description>A wagashi shop on the Pearl Center arcade since 1925. Its big chestnut manjū, a whole candied chestnut in white bean paste, came out of a craftsmen's contest in the early 1960s.
Asagaya · As of 2026-09-25
Source: すぎなみ学倶楽部 https://www.suginamigaku.org/2014/10/toraya-chinzan.html</description>
    <Point>
     <coordinates>139.637009,35.701286</coordinates>
    </Point>
   </Placemark>
   <Placemark>
    <name>Kamajū · 蒲重蒲鉾店</name>
    <description>A fish-cake maker since 1936. The family fries about thirty kinds of satsuma-age from five in the morning, and sells oden all year.
Asagaya · As of 2026-09-25
Source: すぎなみ学倶楽部 https://www.suginamigaku.org/2014/10/kamaju-asagaya.html</description>
    <Point>
     <coordinates>139.636993,35.70369</coordinates>
    </Point>
   </Placemark>
   <Placemark>
    <name>Eitarō · 御菓子司 栄太楼</name>
    <description>A wagashi shop on the Pearl Center arcade since 1958, now in its third generation, known for kuri-shigure, steamed bean paste with chestnut.
Asagaya · As of 2026-09-25
Source: すぎなみ学倶楽部 https://www.suginamigaku.org/2016/03/onkashitsukasa-eitaro.html</description>
    <Point>
     <coordinates>139.637131,35.699051</coordinates>
    </Point>
   </Placemark>
   <Placemark>
    <name>Koshō Konkodō · 古書コンコ堂</name>
    <description>A secondhand bookshop opened in 2011 by a former librarian, with wooden shelves and a counter he built with friends.
Asagaya · As of 2026-09-25
Source: すぎなみ学倶楽部 https://www.suginamigaku.org/2019/06/konkodo.html</description>
    <Point>
     <coordinates>139.634796,35.707752</coordinates>
    </Point>
   </Placemark>
   <Placemark>
    <name>Eifuku Aoyagi · 永福 青柳</name>
    <description>A wagashi shop by Eifukuchō station since 1934, making fresh daifuku and dango from five each morning. Its baked sweet 'Eifuku' once won a Prime Minister's award.
Eifuku / Nishi-Eifuku · As of 2026-09-25
Source: すぎなみ学倶楽部 https://www.suginamigaku.org/2017/09/eifukuaoyagi.html</description>
    <Point>
     <coordinates>139.64296,35.676727</coordinates>
    </Point>
   </Placemark>
   <Placemark>
    <name>Bourbon · フランス菓子 ブルボン</name>
    <description>A white-tiled neighborhood cake shop beside the tracks at Nishi-Eifuku since 1969, known for its orange cake.
Eifuku / Nishi-Eifuku · As of 2026-09-25
Source: すぎなみ学倶楽部 https://www.suginamigaku.org/2014/10/bulebon.html</description>
    <Point>
     <coordinates>139.634659,35.678936</coordinates>
    </Point>
   </Placemark>
   <Placemark>
    <name>Pâtisserie Voisin · パティスリー ヴォワザン</name>
    <description>A French pâtisserie by a chef who worked at Jean-Paul Hévin and Joël Robuchon, opened in Ogikubo in 2009 and here since 2016. Its name means 'neighbor'.
Hamadayama · As of 2026-09-25
Source: すぎなみ学倶楽部 https://www.suginamigaku.org/2023/04/voisin.html</description>
    <Point>
     <coordinates>139.627151,35.682484</coordinates>
    </Point>
   </Placemark>
   <Placemark>
    <name>Gran Montagne · グランモンターニュ</name>
    <description>A bakery and cake shop by Iogi station, opened in 2008 by a teacher of 21 years at a pastry school. Try the Iogi anpan, packed with Hokkaido red beans.
Kami-Igusa · As of 2026-09-25
Source: すぎなみ学倶楽部 https://www.suginamigaku.org/2014/10/gran-montagne.html</description>
    <Point>
     <coordinates>139.614075,35.722286</coordinates>
    </Point>
   </Placemark>
   <Placemark>
    <name>Toshi Yoroizuka Atelier · トシ・ヨロイヅカ アトリエ</name>
    <description>The workshop of pâtissier Yoroizuka Toshihiko, the first Japanese head pastry chef at a three-star restaurant in Belgium. Most of the cakes for his shops are made here, and you can buy them fresh at the counter.
Kami-Takaido / Hachimanyama side · As of 2026-09-25
Source: すぎなみ学倶楽部 https://www.suginamigaku.org/2025/01/toshiyoroizuka.html</description>
    <Point>
     <coordinates>139.615967,35.670132</coordinates>
    </Point>
   </Placemark>
   <Placemark>
    <name>PANSUKI · PANSUKI</name>
    <description>A bakery for bread lovers, opened in 2023 north of Hachimanyama station: a pink building with the kitchen behind glass and more than fifty kinds of bread by 7:30 in the morning.
Kami-Takaido / Hachimanyama side · As of 2026-09-25
Source: すぎなみ学倶楽部 https://www.suginamigaku.org/2026/09/pansuki.html</description>
    <Point>
     <coordinates>139.615997,35.671745</coordinates>
    </Point>
   </Placemark>
   <Placemark>
    <name>Trianon · トリアノン洋菓子店 高円寺本店</name>
    <description>A cake shop on the south-exit square since 1960, still making butter-cream cakes such as the mocha roll it has sold since it opened.
Kōenji · As of 2026-09-25
Source: すぎなみ学倶楽部 https://www.suginamigaku.org/2017/04/trianon.html</description>
    <Point>
     <coordinates>139.649521,35.705074</coordinates>
    </Point>
   </Placemark>
   <Placemark>
    <name>Ōishi Shoten · 大石書店</name>
    <description>A secondhand bookshop opened in 1931, when Kōenji was still a village road with a few shops, and run by the same family ever since.
Kōenji · As of 2026-09-25
Source: すぎなみ学倶楽部 https://www.suginamigaku.org/2017/05/oishi-shoten.html</description>
    <Point>
     <coordinates>139.648239,35.702873</coordinates>
    </Point>
   </Placemark>
   <Placemark>
    <name>Kanekoen · 金子園</name>
    <description>The head shop of a tea merchant, at the entrance to Kōenji Junjō shopping street. They will pour you a taste from the kettle.
Kōenji · As of 2026-09-25
Source: すぎなみ学倶楽部 https://www.suginamigaku.org/2014/12/kanekoen.html</description>
    <Point>
     <coordinates>139.649643,35.706108</coordinates>
    </Point>
   </Placemark>
   <Placemark>
    <name>Hirataya Tofu · 平田屋豆腐店</name>
    <description>A tofu maker in its third generation, up at four each morning to make nigari tofu from Fukuyutaka soybeans, with side dishes and okara doughnuts.
Kugayama · As of 2026-09-25
Source: すぎなみ学倶楽部 https://www.suginamigaku.org/2014/10/hirataya-tofu.html</description>
    <Point>
     <coordinates>139.599869,35.688366</coordinates>
    </Point>
   </Placemark>
   <Placemark>
    <name>Kuppel · パン工房 クッペル</name>
    <description>A bakery on Ōme Kaidō since 1977, where a self-taught baker and his wife sell cheap, hearty bread over the counter.
Momoi / Imagawa · As of 2026-09-25
Source: すぎなみ学倶楽部 https://www.suginamigaku.org/2014/10/kuppel.html</description>
    <Point>
     <coordinates>139.609924,35.710751</coordinates>
    </Point>
   </Placemark>
   <Placemark>
    <name>Kōmiya · 好味屋</name>
    <description>A cake shop on Itsukaichi Kaidō that began about 70 years ago as a dried-goods store. The favorite is the Indian pudding, a steamed, liqueur-scented pudding topped with melon and cream.
Narita · As of 2026-09-25
Source: すぎなみ学倶楽部 https://www.suginamigaku.org/2014/10/koumiya.html</description>
    <Point>
     <coordinates>139.639893,35.693363</coordinates>
    </Point>
   </Placemark>
   <Placemark>
    <name>Miharadō · 三原堂</name>
    <description>A wagashi shop opened in 1935 under a name shared by Miharadō of Yotsuya. Known for thin, crisp shio senbei with the rice grains left in.
Nishi-Ogikubo · As of 2026-09-25
Source: すぎなみ学倶楽部 https://www.suginamigaku.org/2014/10/miharado.html</description>
    <Point>
     <coordinates>139.600586,35.704487</coordinates>
    </Point>
   </Placemark>
   <Placemark>
    <name>Kidaya · 喜田屋</name>
    <description>A wagashi shop opened in 1948, famous for mame daifuku packed with red peas under a thin skin. In winter they can sell out before noon.
Nishi-Ogikubo · As of 2026-09-25
Source: すぎなみ学倶楽部 https://www.suginamigaku.org/2014/10/kidaya.html</description>
    <Point>
     <coordinates>139.60083,35.705513</coordinates>
    </Point>
   </Placemark>
   <Placemark>
    <name>Seirindō Shobō · 盛林堂書房</name>
    <description>A secondhand bookshop founded in 1949 and on this spot since the year after, strong in mysteries and literary fiction. Ibuse Masuji and Matsumoto Seichō were customers.
Nishi-Ogikubo · As of 2026-09-25
Source: すぎなみ学倶楽部 https://www.suginamigaku.org/2019/03/seirindou-syobou.html</description>
    <Point>
     <coordinates>139.599808,35.702263</coordinates>
    </Point>
   </Placemark>
   <Placemark>
    <name>Niwatori Bunko · にわとり文庫</name>
    <description>A secondhand bookshop opened in 2005, a Year of the Rooster, hence the name 'Chicken Library'. Kokeshi dolls line the front, and old toys sit among the books.
Nishi-Ogikubo · As of 2026-09-25
Source: すぎなみ学倶楽部 https://www.suginamigaku.org/2022/10/niwatoribunko.html</description>
    <Point>
     <coordinates>139.602173,35.703732</coordinates>
    </Point>
   </Placemark>
   <Placemark>
    <name>Kameya · 御菓子司 亀屋</name>
    <description>A wagashi shop that moved here from Yotsuya in 1930, after the Great Kantō Earthquake. Its best-known sweet is the café-au-lait daifuku: coffee-flavored bean paste and cream, sold frozen.
Ogikubo · As of 2026-09-25
Source: すぎなみ学倶楽部 https://www.suginamigaku.org/2014/10/kameya.html</description>
    <Point>
     <coordinates>139.616364,35.707138</coordinates>
    </Point>
   </Placemark>
   <Placemark>
    <name>Koganedō · こがね堂</name>
    <description>Rice crackers made by hand, from pounding the mochi onwards, in front of Takaido station since 1947. The hina-arare for the Dolls' Festival sell out every year.
Takaido / Fujimigaoka · As of 2026-09-25
Source: すぎなみ学倶楽部 https://www.suginamigaku.org/2014/10/koganedo.html</description>
    <Point>
     <coordinates>139.615311,35.682919</coordinates>
    </Point>
   </Placemark>
  </Folder>
 </Document>
</kml>
