<?xml version="1.0" encoding="UTF-8"?>
<kml xmlns="http://www.opengis.net/kml/2.2">
 <Document>
  <name>すぎなみ好き・杉並のまち</name>
  <description>suginami-town-api（https://suginamisuki.com/）より。お出かけ前に出典をご確認ください。
「令和2年国勢調査町丁・字等別境界データ」（総務省統計局）を加工して作成 / 出典：政府統計の総合窓口(e-Stat) https://www.e-stat.go.jp/</description>
  <Style id="neighborhood">
   <LineStyle>
    <color>ff3b4c26</color>
    <width>2</width>
   </LineStyle>
   <PolyStyle>
    <color>403b4c26</color>
   </PolyStyle>
  </Style>
  <Folder>
   <name>地域</name>
   <Placemark>
    <name>天沼 · Amanuma</name>
    <description>なじみの住宅街の裏道。パン屋、自転車、植木鉢。</description>
    <styleUrl>#neighborhood</styleUrl>
    <MultiGeometry>
     <Polygon>
      <outerBoundaryIs>
       <LinearRing>
        <coordinates>139.62642,35.70467 139.62897,35.70473 139.62938,35.70559 139.62995,35.7062 139.63041,35.70704 139.63067,35.70718 139.63065,35.70774 139.62997,35.70906 139.6298,35.70979 139.62911,35.71178 139.63129,35.71211 139.63413,35.71272 139.63455,35.71338 139.63487,35.71416 139.63121,35.71509 139.62783,35.71633 139.62111,35.71836 139.62154,35.71633 139.62124,35.71518 139.62087,35.71463 139.61916,35.71288 139.61979,35.71125 139.62021,35.71088 139.62087,35.71077 139.62112,35.7106 139.61739,35.70899 139.61561,35.70785 139.61829,35.70631 139.61933,35.70581 139.62034,35.70546 139.62079,35.70535 139.62311,35.70518 139.6245,35.70462 139.62642,35.70467</coordinates>
       </LinearRing>
      </outerBoundaryIs>
     </Polygon>
    </MultiGeometry>
   </Placemark>
   <Placemark>
    <name>阿佐ヶ谷 · Asagaya</name>
    <description>緑と文学の街。カフェ、ケヤキ並木、ジャズ。</description>
    <styleUrl>#neighborhood</styleUrl>
    <MultiGeometry>
     <Polygon>
      <outerBoundaryIs>
       <LinearRing>
        <coordinates>139.63562,35.69949 139.638,35.69859 139.6401,35.698 139.64217,35.69783 139.64388,35.69783 139.64368,35.69912 139.64367,35.70092 139.64371,35.70167 139.64391,35.70275 139.6439,35.70325 139.64487,35.70485 139.64492,35.70523 139.64256,35.70518 139.64199,35.70563 139.6419,35.70641 139.64251,35.70812 139.64352,35.71148 139.6428,35.7117 139.64214,35.7123 139.64142,35.71277 139.6416,35.71486 139.64009,35.71543 139.63816,35.71598 139.6373,35.71651 139.63602,35.7167 139.63521,35.71472 139.63486,35.71415 139.63455,35.71338 139.63413,35.71272 139.63129,35.71211 139.62911,35.71178 139.6298,35.70979 139.62997,35.70906 139.63065,35.70774 139.63067,35.70718 139.63041,35.70704 139.62995,35.7062 139.62938,35.70559 139.62897,35.70473 139.6245,35.70462 139.62747,35.70332 139.62909,35.70233 139.63043,35.70163 139.63562,35.69949</coordinates>
       </LinearRing>
      </outerBoundaryIs>
     </Polygon>
    </MultiGeometry>
   </Placemark>
   <Placemark>
    <name>永福 · Eifuku / Nishi-Eifuku</name>
    <description>ひと皿と、静かな帰り道。麺屋ののれん。</description>
    <styleUrl>#neighborhood</styleUrl>
    <MultiGeometry>
     <Polygon>
      <outerBoundaryIs>
       <LinearRing>
        <coordinates>139.64228,35.66764 139.64503,35.668 139.64599,35.6682 139.6479,35.66891 139.64964,35.6699 139.65018,35.67009 139.64991,35.67132 139.64953,35.6718 139.64457,35.6753 139.64364,35.67585 139.64399,35.67643 139.64393,35.67647 139.64411,35.67737 139.64391,35.67814 139.64353,35.68078 139.64352,35.68137 139.64335,35.68193 139.63623,35.6802 139.63546,35.67981 139.63539,35.67984 139.63492,35.67926 139.63441,35.67939 139.63406,35.67865 139.63346,35.678 139.63364,35.67778 139.63375,35.67653 139.63452,35.67656 139.63454,35.67576 139.63481,35.67505 139.63523,35.67464 139.63519,35.67457 139.63554,35.67416 139.63573,35.67352 139.63648,35.67282 139.63639,35.67256 139.63711,35.67229 139.63874,35.67091 139.63933,35.67059 139.64087,35.6702 139.64222,35.67013 139.64168,35.66902 139.64159,35.6687 139.64156,35.66798 139.64161,35.66756 139.64228,35.66764</coordinates>
       </LinearRing>
      </outerBoundaryIs>
     </Polygon>
    </MultiGeometry>
   </Placemark>
   <Placemark>
    <name>浜田山 · Hamadayama</name>
    <description>緑と、ゆったりした時間。柏の宮公園の原っぱと池。</description>
    <styleUrl>#neighborhood</styleUrl>
    <MultiGeometry>
     <Polygon>
      <outerBoundaryIs>
       <LinearRing>
        <coordinates>139.62677,35.67537 139.62723,35.67532 139.62889,35.67572 139.6292,35.67562 139.62947,35.67563 139.62983,35.67578 139.63075,35.67594 139.63317,35.67615 139.63375,35.67584 139.63519,35.67457 139.63523,35.67464 139.63481,35.67505 139.63454,35.67576 139.63452,35.67656 139.63375,35.67653 139.63364,35.67778 139.63346,35.678 139.63406,35.67865 139.63441,35.67939 139.63492,35.67926 139.63539,35.67984 139.63546,35.67981 139.63616,35.68016 139.63508,35.68071 139.63589,35.68367 139.63364,35.68482 139.62829,35.68697 139.62641,35.6876 139.62498,35.68819 139.62399,35.68653 139.62584,35.68309 139.62514,35.68138 139.6255,35.68003 139.6245,35.67852 139.62336,35.67758 139.6256,35.67587 139.62677,35.67537</coordinates>
       </LinearRing>
      </outerBoundaryIs>
     </Polygon>
    </MultiGeometry>
   </Placemark>
   <Placemark>
    <name>方南 · Hōnan</name>
    <description>地域のつながり。商店街、八百屋、祭りの飾り。</description>
    <styleUrl>#neighborhood</styleUrl>
    <MultiGeometry>
     <Polygon>
      <outerBoundaryIs>
       <LinearRing>
        <coordinates>139.66199,35.67987 139.66169,35.68023 139.66166,35.68038 139.65984,35.6798 139.65959,35.67985 139.65935,35.68003 139.65945,35.68011 139.65958,35.68008 139.65978,35.68026 139.6597,35.68031 139.65973,35.68039 139.66007,35.6805 139.66061,35.68111 139.66011,35.68132 139.66019,35.6817 139.65992,35.68176 139.66001,35.68204 139.65935,35.6822 139.65942,35.68317 139.65925,35.68319 139.65954,35.68363 139.65994,35.68365 139.66016,35.68414 139.66052,35.68423 139.6602,35.6849 139.65987,35.68478 139.65978,35.68512 139.65938,35.68514 139.65953,35.68572 139.6593,35.68601 139.6592,35.68603 139.65915,35.68664 139.65728,35.68659 139.65625,35.68632 139.6568,35.68488 139.65725,35.67988 139.6574,35.67907 139.6607,35.67261 139.66143,35.67281 139.66138,35.67294 139.6618,35.67368 139.66161,35.67429 139.66134,35.67462 139.66155,35.67481 139.6618,35.67533 139.66174,35.67553 139.66188,35.67568 139.664,35.67656 139.66368,35.67727 139.66352,35.67722 139.66341,35.67761 139.6634,35.67802 139.66453,35.67774 139.6646,35.67794 139.66472,35.67794 139.6648,35.67891 139.66384,35.67888 139.66397,35.67936 139.66397,35.67956 139.66388,35.67963 139.66305,35.6796 139.66289,35.67953 139.66271,35.67962 139.66251,35.67958 139.66219,35.67984 139.66199,35.67987</coordinates>
       </LinearRing>
      </outerBoundaryIs>
     </Polygon>
    </MultiGeometry>
   </Placemark>
   <Placemark>
    <name>堀ノ内 · Horinouchi / Umezato</name>
    <description>日々の営み。寺町の通りと和菓子屋。</description>
    <styleUrl>#neighborhood</styleUrl>
    <MultiGeometry>
     <Polygon>
      <outerBoundaryIs>
       <LinearRing>
        <coordinates>139.64813,35.68868 139.64551,35.68471 139.64667,35.68457 139.64752,35.68399 139.64715,35.68363 139.64716,35.68295 139.64732,35.68284 139.64801,35.68292 139.64971,35.68267 139.65187,35.68261 139.65363,35.68302 139.65694,35.68344 139.65675,35.6851 139.65524,35.68903 139.65439,35.6935 139.65435,35.69416 139.65449,35.69565 139.65484,35.69808 139.65129,35.69805 139.64772,35.69788 139.64242,35.69782 139.64036,35.69795 139.63921,35.69824 139.63903,35.69789 139.64054,35.69624 139.64093,35.69547 139.64104,35.69493 139.64149,35.69447 139.64625,35.6961 139.64741,35.69643 139.64807,35.6968 139.64812,35.69675 139.64798,35.69591 139.64804,35.69583 139.64801,35.69502 139.64717,35.69517 139.64636,35.69388 139.64633,35.69357 139.64647,35.69257 139.64611,35.6917 139.64602,35.69102 139.64613,35.69031 139.64622,35.69033 139.64631,35.68982 139.64607,35.68977 139.64621,35.68922 139.64685,35.68914 139.64813,35.68868</coordinates>
       </LinearRing>
      </outerBoundaryIs>
     </Polygon>
    </MultiGeometry>
   </Placemark>
   <Placemark>
    <name>井草 · Igusa / Iogi / Shimo-Igusa</name>
    <description>商店と、ところどころに残る田園。野菜の直売所と畑。</description>
    <styleUrl>#neighborhood</styleUrl>
    <MultiGeometry>
     <Polygon>
      <outerBoundaryIs>
       <LinearRing>
        <coordinates>139.62721,35.72408 139.62425,35.72953 139.62443,35.73008 139.62274,35.73035 139.62126,35.73045 139.62032,35.73037 139.61987,35.73019 139.62023,35.73145 139.61782,35.73093 139.61683,35.73055 139.61713,35.73004 139.61591,35.72979 139.61582,35.72985 139.61591,35.72994 139.61574,35.73015 139.61548,35.73008 139.61531,35.73014 139.61349,35.72959 139.61351,35.72954 139.6096,35.72856 139.60906,35.72837 139.6083,35.72793 139.60434,35.72684 139.60179,35.72577 139.60192,35.72542 139.60368,35.72532 139.6037,35.72539 139.60387,35.72526 139.61434,35.72482 139.61408,35.71911 139.61796,35.71928 139.62701,35.71659 139.63121,35.71509 139.63487,35.71416 139.63537,35.71506 139.63602,35.7167 139.6321,35.71712 139.63207,35.71734 139.63189,35.71743 139.63149,35.7179 139.63111,35.71849 139.6313,35.71911 139.63154,35.7194 139.63163,35.71973 139.63155,35.71998 139.63076,35.72065 139.6306,35.72063 139.63043,35.72084 139.6295,35.72039 139.62882,35.72097 139.62816,35.72191 139.62806,35.72247 139.62752,35.72361 139.62721,35.72408</coordinates>
       </LinearRing>
      </outerBoundaryIs>
     </Polygon>
    </MultiGeometry>
   </Placemark>
   <Placemark>
    <name>和泉 · Izumi / Daitabashi side</name>
    <description>路地の街。沖縄の味。</description>
    <styleUrl>#neighborhood</styleUrl>
    <MultiGeometry>
     <Polygon>
      <outerBoundaryIs>
       <LinearRing>
        <coordinates>139.65846,35.67705 139.6574,35.67907 139.6573,35.67942 139.65694,35.68344 139.65363,35.68302 139.65187,35.68261 139.64971,35.68267 139.64781,35.68292 139.64335,35.68193 139.64352,35.68137 139.64353,35.68078 139.64391,35.67814 139.64411,35.67737 139.64393,35.67647 139.64399,35.67643 139.64364,35.67585 139.64457,35.6753 139.64953,35.6718 139.64991,35.67132 139.65016,35.67031 139.65391,35.67089 139.65434,35.67092 139.65444,35.67063 139.65516,35.67076 139.65672,35.67131 139.65679,35.67149 139.65744,35.67172 139.66071,35.67259 139.65846,35.67705</coordinates>
       </LinearRing>
      </outerBoundaryIs>
     </Polygon>
    </MultiGeometry>
   </Placemark>
   <Placemark>
    <name>上井草 · Kami-Igusa</name>
    <description>遊び心のある、ものづくりの街。アニメーションのスタジオ。</description>
    <styleUrl>#neighborhood</styleUrl>
    <MultiGeometry>
     <Polygon>
      <outerBoundaryIs>
       <LinearRing>
        <coordinates>139.61358,35.72482 139.60387,35.72526 139.6037,35.72539 139.60368,35.72532 139.60192,35.72542 139.60195,35.72534 139.60147,35.72536 139.60022,35.72402 139.59976,35.72374 139.59824,35.7232 139.59756,35.72283 139.59675,35.72219 139.59577,35.72203 139.59582,35.72157 139.59392,35.71803 139.5945,35.71768 139.59622,35.71727 139.59667,35.71708 139.60596,35.7191 139.61408,35.7191 139.61434,35.72482 139.61358,35.72482</coordinates>
       </LinearRing>
      </outerBoundaryIs>
     </Polygon>
    </MultiGeometry>
   </Placemark>
   <Placemark>
    <name>上高井戸 · Kami-Takaido / Hachimanyama side</name>
    <description>意外な緑。ひっそりとした野菜の直売所。</description>
    <styleUrl>#neighborhood</styleUrl>
    <MultiGeometry>
     <Polygon>
      <outerBoundaryIs>
       <LinearRing>
        <coordinates>139.6068,35.67758 139.60721,35.67698 139.6075,35.67605 139.60771,35.67606 139.60768,35.67637 139.60848,35.67643 139.60849,35.67612 139.60865,35.67611 139.60914,35.67508 139.60912,35.6749 139.60882,35.67489 139.60883,35.67477 139.60928,35.67473 139.60936,35.67405 139.60894,35.67404 139.60902,35.67273 139.60896,35.67187 139.60909,35.67066 139.60922,35.67023 139.6094,35.67025 139.60936,35.67067 139.6106,35.67087 139.6107,35.67052 139.6114,35.67046 139.61143,35.6703 139.61126,35.67027 139.61129,35.66998 139.61347,35.67049 139.61349,35.67066 139.6136,35.67064 139.61374,35.67019 139.61421,35.66962 139.61479,35.66916 139.61555,35.66957 139.61569,35.66956 139.61564,35.66942 139.61529,35.66912 139.61539,35.66902 139.6156,35.66914 139.61595,35.66915 139.61606,35.66941 139.61647,35.66991 139.61638,35.67039 139.61649,35.67158 139.61664,35.67156 139.61668,35.67255 139.61336,35.67282 139.61343,35.67372 139.61331,35.67389 139.61282,35.67426 139.61177,35.67465 139.61022,35.67652 139.6106,35.67655 139.61188,35.67622 139.61193,35.6755 139.6122,35.67549 139.61249,35.67603 139.6126,35.67602 139.61279,35.67582 139.61327,35.67555 139.61329,35.67545 139.61396,35.67532 139.61493,35.6749 139.61829,35.67388 139.62114,35.6728 139.62213,35.67223 139.62318,35.67149 139.62344,35.67171 139.62013,35.67468 139.61917,35.67537 139.61666,35.67663 139.61442,35.67739 139.61444,35.67759 139.61441,35.67744 139.6126,35.67835 139.60922,35.67959 139.60652,35.68042 139.60648,35.6802 139.60412,35.68082 139.60401,35.68053 139.60365,35.68052 139.60362,35.68035 139.60374,35.68019 139.60351,35.68013 139.60543,35.67881 139.60566,35.67851 139.6068,35.67758</coordinates>
       </LinearRing>
      </outerBoundaryIs>
     </Polygon>
    </MultiGeometry>
   </Placemark>
   <Placemark>
    <name>高円寺 · Kōenji</name>
    <description>表現する街。レコード、古着、小さなライブハウス。</description>
    <styleUrl>#neighborhood</styleUrl>
    <MultiGeometry>
     <Polygon>
      <outerBoundaryIs>
       <LinearRing>
        <coordinates>139.65484,35.69809 139.65764,35.69811 139.66197,35.6975 139.66211,35.69803 139.66237,35.69836 139.6624,35.69869 139.66217,35.69931 139.6618,35.69932 139.66197,35.69999 139.66177,35.70006 139.66178,35.70022 139.66155,35.70022 139.66145,35.70118 139.66134,35.70134 139.66108,35.70141 139.66071,35.70137 139.66114,35.70251 139.66099,35.7048 139.65799,35.70518 139.6582,35.7056 139.65804,35.7076 139.65801,35.7092 139.65628,35.70913 139.65627,35.70925 139.65611,35.70924 139.65611,35.70911 139.65593,35.70908 139.65589,35.70916 139.65532,35.70915 139.65516,35.70923 139.65517,35.70908 139.65411,35.70907 139.65405,35.70928 139.65129,35.70897 139.65128,35.70906 139.65101,35.70903 139.65094,35.70942 139.65076,35.70948 139.64352,35.71148 139.64251,35.70812 139.64189,35.70636 139.64199,35.706 139.64199,35.70563 139.64256,35.70518 139.64492,35.70523 139.64487,35.70485 139.6439,35.70325 139.64391,35.70275 139.64371,35.70167 139.64367,35.70092 139.64368,35.69912 139.64388,35.69783 139.65484,35.69809</coordinates>
       </LinearRing>
      </outerBoundaryIs>
     </Polygon>
    </MultiGeometry>
   </Placemark>
   <Placemark>
    <name>久我山 · Kugayama</name>
    <description>水辺と小さな橋。6月にはホタルが舞う。</description>
    <styleUrl>#neighborhood</styleUrl>
    <MultiGeometry>
     <Polygon>
      <outerBoundaryIs>
       <LinearRing>
        <coordinates>139.59151,35.68578 139.59149,35.68542 139.59255,35.68512 139.59241,35.6848 139.59258,35.68473 139.59242,35.68447 139.59222,35.68455 139.59203,35.68432 139.59241,35.68402 139.5931,35.68321 139.59291,35.68288 139.59403,35.6823 139.5945,35.68234 139.59582,35.68223 139.5988,35.68187 139.60064,35.6814 139.60281,35.68073 139.60302,35.68062 139.60351,35.68013 139.60374,35.68019 139.60362,35.68035 139.60365,35.68052 139.60401,35.68053 139.60412,35.68082 139.60648,35.6802 139.60655,35.68075 139.60636,35.68164 139.60637,35.6821 139.6067,35.68288 139.60799,35.68466 139.60847,35.68808 139.60864,35.68884 139.60768,35.68873 139.60599,35.68906 139.60476,35.68953 139.6038,35.69003 139.60111,35.69168 139.59956,35.69209 139.59872,35.69218 139.594,35.69333 139.58817,35.69559 139.58675,35.69414 139.58691,35.6939 139.58718,35.69369 139.58753,35.69357 139.58804,35.6931 139.58964,35.6925 139.59128,35.69148 139.59141,35.69128 139.59239,35.69052 139.59239,35.69043 139.59286,35.68994 139.5935,35.6894 139.59341,35.68926 139.5938,35.68882 139.59362,35.68868 139.59309,35.68903 139.59281,35.68899 139.59289,35.68846 139.59304,35.68828 139.59282,35.68795 139.59188,35.68783 139.59128,35.68751 139.59054,35.68687 139.59168,35.68606 139.5917,35.68593 139.59152,35.6859 139.59151,35.68578</coordinates>
       </LinearRing>
      </outerBoundaryIs>
     </Polygon>
    </MultiGeometry>
   </Placemark>
   <Placemark>
    <name>宮前 · Miyamae</name>
    <description>隠れた緑。雑木林と小川。</description>
    <styleUrl>#neighborhood</styleUrl>
    <MultiGeometry>
     <Polygon>
      <outerBoundaryIs>
       <LinearRing>
        <coordinates>139.61654,35.69008 139.61693,35.69276 139.61565,35.69384 139.61433,35.69476 139.61318,35.69542 139.60571,35.69856 139.60515,35.69902 139.60361,35.6951 139.60091,35.69648 139.59843,35.69791 139.59753,35.69557 139.59622,35.6928 139.59872,35.69218 139.59956,35.69209 139.60111,35.69168 139.6038,35.69003 139.60476,35.68953 139.60599,35.68906 139.60758,35.68874 139.60992,35.68904 139.61285,35.68969 139.61441,35.68947 139.61634,35.68876 139.61654,35.69008</coordinates>
       </LinearRing>
      </outerBoundaryIs>
     </Polygon>
    </MultiGeometry>
   </Placemark>
   <Placemark>
    <name>桃井 · Momoi / Imagawa</name>
    <description>広い空。桃井原っぱ公園と、遠くの屋根並み。</description>
    <styleUrl>#neighborhood</styleUrl>
    <MultiGeometry>
     <Polygon>
      <outerBoundaryIs>
       <LinearRing>
        <coordinates>139.61441,35.71507 139.6141,35.7191 139.60596,35.7191 139.59667,35.71708 139.5971,35.71674 139.59971,35.71345 139.60003,35.71312 139.60058,35.71276 139.60244,35.71211 139.60495,35.71155 139.60779,35.71119 139.60957,35.71082 139.61326,35.70921 139.61509,35.70816 139.61441,35.71507</coordinates>
       </LinearRing>
      </outerBoundaryIs>
     </Polygon>
    </MultiGeometry>
   </Placemark>
   <Placemark>
    <name>成田 · Narita</name>
    <description>川沿いのそぞろ歩き。善福寺川の曲がり角と桜。</description>
    <styleUrl>#neighborhood</styleUrl>
    <MultiGeometry>
     <Polygon>
      <outerBoundaryIs>
       <LinearRing>
        <coordinates>139.63002,35.68623 139.63364,35.68482 139.63589,35.68367 139.63708,35.68292 139.63765,35.6843 139.63782,35.68514 139.63762,35.68547 139.63761,35.68609 139.63745,35.68672 139.63781,35.68684 139.63813,35.68685 139.63896,35.68642 139.63965,35.6863 139.63991,35.6861 139.63976,35.68695 139.64033,35.68775 139.64032,35.68792 139.63997,35.68853 139.6396,35.68901 139.63971,35.6896 139.64031,35.69014 139.64103,35.69046 139.64109,35.69055 139.64124,35.69085 139.64112,35.69133 139.64114,35.69201 139.64123,35.69232 139.64133,35.69232 139.64145,35.69214 139.642,35.69251 139.64216,35.69298 139.64219,35.69358 139.64184,35.69414 139.64104,35.69493 139.64093,35.69547 139.64054,35.69624 139.63903,35.69789 139.63919,35.69822 139.63602,35.6993 139.63104,35.70135 139.62982,35.70192 139.6284,35.70274 139.62821,35.70242 139.62803,35.70138 139.62825,35.70124 139.62815,35.69958 139.62851,35.69768 139.62851,35.69722 139.62882,35.69642 139.62888,35.69605 139.62901,35.69591 139.62885,35.69556 139.62835,35.69479 139.62789,35.6943 139.62763,35.69368 139.62702,35.69313 139.6262,35.69269 139.62592,35.69266 139.62566,35.69265 139.62464,35.69291 139.62442,35.69289 139.62403,35.69242 139.62364,35.6921 139.62224,35.69137 139.62132,35.69017 139.62219,35.68952 139.6235,35.68897 139.62498,35.68818 139.62641,35.6876 139.62829,35.68697 139.63002,35.68623</coordinates>
       </LinearRing>
      </outerBoundaryIs>
     </Polygon>
    </MultiGeometry>
   </Placemark>
   <Placemark>
    <name>西荻窪 · Nishi-Ogikubo</name>
    <description>個性的で、好奇心をくすぐる街。古本、骨董、器。</description>
    <styleUrl>#neighborhood</styleUrl>
    <MultiGeometry>
     <Polygon>
      <outerBoundaryIs>
       <LinearRing>
        <coordinates>139.60369,35.69531 139.60515,35.69902 139.60587,35.69849 139.60722,35.70129 139.60791,35.70315 139.60815,35.70348 139.60807,35.70354 139.60867,35.70417 139.61088,35.70423 139.61063,35.70461 139.61019,35.70502 139.60779,35.70621 139.60753,35.70641 139.60743,35.70671 139.60786,35.70792 139.60779,35.70829 139.60769,35.7084 139.60719,35.70858 139.60377,35.70868 139.60331,35.70865 139.6026,35.70823 139.60186,35.70807 139.60197,35.71059 139.60164,35.71148 139.59931,35.71083 139.59601,35.70954 139.59411,35.70922 139.5908,35.70914 139.5931,35.70713 139.59549,35.70568 139.59443,35.70374 139.59436,35.70349 139.59411,35.70321 139.59284,35.70087 139.59271,35.70094 139.59007,35.69482 139.594,35.69333 139.59622,35.6928 139.59753,35.69557 139.59843,35.69791 139.60091,35.69648 139.60317,35.69531 139.60361,35.6951 139.60369,35.69531</coordinates>
       </LinearRing>
      </outerBoundaryIs>
     </Polygon>
    </MultiGeometry>
   </Placemark>
   <Placemark>
    <name>荻窪 · Ogikubo</name>
    <description>落ち着いた、ほっとする街。ラーメンのカウンターと、庭のある通り。</description>
    <styleUrl>#neighborhood</styleUrl>
    <MultiGeometry>
     <Polygon>
      <outerBoundaryIs>
       <LinearRing>
        <coordinates>139.62868,35.69528 139.62901,35.69591 139.62888,35.69605 139.62882,35.69642 139.62851,35.69722 139.62851,35.69768 139.62815,35.69958 139.62825,35.70124 139.62803,35.70138 139.62821,35.70242 139.6284,35.70274 139.62778,35.70315 139.62311,35.70518 139.62079,35.70535 139.61933,35.70581 139.61734,35.70682 139.61326,35.70921 139.60978,35.71075 139.60903,35.71097 139.60779,35.71119 139.6051,35.71152 139.60186,35.7123 139.60164,35.71148 139.60197,35.71059 139.60186,35.70807 139.6026,35.70823 139.60331,35.70865 139.60719,35.70858 139.60754,35.7085 139.60779,35.70829 139.60786,35.70792 139.60743,35.70671 139.60753,35.70641 139.60779,35.70621 139.61019,35.70502 139.61063,35.70461 139.61088,35.70423 139.60867,35.70417 139.60807,35.70354 139.60815,35.70348 139.60791,35.70315 139.60722,35.70129 139.60587,35.69849 139.61351,35.69525 139.61518,35.69419 139.61677,35.69285 139.61794,35.69206 139.61982,35.69123 139.62086,35.69058 139.62132,35.69017 139.62224,35.69137 139.62364,35.6921 139.62403,35.69242 139.62442,35.69289 139.62464,35.69291 139.62566,35.69265 139.62592,35.69266 139.6262,35.69269 139.62702,35.69313 139.62763,35.69368 139.62789,35.6943 139.62835,35.69479 139.62868,35.69528</coordinates>
       </LinearRing>
      </outerBoundaryIs>
     </Polygon>
    </MultiGeometry>
   </Placemark>
   <Placemark>
    <name>大宮 · Ōmiya / Matsunoki</name>
    <description>木陰の森と、大宮八幡宮の参道。</description>
    <styleUrl>#neighborhood</styleUrl>
    <MultiGeometry>
     <Polygon>
      <outerBoundaryIs>
       <LinearRing>
        <coordinates>139.63959,35.68917 139.63962,35.68896 139.63985,35.68871 139.64032,35.68792 139.64031,35.68768 139.64004,35.68741 139.63976,35.68695 139.63991,35.6861 139.63965,35.6863 139.63896,35.68642 139.63813,35.68685 139.63781,35.68684 139.63745,35.68672 139.63761,35.68609 139.63762,35.68547 139.63782,35.68514 139.63765,35.6843 139.63727,35.68346 139.63713,35.68296 139.63708,35.68292 139.63589,35.68367 139.63508,35.68071 139.63616,35.68016 139.6431,35.68188 139.64732,35.68284 139.64716,35.68295 139.64715,35.68363 139.64752,35.68399 139.64667,35.68457 139.64551,35.68471 139.64813,35.68868 139.64685,35.68914 139.64621,35.68922 139.64607,35.68977 139.64631,35.68982 139.64622,35.69033 139.64613,35.69031 139.64602,35.69102 139.64611,35.6917 139.64647,35.69257 139.64633,35.69357 139.64636,35.69388 139.64717,35.69517 139.64801,35.69502 139.64804,35.69583 139.64798,35.69591 139.64812,35.69675 139.64807,35.6968 139.64741,35.69643 139.64625,35.6961 139.64149,35.69447 139.64184,35.69414 139.64219,35.69358 139.64207,35.69262 139.64145,35.69214 139.64133,35.69232 139.64123,35.69232 139.64114,35.69201 139.64112,35.69133 139.64124,35.69085 139.64109,35.69055 139.64103,35.69046 139.64031,35.69014 139.63989,35.68982 139.63971,35.6896 139.63959,35.68917</coordinates>
       </LinearRing>
      </outerBoundaryIs>
     </Polygon>
    </MultiGeometry>
   </Placemark>
   <Placemark>
    <name>清水 · Shimizu</name>
    <description>静かな発見。妙正寺公園の池と、木陰のベンチ。</description>
    <styleUrl>#neighborhood</styleUrl>
    <MultiGeometry>
     <Polygon>
      <outerBoundaryIs>
       <LinearRing>
        <coordinates>139.61596,35.70808 139.61739,35.70899 139.62112,35.7106 139.62087,35.71077 139.62021,35.71088 139.61979,35.71125 139.61916,35.71288 139.62087,35.71463 139.62124,35.71518 139.62154,35.71633 139.62112,35.71836 139.61796,35.71928 139.61408,35.71911 139.61509,35.70816 139.61563,35.70784 139.61596,35.70808</coordinates>
       </LinearRing>
      </outerBoundaryIs>
     </Polygon>
    </MultiGeometry>
   </Placemark>
   <Placemark>
    <name>下高井戸 · Shimo-Takaido / Sakurajōsui side</name>
    <description>開けた、風の通る街。芝生と広い空。</description>
    <styleUrl>#neighborhood</styleUrl>
    <MultiGeometry>
     <Polygon>
      <outerBoundaryIs>
       <LinearRing>
        <coordinates>139.62479,35.67036 139.62487,35.66925 139.62671,35.66912 139.62912,35.66882 139.63269,35.66822 139.63333,35.66797 139.63436,35.66771 139.63644,35.6668 139.63694,35.66666 139.63683,35.66626 139.63687,35.66612 139.63809,35.66592 139.63915,35.66588 139.64146,35.66668 139.64133,35.66759 139.64159,35.66762 139.64159,35.6687 139.64222,35.67013 139.64087,35.6702 139.63954,35.67052 139.63874,35.67091 139.63711,35.67229 139.63639,35.67256 139.63648,35.67282 139.63573,35.67352 139.63559,35.67404 139.63541,35.67434 139.63436,35.67532 139.63336,35.6761 139.63261,35.67615 139.63075,35.67594 139.62983,35.67578 139.62947,35.67563 139.6292,35.67562 139.62889,35.67572 139.62709,35.67531 139.62658,35.67541 139.6256,35.67587 139.62336,35.67758 139.62296,35.67744 139.6223,35.67744 139.62129,35.67706 139.61869,35.67656 139.61846,35.67641 139.61806,35.67595 139.61917,35.67537 139.62013,35.67468 139.62344,35.67171 139.62313,35.67145 139.62312,35.67061 139.62479,35.67036</coordinates>
       </LinearRing>
      </outerBoundaryIs>
     </Polygon>
    </MultiGeometry>
   </Placemark>
   <Placemark>
    <name>高井戸 · Takaido / Fujimigaoka</name>
    <description>川と、日々の往来。電車と遠くの白い煙突。</description>
    <styleUrl>#neighborhood</styleUrl>
    <MultiGeometry>
     <Polygon>
      <outerBoundaryIs>
       <LinearRing>
        <coordinates>139.62296,35.67744 139.62336,35.67758 139.6245,35.67852 139.6255,35.68003 139.62514,35.68138 139.62584,35.68309 139.62399,35.68653 139.62498,35.68819 139.6235,35.68897 139.62219,35.68952 139.62086,35.69058 139.61982,35.69123 139.61938,35.69147 139.61839,35.69182 139.61693,35.69274 139.61634,35.68876 139.61441,35.68947 139.61285,35.68969 139.60992,35.68904 139.60864,35.68884 139.60847,35.68808 139.60799,35.68466 139.6067,35.68288 139.60637,35.6821 139.60636,35.68164 139.60655,35.68075 139.60652,35.68042 139.60922,35.67959 139.61228,35.67848 139.61402,35.6776 139.61441,35.67744 139.61444,35.67759 139.61442,35.67739 139.61606,35.67688 139.61806,35.67595 139.61846,35.67641 139.61869,35.67656 139.62129,35.67706 139.6223,35.67744 139.62296,35.67744</coordinates>
       </LinearRing>
      </outerBoundaryIs>
     </Polygon>
    </MultiGeometry>
   </Placemark>
   <Placemark>
    <name>和田 · Wada</name>
    <description>ご近所の、ものづくり。画材と公園の緑。</description>
    <styleUrl>#neighborhood</styleUrl>
    <MultiGeometry>
     <Polygon>
      <outerBoundaryIs>
       <LinearRing>
        <coordinates>139.6645,35.69539 139.66217,35.6952 139.66145,35.69506 139.66096,35.69483 139.66083,35.69546 139.66037,35.69646 139.66105,35.6966 139.66097,35.69718 139.66193,35.697 139.66197,35.6975 139.65764,35.69811 139.65484,35.69809 139.65449,35.69565 139.65435,35.69416 139.65439,35.6935 139.65524,35.68903 139.65624,35.68631 139.65728,35.68659 139.65915,35.68664 139.66087,35.68676 139.66127,35.68685 139.66343,35.68802 139.66364,35.68842 139.66375,35.68884 139.66396,35.68913 139.66636,35.69041 139.6668,35.69084 139.667,35.69092 139.66695,35.69119 139.66781,35.69137 139.66769,35.69187 139.66752,35.69186 139.66731,35.69281 139.66726,35.69329 139.66739,35.69375 139.66669,35.69346 139.66587,35.69479 139.66541,35.69465 139.66507,35.69525 139.66492,35.69538 139.66455,35.69533 139.6645,35.69539</coordinates>
       </LinearRing>
      </outerBoundaryIs>
     </Polygon>
    </MultiGeometry>
   </Placemark>
   <Placemark>
    <name>善福寺 · Zenpukuji</name>
    <description>静かに思いにふける場所。池と水鳥、水面にかかる枝。</description>
    <styleUrl>#neighborhood</styleUrl>
    <MultiGeometry>
     <Polygon>
      <outerBoundaryIs>
       <LinearRing>
        <coordinates>139.5955,35.70945 139.59652,35.70969 139.59931,35.71083 139.60164,35.71148 139.60186,35.7123 139.60058,35.71276 139.60003,35.71312 139.59908,35.71418 139.59688,35.71696 139.59622,35.71727 139.5945,35.71768 139.59392,35.71803 139.59349,35.71812 139.59298,35.71836 139.59273,35.71849 139.59106,35.71985 139.59061,35.72011 139.59021,35.72027 139.58852,35.72014 139.58712,35.71973 139.58607,35.71912 139.58515,35.7179 139.58505,35.71674 139.58511,35.71634 139.58587,35.71515 139.58638,35.71456 139.58679,35.71365 139.58702,35.71263 139.58671,35.71174 139.58749,35.71143 139.58894,35.71033 139.5908,35.70914 139.59353,35.70918 139.5955,35.70945</coordinates>
       </LinearRing>
      </outerBoundaryIs>
     </Polygon>
    </MultiGeometry>
   </Placemark>
  </Folder>
  <Folder>
   <name>神社</name>
   <Placemark>
    <name>天沼熊野神社 · Amanuma Kumano Shrine</name>
    <description>旧天沼村の鎮守で、768年の創建と伝わる。明治までは十二所権現と呼ばれ、その後、熊野神社と改められた。
御祭神: 伊邪那美命
天沼 · 確認日 2026-09-23
出典: 杉並区公式ホームページ https://www.city.suginami.tokyo.jp/s113/7417.html</description>
    <Point>
     <coordinates>139.626784,35.708911</coordinates>
    </Point>
   </Placemark>
   <Placemark>
    <name>天沼八幡神社 · Amanuma Hachiman Shrine</name>
    <description>旧天沼村中谷戸の鎮守で、天正年間の創建と伝わる。1907年に合祀された厳島社の市杵島姫命は安産の神として信仰を集め、境内の大鳥神社では11月に酉の市が開かれる。
御祭神: 八幡大神, 市杵島姫命
天沼 · 確認日 2026-09-23
出典: 杉並区公式ホームページ https://www.city.suginami.tokyo.jp/s113/7416.html</description>
    <Point>
     <coordinates>139.623104,35.708231</coordinates>
    </Point>
   </Placemark>
   <Placemark>
    <name>本天沼稲荷神社 · Hon-Amanuma Inari Shrine</name>
    <description>旧天沼村本村の鎮守で、1614年以前の創建とみられる。天沼は江戸時代に赤坂の山王社（現在の日枝神社）の社領だったため、明治の初めに山王社の本殿が移された。山王祭を描いた大絵馬は区の文化財。
御祭神: 保食神
天沼 · 確認日 2026-09-23
出典: 杉並区公式ホームページ https://www.city.suginami.tokyo.jp/s113/7536.html</description>
    <Point>
     <coordinates>139.62485,35.712604</coordinates>
    </Point>
   </Placemark>
   <Placemark>
    <name>阿佐ヶ谷神明宮 · Asagaya Shinmei-gū</name>
    <description>旧阿佐ヶ谷村の鎮守。1190年代に伊勢の宮川から持ち帰られた霊石を御神体とする。秋の例大祭では、江戸後期から伝わる阿佐谷囃子が能楽殿で奉納される。
御祭神: 天照大御神, 月読命, 須佐之男命, 豊受大神
阿佐ヶ谷 · 確認日 2026-09-23
出典: 杉並区公式ホームページ https://www.city.suginami.tokyo.jp/s113/7408.html</description>
    <Point>
     <coordinates>139.636988,35.707221</coordinates>
    </Point>
   </Placemark>
   <Placemark>
    <name>馬橋稲荷神社 · Mabashi Inari Shrine</name>
    <description>旧馬橋村の鎮守で、鎌倉時代末期の創建と伝わる。昇り龍と降り龍を刻んだ石鳥居は東京三鳥居の一つに数えられ、朱塗りの随身門の鈴は都内最大といわれる。
御祭神: 宇迦之御魂神, 大麻等能豆神
阿佐ヶ谷 · 確認日 2026-09-23
出典: 杉並区公式ホームページ https://www.city.suginami.tokyo.jp/s113/7413.html</description>
    <Point>
     <coordinates>139.642735,35.703274</coordinates>
    </Point>
   </Placemark>
   <Placemark>
    <name>杉並猿田彦神社 · Suginami Sarutahiko Shrine</name>
    <description>三重県の椿大神社（猿田彦大神の総本宮とされる）から勧請した。道を開く神として、地鎮祭や方位除け、商売繁盛を願う人々が訪れる。
御祭神: 猿田彦大神
阿佐ヶ谷 · 確認日 2026-09-23
出典: 杉並猿田彦神社 https://www.sarutahiko-suginami.com/%E5%BE%A1%E7%A5%AD%E7%A5%9E-%E7%94%B1%E7%B7%92</description>
    <Point>
     <coordinates>139.643606,35.6987</coordinates>
    </Point>
   </Placemark>
   <Placemark>
    <name>永福稲荷神社 · Eifuku Inari Shrine</name>
    <description>1530年、隣の永福寺の守護として京都の伏見稲荷から勧請された。現在は永福全域の氏神。1878年の再建の際、町全体を見守るよう西向きに建てられた。
御祭神: 宇迦之御魂神
永福 · 確認日 2026-09-23
出典: 東京都神社庁 http://www.tokyo-jinjacho.or.jp/suginami/5965</description>
    <Point>
     <coordinates>139.64325,35.672444</coordinates>
    </Point>
   </Placemark>
   <Placemark>
    <name>堀ノ内熊野神社 · Horinouchi Kumano Shrine</name>
    <description>旧堀ノ内村の鎮守で、1267年の創建と伝わる。明治までは近くの妙法寺が管理した。1857年建立のケヤキ造りの本殿には、区内の社殿で最も精巧といわれる彫刻が施されている。
御祭神: 大屋津姫命, 五十猛命, 抓津姫命
堀ノ内 · 確認日 2026-09-23
出典: 杉並区公式ホームページ https://www.city.suginami.tokyo.jp/s113/7531.html</description>
    <Point>
     <coordinates>139.652111,35.686333</coordinates>
    </Point>
   </Placemark>
   <Placemark>
    <name>大鷲神社（下井草） · Ōtori Shrine (Shimo-Igusa)</name>
    <description>御神体は、1921年1月に村人が赤松で捕らえた、翼を広げると2mを超える大鷲の剥製。祟りのないようにとまつられた。11月の酉の日には酉の市が開かれ、商売繁盛の熊手が売られる。
井草 · 確認日 2026-09-23
出典: 杉並区公式ホームページ https://www.city.suginami.tokyo.jp/s113/7488.html</description>
    <Point>
     <coordinates>139.628876,35.716049</coordinates>
    </Point>
   </Placemark>
   <Placemark>
    <name>銀杏稲荷神社 · Ichō Inari Shrine</name>
    <description>旧下井草村の鎮守。かつて裏の丘にそびえた大銀杏が名の由来。棟札によれば、1616年ごろ、この地に住んだ井口家が創建した。
井草 · 確認日 2026-09-23
出典: 杉並区公式ホームページ https://www.city.suginami.tokyo.jp/s113/7489.html</description>
    <Point>
     <coordinates>139.626633,35.718796</coordinates>
    </Point>
   </Placemark>
   <Placemark>
    <name>和泉熊野神社 · Izumi Kumano Shrine</name>
    <description>旧和泉村の鎮守で、1267年に紀州熊野から勧請したと伝わる。現在の社殿は1863年の建築。境内からは縄文・古墳時代の土器が出土している。
御祭神: 天御中主神, 伊邪那岐命, 伊邪那美命
和泉 · 確認日 2026-09-23
出典: 杉並区公式ホームページ https://www.city.suginami.tokyo.jp/s113/7419.html</description>
    <Point>
     <coordinates>139.647758,35.676423</coordinates>
    </Point>
   </Placemark>
   <Placemark>
    <name>貴船神社（和泉） · Kifune Shrine (Izumi)</name>
    <description>和泉熊野神社の境外末社で、京都の貴船神社の雨の龍神をまつる。涸れることがないといわれた池は雨乞いの場で、「和泉」の地名の由来ともいわれる。池は1965年ごろに涸れた。
御祭神: 高龗神
和泉 · 確認日 2026-09-23
出典: 杉並区公式ホームページ https://www.city.suginami.tokyo.jp/s113/7420.html</description>
    <Point>
     <coordinates>139.64859,35.677849</coordinates>
    </Point>
   </Placemark>
   <Placemark>
    <name>高円寺氷川神社 · Kōenji Hikawa Shrine</name>
    <description>旧高円寺村原の鎮守で、1189年の創建と伝わる。境内には日本で唯一とされる気象神社がある。
御祭神: 須佐之男命
高円寺 · 確認日 2026-09-23
出典: 杉並区公式ホームページ https://www.city.suginami.tokyo.jp/s113/7483.html</description>
    <Point>
     <coordinates>139.651298,35.704603</coordinates>
    </Point>
   </Placemark>
   <Placemark>
    <name>気象神社 · Kishō Jinja (Weather Shrine)</name>
    <description>高円寺氷川神社の境内にある、日本で唯一とされる気象の神社。結婚式や旅行の日の晴天を願う人が訪れる。絵馬は、下駄を飛ばして天気を占う遊びにちなんだ下駄の形。例祭は気象記念日の6月1日。
御祭神: 八意思兼命
高円寺 · 確認日 2026-09-23
出典: すぎなみ学倶楽部 https://www.suginamigaku.org/2015/06/koenji-hikawa.html</description>
    <Point>
     <coordinates>139.65101,35.704718</coordinates>
    </Point>
   </Placemark>
   <Placemark>
    <name>高円寺天祖神社 · Kōenji Tenso Shrine</name>
    <description>旧高円寺村の鎮守で、社伝では1087年に伊勢から分霊を迎えたのが始まり。拝殿は1831年の建築で、境内の手水鉢には1664年の銘がある。
御祭神: 天照大御神
高円寺 · 確認日 2026-09-23
出典: 杉並区公式ホームページ https://www.city.suginami.tokyo.jp/s113/7470.html</description>
    <Point>
     <coordinates>139.657541,35.700015</coordinates>
    </Point>
   </Placemark>
   <Placemark>
    <name>田中稲荷神社 · Tanaka Inari Shrine</name>
    <description>旧高円寺村の農民の守り神で、桃園川沿いの田んぼの中にあったことが名の由来。前を通る道は、明治に妙法寺への参詣道として私費で造られた堀之内新道。
御祭神: 保食神
高円寺 · 確認日 2026-09-23
出典: 杉並区公式ホームページ https://www.city.suginami.tokyo.jp/s113/7471.html</description>
    <Point>
     <coordinates>139.659691,35.700619</coordinates>
    </Point>
   </Placemark>
   <Placemark>
    <name>久我山稲荷神社 · Kugayama Inari Shrine</name>
    <description>久我山の鎮守。7月24日の夏祭りでは、大釜で湯を沸かし、笹の葉を浸して参拝者に振りかける、都内では珍しい湯立神事が行われる。疫病退散の祈りに始まると伝わる。
御祭神: 保食神
久我山 · 確認日 2026-09-23
出典: すぎなみ学倶楽部 https://www.suginamigaku.org/2015/06/kugayamainari.html</description>
    <Point>
     <coordinates>139.59653,35.68847</coordinates>
    </Point>
   </Placemark>
   <Placemark>
    <name>大宮前春日神社 · Ōmiyamae Kasuga Shrine</name>
    <description>旧大宮前新田の鎮守。新田を開いた井口八郎右衛門が万治年間に勧請したと伝わる。社殿前の「大宮前鎮守」の石碑が、今は消えた地名を伝えている。
御祭神: 武甕槌命, 経津主神, 天児屋命, 比売神
宮前 · 確認日 2026-09-23
出典: 杉並区公式ホームページ https://www.city.suginami.tokyo.jp/s113/7548.html</description>
    <Point>
     <coordinates>139.60936,35.69283</coordinates>
    </Point>
   </Placemark>
   <Placemark>
    <name>成宗須賀神社 · Narimune Suga Shrine</name>
    <description>旧成宗村本村の鎮守。須佐之男命が牛頭天王と同一視されていたため、江戸時代は牛頭天王社と呼ばれた。安政年間に記録が焼けたため、創建年ははっきりしない。
御祭神: 須佐之男命
成田 · 確認日 2026-09-23
出典: 杉並区公式ホームページ https://www.city.suginami.tokyo.jp/s113/7523.html</description>
    <Point>
     <coordinates>139.631616,35.697802</coordinates>
    </Point>
   </Placemark>
   <Placemark>
    <name>尾﨑熊野神社 · Osaki Kumano Shrine</name>
    <description>旧成宗村尾崎の鎮守で、鎌倉時代末期に鎌倉から移り住んだ武士が紀州熊野から勧請したと伝わる。樹齢400〜500年とされる御神木のクロマツは区の天然記念物。境内からは縄文時代の土器や住居跡が見つかっている。
御祭神: 五十猛命, 抓津姫命, 大屋津姫命
成田 · 確認日 2026-09-23
出典: 杉並区公式ホームページ https://www.city.suginami.tokyo.jp/s113/7516.html</description>
    <Point>
     <coordinates>139.631288,35.693604</coordinates>
    </Point>
   </Placemark>
   <Placemark>
    <name>成宗白山神社 · Narimune Hakusan Shrine</name>
    <description>旧成宗村白幡の鎮守。奥州へ向かう源頼義が、この地で源氏の白旗のような白雲を見たという伝説が「白幡」の名の由来。
御祭神: 伊邪那美命
成田 · 確認日 2026-09-23
出典: 杉並区公式ホームページ https://www.city.suginami.tokyo.jp/s113/7517.html</description>
    <Point>
     <coordinates>139.637174,35.686959</coordinates>
    </Point>
   </Placemark>
   <Placemark>
    <name>西高井戸松庵稲荷神社 · Nishi-Takaido Shōan Inari Shrine</name>
    <description>旧松庵村の鎮守。村は万治年間、松庵という医師が開いたと伝わる。入口に立つ1690年と1693年の石塔が、そのころすでに村があったことを物語る。
御祭神: 保食神
西荻窪 · 確認日 2026-09-23
出典: 杉並区公式ホームページ https://www.city.suginami.tokyo.jp/s113/7502.html</description>
    <Point>
     <coordinates>139.595917,35.699667</coordinates>
    </Point>
   </Placemark>
   <Placemark>
    <name>伏見稲荷神社（西荻窪） · Fushimi Inari Shrine (Nishi-Ogikubo)</name>
    <description>1951年、通りの商店主たちが商売繁盛を願って京都の伏見稲荷から勧請した。西荻伏見通りの名はこの神社に由来する。地図のピンは通りの赤い鳥居で、社は路地を30mほど入った奥にある。
西荻窪 · 確認日 2026-09-23
出典: 西荻伏見通り商店会 https://nishiogi-fushimidori.com/history</description>
    <Point>
     <coordinates>139.598915,35.704259</coordinates>
    </Point>
   </Placemark>
   <Placemark>
    <name>荻窪八幡神社 · Ogikubo Hachiman Shrine</name>
    <description>旧上荻窪村の鎮守で、寛平年間（889〜898年）の創建と伝わる。1477年に太田道灌が戦勝を祈って植えたとされるコウヤマキ「道灌槇」は御神木で、区の天然記念物。勝海舟の筆による大幟も伝わる。
御祭神: 八幡大神
荻窪 · 確認日 2026-09-23
出典: 杉並区公式ホームページ https://www.city.suginami.tokyo.jp/s113/7458.html</description>
    <Point>
     <coordinates>139.606329,35.710621</coordinates>
    </Point>
   </Placemark>
   <Placemark>
    <name>荻窪白山神社 · Ogikubo Hakusan Shrine</name>
    <description>旧下荻窪村の鎮守で、文明年間の創建と伝わる。境内の萩で作った箸で食事をせよという夢のお告げで歯の痛みが消えたという伝説から、歯痛にご利益がある神社として知られる。
御祭神: 伊邪那美命
荻窪 · 確認日 2026-09-23
出典: 杉並区公式ホームページ https://www.city.suginami.tokyo.jp/s113/7455.html</description>
    <Point>
     <coordinates>139.61605,35.705496</coordinates>
    </Point>
   </Placemark>
   <Placemark>
    <name>南荻窪天祖神社 · Minami-Ogikubo Tenso Shrine</name>
    <description>1584年の検地の時点ですでに社があったとされる古社。江戸時代は神明社と呼ばれ、地名「神明」の由来となった。東側にはかつて桜並木の馬場があった。
御祭神: 天照大御神
荻窪 · 確認日 2026-09-23
出典: 杉並区公式ホームページ https://www.city.suginami.tokyo.jp/s113/7544.html</description>
    <Point>
     <coordinates>139.609556,35.7005</coordinates>
    </Point>
   </Placemark>
   <Placemark>
    <name>田端神社 · Tabata Shrine</name>
    <description>旧田端村の鎮守で、かつては北野神社と呼ばれた天神社。社名は「田の端」にあったことに由来する。大国主命は足腰の痛みにご利益があるとされ、お礼に奉納された木槌は区の登録民俗文化財。
御祭神: 菅原道真公（天神）, 大国主命
荻窪 · 確認日 2026-09-23
出典: 杉並区公式ホームページ https://www.city.suginami.tokyo.jp/s113/7447.html</description>
    <Point>
     <coordinates>139.626204,35.693975</coordinates>
    </Point>
   </Placemark>
   <Placemark>
    <name>大宮八幡宮 · Ōmiya Hachimangū</name>
    <description>1063年の創建と伝わる。戦いに向かう途中、この地で源氏の白旗のような八条の白雲を見た源頼義が、凱旋後に京都の石清水八幡宮から勧請した。
御祭神: 八幡大神, 仲哀天皇, 神功皇后
大宮 · 確認日 2026-09-23
出典: 大宮八幡宮 https://www.ohmiya-hachimangu.or.jp/hachimangu/history</description>
    <Point>
     <coordinates>139.639664,35.682375</coordinates>
    </Point>
   </Placemark>
   <Placemark>
    <name>大宮天満宮 · Ōmiya Tenmangū</name>
    <description>大宮八幡宮の境内にある、学問の神・菅原道真公をまつる社。受験生が合格祈願に訪れる。
御祭神: 菅原道真公（天神）
大宮 · 確認日 2026-09-23
出典: 大宮八幡宮 https://www.ohmiya-hachimangu.or.jp/hachimangu</description>
    <Point>
     <coordinates>139.639573,35.682639</coordinates>
    </Point>
   </Placemark>
   <Placemark>
    <name>中瀬天祖神社 · Nakase Tenso Shrine</name>
    <description>妙正寺の地にあった十羅刹堂が始まりで、1868年の神仏分離で天祖神社となった。霊験あらたかな石を御神体とし、子宝の神社として親しまれている。
御祭神: 天照大御神, 市杵島姫命, 保食神
清水 · 確認日 2026-09-23
出典: 杉並区公式ホームページ https://www.city.suginami.tokyo.jp/s113/7485.html</description>
    <Point>
     <coordinates>139.617333,35.718556</coordinates>
    </Point>
   </Placemark>
   <Placemark>
    <name>下高井戸八幡神社（浜田山八幡） · Shimo-Takaido Hachiman Shrine</name>
    <description>1457年、江戸城を築いていた太田道灌が工事の無事を祈り、鎌倉の鶴岡八幡宮から勧請したのが始まりと伝わる。
御祭神: 八幡大神
下高井戸 · 確認日 2026-09-23
出典: 東京都神社庁 http://www.tokyo-jinjacho.or.jp/suginami/5404</description>
    <Point>
     <coordinates>139.63042,35.67522</coordinates>
    </Point>
   </Placemark>
   <Placemark>
    <name>上高井戸第六天神社 · Kami-Takaido Dairokuten Shrine</name>
    <description>1771年銘の狛犬は区内で最も古い屋外の一対といわれ、1856年再建の本殿には精緻な彫刻が施されている。1972年、中央自動車道の建設で社殿が少し北へ移され、今は鳥居のすぐ脇を高架が通る。
御祭神: 面足命, 惶根命
高井戸 · 確認日 2026-09-23
出典: すぎなみ学倶楽部 https://www.suginamigaku.org/2015/06/dairokutenjinja.html</description>
    <Point>
     <coordinates>139.61217,35.67903</coordinates>
    </Point>
   </Placemark>
   <Placemark>
    <name>柏の宮稲荷神社 · Kashinomiya Inari Shrine</name>
    <description>明治時代、現在の柏の宮公園にあった庭園「柏の宮園」の邸内社として建てられ、公園の整備で今の場所へ移された。石段の上に鎮座し、1857年銘の台座に乗る石の狐が守っている。
御祭神: 宇迦之御魂神, 保食神
高井戸 · 確認日 2026-09-23
出典: すぎなみ学倶楽部 https://www.suginamigaku.org/2023/09/kashinomiyainari.html</description>
    <Point>
     <coordinates>139.62485,35.67881</coordinates>
    </Point>
   </Placemark>
   <Placemark>
    <name>井草八幡宮 · Igusa Hachimangū</name>
    <description>旧上井草村・下井草村の鎮守。明治までは、この地の古い地名から遅野井八幡宮とも呼ばれた。
御祭神: 八幡大神
善福寺 · 確認日 2026-09-23
出典: 杉並区公式ホームページ https://www.city.suginami.tokyo.jp/s113/7503.html</description>
    <Point>
     <coordinates>139.595583,35.716083</coordinates>
    </Point>
   </Placemark>
   <Placemark>
    <name>市杵島神社（善福寺弁天） · Ichikishima Shrine (Zenpukuji Benzaiten)</name>
    <description>善福寺池の弁財天。伝承では1197年、江の島から勧請したのが始まり。池の水源の守り神として日照りには雨乞いが行われ、1840年の再建には練馬や中野の村々からも寄進があった。
御祭神: 市杵島姫命
善福寺 · 確認日 2026-09-23
出典: 杉並区公式ホームページ https://www.city.suginami.tokyo.jp/s113/7507.html</description>
    <Point>
     <coordinates>139.588074,35.716306</coordinates>
    </Point>
   </Placemark>
  </Folder>
  <Folder>
   <name>寺院</name>
   <Placemark>
    <name>釜寺（東運寺） · Kamadera (Tōunji)</name>
    <description>天正元年（1573年）の創建と伝わる浄土宗の寺。本堂の屋根に羽釜がのり、「釜寺」と呼ばれる。釜ゆでにされかけた厨子王の身代わりに、守り本尊の地蔵がなったという安寿と厨子王の伝説に由来する。
方南 · 確認日 2026-09-25
出典: すぎなみ学倶楽部 https://www.suginamigaku.org/2014/10/post-188.html</description>
    <Point>
     <coordinates>139.657776,35.680794</coordinates>
    </Point>
   </Placemark>
  </Folder>
  <Folder>
   <name>文化</name>
   <Placemark>
    <name>杉並区立郷土博物館分館 · Suginami Local History Museum Annex</name>
    <description>2007年開館、区立天沼弁天池公園の中にある郷土博物館の分館で、入館無料。建物はかつてゴルフ会社が使っていたものを改修した。
天沼 · 確認日 2026-09-25
出典: すぎなみ学倶楽部 https://www.suginamigaku.org/2018/07/kyoudo-hakubutukan.html</description>
    <Point>
     <coordinates>139.621887,35.70821</coordinates>
    </Point>
   </Placemark>
   <Placemark>
    <name>ラピュタ阿佐ヶ谷 · Laputa Asagaya</name>
    <description>1950〜60年代を中心とした日本映画のミニシアター。テーマごとに約1か月の特集を組み、DVD化されていない作品も多い。1998年にアニメ専門館として開館し、館名は『ガリバー旅行記』の飛ぶ島から。
阿佐ヶ谷 · 確認日 2026-09-25
出典: すぎなみ学倶楽部 https://www.suginamigaku.org/2015/09/laputa.html</description>
    <Point>
     <coordinates>139.635361,35.705544</coordinates>
    </Point>
   </Placemark>
   <Placemark>
    <name>ガンダム像 · Gundam statue</name>
    <description>2008年、上井草駅南口に設置された、空へ手を伸ばすガンダムのブロンズ像。『機動戦士ガンダム』のサンライズが近くにあることから実現した。発車メロディもガンダムの主題歌。
上井草 · 確認日 2026-09-25
出典: 上井草商店街 http://www.kami-igusa.com/area/animation</description>
    <Point>
     <coordinates>139.603745,35.725014</coordinates>
    </Point>
   </Placemark>
   <Placemark>
    <name>座・高円寺 · Za-Kōenji</name>
    <description>伊東豊雄の設計で2009年に開館した、テントのような形の区立劇場。3つのホールと戯曲のアーカイブ、絵本とおいしいもののカフェがある。
高円寺 · 確認日 2026-09-25
出典: すぎなみ学倶楽部 https://www.suginamigaku.org/2016/03/za-koenji.html</description>
    <Point>
     <coordinates>139.654068,35.705627</coordinates>
    </Point>
   </Placemark>
   <Placemark>
    <name>立教女学院 聖マーガレット礼拝堂 · St Margaret's Chapel</name>
    <description>聖路加国際病院を手がけたJ.V.W.バーガミニの設計で、1932年に建てられたロマネスク様式の礼拝堂。鉄筋コンクリート造りだが、内部は北米産のオーク材で温かい。学校の敷地内なので、見学できる日を確かめて。
久我山 · 確認日 2026-09-25
出典: すぎなみ学倶楽部 https://www.suginamigaku.org/2016/04/st-margarets-college-schools.html</description>
    <Point>
     <coordinates>139.590164,35.694756</coordinates>
    </Point>
   </Placemark>
   <Placemark>
    <name>西郊ロッヂング · Seikō Lodging</name>
    <description>1931年に本郷から移ってきた下宿で、当時珍しい鍵付きの洋室を備えていた。本館（1931年）と新館（1938年）は国の登録有形文化財。今は旅館と賃貸住宅なので、外から眺めたい。
荻窪 · 確認日 2026-09-25
出典: すぎなみ学倶楽部 https://www.suginamigaku.org/2016/11/seiko-lodging.html</description>
    <Point>
     <coordinates>139.625565,35.702972</coordinates>
    </Point>
   </Placemark>
   <Placemark>
    <name>幻戯山房（すぎなみ詩歌館） · Gengi Sanbō (Suginami Poetry House)</name>
    <description>角川書店創業者で俳人の角川源義の旧邸（1955年竣工）。区に寄贈され、2009年から一般公開。書斎兼応接間にゆかりの品を展示し、どの部屋からも庭が眺められる。
荻窪 · 確認日 2026-09-25
出典: すぎなみ学倶楽部 https://www.suginamigaku.org/2016/03/gengisanbo.html</description>
    <Point>
     <coordinates>139.624741,35.698811</coordinates>
    </Point>
   </Placemark>
   <Placemark>
    <name>かつら文庫 · Katsura Bunko</name>
    <description>児童文学者の石井桃子が1958年、自宅の一部を開いて近所の子どもたちのための小さな図書室にした。今も東京子ども図書館の分室として続き、大人も利用できる。
荻窪 · 確認日 2026-09-25
出典: すぎなみ学倶楽部 https://www.suginamigaku.org/2016/09/katsura-bunko.html</description>
    <Point>
     <coordinates>139.625153,35.702042</coordinates>
    </Point>
   </Placemark>
   <Placemark>
    <name>大田黒公園記念館 · Ōtaguro Park Memorial Hall</name>
    <description>音楽評論家・大田黒元雄が1933年に仕事部屋として建てた洋館で、今は大田黒公園の日本庭園の中にある。愛用のドイツ製ピアノや蓄音機が残る。
荻窪 · 確認日 2026-09-25
出典: すぎなみ学倶楽部 https://www.suginamigaku.org/2016/03/otaguropark-kinenkan.html</description>
    <Point>
     <coordinates>139.624161,35.701576</coordinates>
    </Point>
   </Placemark>
   <Placemark>
    <name>荻外荘 · Tekigaisō</name>
    <description>3度首相を務めた近衞文麿の旧宅で、1927年に伊東忠太が設計した。国の史跡。区が約10年かけて復原し、2024年12月に荻外荘公園として公開した。
荻窪 · 確認日 2026-09-25
出典: すぎなみ学倶楽部 https://www.suginamigaku.org/2025/03/tekigaiso.html</description>
    <Point>
     <coordinates>139.622894,35.699215</coordinates>
    </Point>
   </Placemark>
   <Placemark>
    <name>荻外荘展示棟 · Tekigaisō Exhibition Building</name>
    <description>隈研吾の設計で2025年7月、荻外荘の向かいに開館。1階はカフェとショップ、2階は展示室。
荻窪 · 確認日 2026-09-25
出典: すぎなみ学倶楽部 https://www.suginamigaku.org/2025/09/tekigaiso-tenjito.html</description>
    <Point>
     <coordinates>139.622803,35.698929</coordinates>
    </Point>
   </Placemark>
   <Placemark>
    <name>杉並アニメーションミュージアム · Suginami Animation Museum</name>
    <description>杉並会館3階にある入館無料のアニメの博物館。日本のアニメの歴史と、作られ方を紹介する。月曜休館。
荻窪 · 確認日 2026-09-25
出典: 杉並アニメーションミュージアム https://sam.or.jp/</description>
    <Point>
     <coordinates>139.607574,35.710491</coordinates>
    </Point>
   </Placemark>
   <Placemark>
    <name>杉並区立郷土博物館 · Suginami Local History Museum</name>
    <description>1989年開館の区立郷土博物館で、茅葺きの長屋門が入口。敷地はかつて嵯峨侯爵家のもので、1937年、嵯峨浩はここから愛新覚羅溥傑との結婚式へ向かった。
大宮 · 確認日 2026-09-25
出典: すぎなみ学倶楽部 https://www.suginamigaku.org/2018/02/suginami-historical-museum.html</description>
    <Point>
     <coordinates>139.644547,35.685661</coordinates>
    </Point>
   </Placemark>
   <Placemark>
    <name>高千穂学園武道場 · Takachiho Budōjō</name>
    <description>1913年、高千穂高等商業学校の柔剣道場として建てられた区内最古の木造学校建築で、区指定有形文化財。床下には創建当時の36本のバネと10個の大甕が残る。
大宮 · 確認日 2026-09-25
出典: すぎなみ学倶楽部 https://www.suginamigaku.org/2016/07/takachiho-budojo.html</description>
    <Point>
     <coordinates>139.638245,35.682804</coordinates>
    </Point>
   </Placemark>
   <Placemark>
    <name>ミサワバウハウスコレクション · Misawa Bauhaus Collection</name>
    <description>ミサワホームが1996年に総合研究所内に開いた、日本唯一のバウハウス専門美術館。約1,500点の作品を所蔵し、無料の企画展を開く。公開日を確かめて出かけたい。
高井戸 · 確認日 2026-09-25
出典: すぎなみ学倶楽部 https://www.suginamigaku.org/2014/12/misawa-bauhaus.html</description>
    <Point>
     <coordinates>139.614365,35.679562</coordinates>
    </Point>
   </Placemark>
   <Placemark>
    <name>立正佼成会 大聖堂 · Risshō Kōsei-kai Great Sacred Hall</name>
    <description>環七から見える巨大なドーム。1964年に落成し、年中無休で誰でも見学できる。ドームの中には高さ6.8メートルの本尊が立つ。
和田 · 確認日 2026-09-25
出典: すぎなみ学倶楽部 https://www.suginamigaku.org/2014/11/rissho-kosei-kai-cathedral.html</description>
    <Point>
     <coordinates>139.658859,35.687988</coordinates>
    </Point>
   </Placemark>
   <Placemark>
    <name>女子美ガレリアニケ · Joshibi Galleria Nike</name>
    <description>女子美術大学杉並キャンパスにある、区内唯一の美大付属ギャラリー。年に約8回、無料の展覧会を開く。
和田 · 確認日 2026-09-25
出典: すぎなみ学倶楽部 https://www.suginamigaku.org/2022/12/galleria-nike.html</description>
    <Point>
     <coordinates>139.662079,35.693089</coordinates>
    </Point>
   </Placemark>
  </Folder>
  <Folder>
   <name>食べる</name>
   <Placemark>
    <name>春木家本店 · Harukiya Honten</name>
    <description>1931年開業のそば店で、青梅街道の春木屋のルーツ。本業は日本そばだが、中華そばも東京屈指と評される。
天沼 · 確認日 2026-09-25
出典: すぎなみ学倶楽部 https://www.suginamigaku.org/2014/10/harukiya-honten.html</description>
    <Point>
     <coordinates>139.624451,35.706722</coordinates>
    </Point>
   </Placemark>
   <Placemark>
    <name>ちもと総本店 阿佐谷 · Chimoto Sōhonten Asagaya</name>
    <description>江戸時代に今の銀座界隈で創業し、戦後軽井沢に移った和菓子の老舗。2016年に開いた阿佐谷店は直営の二店目。天然氷のかき氷と、江戸時代から続く「ちもと餅」。
阿佐ヶ谷 · 確認日 2026-09-25
出典: すぎなみ学倶楽部 https://www.suginamigaku.org/2019/07/timoto-souhonten.html</description>
    <Point>
     <coordinates>139.637344,35.700043</coordinates>
    </Point>
   </Placemark>
   <Placemark>
    <name>麺や与一 · Menya Yoichi</name>
    <description>2004年開業、浜田山駅近くのラーメン店。あっさりした塩や味噌のラーメン。
浜田山 · 確認日 2026-09-25
出典: すぎなみ学倶楽部 https://www.suginamigaku.org/2014/11/menya-yoichi.html</description>
    <Point>
     <coordinates>139.627151,35.683167</coordinates>
    </Point>
   </Placemark>
   <Placemark>
    <name>清水屋 · Shimizuya</name>
    <description>1940年創業、妙法寺名物「揚げまんじゅう」で知られる店。2015年からは三代目が手打ちする蕎麦屋になり、揚げまんじゅうも今も売っている。
堀ノ内 · 確認日 2026-09-25
出典: すぎなみ学倶楽部 https://www.suginamigaku.org/2016/07/shimizuya.html</description>
    <Point>
     <coordinates>139.652985,35.691807</coordinates>
    </Point>
   </Placemark>
   <Placemark>
    <name>永福町大勝軒 · Eifukuchō Taishōken</name>
    <description>1955年開業。煮干しの効いた醤油ラーメンを、自家製麺2玉の大きな丼で出す名店。
和泉 · 確認日 2026-09-25
出典: 永福町大勝軒 https://eifuku-taishouken.com/</description>
    <Point>
     <coordinates>139.643951,35.67622</coordinates>
    </Point>
   </Placemark>
   <Placemark>
    <name>まちの洋食屋さん グリルマリノ · Grill Marino</name>
    <description>1967年創業の町の洋食屋。ハンバーグ、ナポリタン、グラタン、オムライス。
和泉 · 確認日 2026-09-25
出典: すぎなみ学倶楽部 https://www.suginamigaku.org/2014/10/g-marino.html</description>
    <Point>
     <coordinates>139.645706,35.67926</coordinates>
    </Point>
   </Placemark>
   <Placemark>
    <name>沖縄料理本店 きよ香 · Kiyoka</name>
    <description>1961年、石垣島出身の女性が開いた沖縄料理店。都内にまだ数店しかなかった頃で、高円寺の沖縄料理のルーツ。今は息子が母の味を守る。
高円寺 · 確認日 2026-09-25
出典: すぎなみ学倶楽部 https://www.suginamigaku.org/2023/07/kiyoka.html</description>
    <Point>
     <coordinates>139.649078,35.705482</coordinates>
    </Point>
   </Placemark>
   <Placemark>
    <name>高井戸 麻婆TABLE · Takaido Mābo Table</name>
    <description>中華の料理人として20年以上の経験を持つ店主が2017年に開いた町の中華。花椒のしびれと唐辛子の辛さの釣り合いを追求した麻婆豆腐が看板。
宮前 · 確認日 2026-09-25
出典: すぎなみ学倶楽部 https://www.suginamigaku.org/2019/12/maabo-table.html</description>
    <Point>
     <coordinates>139.616089,35.6894</coordinates>
    </Point>
   </Placemark>
   <Placemark>
    <name>こけし屋 · Kokeshiya</name>
    <description>1949年に駅前で喫茶店として開店し、洋菓子、そしてフランス料理へと広げてきた。包装紙は画家・鈴木信太郎のデザイン。建て替えのため2022年に休業し、2026年5月に再開した。
西荻窪 · 確認日 2026-09-25
出典: すぎなみ学倶楽部 https://www.suginamigaku.org/2014/10/kokeshiya.html</description>
    <Point>
     <coordinates>139.600494,35.703484</coordinates>
    </Point>
   </Placemark>
   <Placemark>
    <name>甘味処 甘いっ子 · Amaikko</name>
    <description>1965年開店の甘味処。自家製のいちごや杏のシロップをかけるかき氷が名物。20年以上通った常連が2000年に店を継いだ。
西荻窪 · 確認日 2026-09-25
出典: すぎなみ学倶楽部 https://www.suginamigaku.org/2015/05/amaikko.html</description>
    <Point>
     <coordinates>139.598969,35.701035</coordinates>
    </Point>
   </Placemark>
   <Placemark>
    <name>中華そば 春木屋 · Harukiya</name>
    <description>1949年創業。「荻窪ラーメン」の名を広めた一軒で、澄んだ醤油の中華そばに三角の海苔がのる。「変わらぬ美味しさの為に変わり続ける」がモットー。
荻窪 · 確認日 2026-09-25
出典: すぎなみ学倶楽部 https://www.suginamigaku.org/2014/10/harukiya.html</description>
    <Point>
     <coordinates>139.622437,35.705109</coordinates>
    </Point>
   </Placemark>
   <Placemark>
    <name>手もみラーメン 十八番 · Juhachiban</name>
    <description>1966年創業、夕方に開いて深夜まで営業する手もみラーメンの店。ニンニクの効いた「特製十八番」は醤油と味噌から選べる。
荻窪 · 確認日 2026-09-25
出典: すぎなみ学倶楽部 https://www.suginamigaku.org/2014/10/juhachiban.html</description>
    <Point>
     <coordinates>139.622406,35.704838</coordinates>
    </Point>
   </Placemark>
   <Placemark>
    <name>本むら庵 · Honmura-an</name>
    <description>1924年創業のそば店。その日に打つ分だけ玄そばを石臼で挽き、井戸水でつなぐ江戸前の二八そば。
荻窪 · 確認日 2026-09-25
出典: すぎなみ学倶楽部 https://www.suginamigaku.org/2014/10/honmuraan.html</description>
    <Point>
     <coordinates>139.611786,35.704506</coordinates>
    </Point>
   </Placemark>
   <Placemark>
    <name>栄龍 · Eiryū</name>
    <description>1969年開業の町の中華。昔ながらの東京ラーメンに加え、カレーラーメンも人気。
下高井戸 · 確認日 2026-09-25
出典: すぎなみ学倶楽部 https://www.suginamigaku.org/2014/12/eiryu.html</description>
    <Point>
     <coordinates>139.636536,35.667854</coordinates>
    </Point>
   </Placemark>
   <Placemark>
    <name>手打そば・地酒 杉並まん月 · Suginami Mangetsu</name>
    <description>1955年ごろ、製麺所併設のそば店「きそば満月」として創業。2000年から日本酒とつまみ、締めのそばを楽しむ店になった。
和田 · 確認日 2026-09-25
出典: すぎなみ学倶楽部 https://www.suginamigaku.org/2026/06/sobamangetsu.html</description>
    <Point>
     <coordinates>139.657227,35.692963</coordinates>
    </Point>
   </Placemark>
   <Placemark>
    <name>天津飯店 · Tenshin Hanten</name>
    <description>1978年開業、中野富士見町駅前の中華料理店。自家製ラー油の坦々麺や、毎週替わる定食が人気。
和田 · 確認日 2026-09-25
出典: すぎなみ学倶楽部 https://www.suginamigaku.org/2014/11/tenshinhanten.html</description>
    <Point>
     <coordinates>139.666275,35.691109</coordinates>
    </Point>
   </Placemark>
   <Placemark>
    <name>らーめん 天の道 · Ramen Ten no Michi</name>
    <description>井草八幡宮の大鳥居の正面にあるラーメン店。10店で修業した杉並育ちの店主が2005年に開業した。店名は『仮面ライダーカブト』の主人公から。
善福寺 · 確認日 2026-09-25
出典: すぎなみ学倶楽部 https://www.suginamigaku.org/2023/12/tennomichi.html</description>
    <Point>
     <coordinates>139.598358,35.715111</coordinates>
    </Point>
   </Placemark>
  </Folder>
  <Folder>
   <name>飲む</name>
   <Placemark>
    <name>ヴィオロン · Violon</name>
    <description>1980年開業の名曲喫茶。世界最大級の手回し蓄音器と手作りのスピーカーで、レコードを聴かせる。
阿佐ヶ谷 · 確認日 2026-09-25
出典: すぎなみ学倶楽部 https://www.suginamigaku.org/2014/10/violon.html</description>
    <Point>
     <coordinates>139.632553,35.705189</coordinates>
    </Point>
   </Placemark>
   <Placemark>
    <name>ベリーズティールーム · Berry's Tea Room</name>
    <description>金・土・日の午後だけ開く英国式の紅茶と菓子の店。ピンクの扉の2階にあり、日本ではまだ珍しいクランペットが看板。
浜田山 · 確認日 2026-09-25
出典: すぎなみ学倶楽部 https://www.suginamigaku.org/2023/06/berrystearoom.html</description>
    <Point>
     <coordinates>139.627213,35.682365</coordinates>
    </Point>
   </Placemark>
   <Placemark>
    <name>七つ森 · Nanatsumori</name>
    <description>1978年開業の喫茶店。長屋の商店の一棟を、梁や柱を生かして改装し、アンティークの調度で飾った。
高円寺 · 確認日 2026-09-25
出典: すぎなみ学倶楽部 https://www.suginamigaku.org/2014/10/nanatsumori.html</description>
    <Point>
     <coordinates>139.647415,35.700119</coordinates>
    </Point>
   </Placemark>
   <Placemark>
    <name>アール座読書館 · R-za Reading Room</name>
    <description>2008年開業、会話をお断りしている読書のための喫茶店。水槽に落ちる水の音と柱時計の音が響き、席はどれも作りが違う。
高円寺 · 確認日 2026-09-25
出典: すぎなみ学倶楽部 https://www.suginamigaku.org/2016/10/r-za-dokusho-kan.html</description>
    <Point>
     <coordinates>139.648422,35.704025</coordinates>
    </Point>
   </Placemark>
   <Placemark>
    <name>焼きたてパンと喫茶 源宗園 · Gensōen</name>
    <description>静岡の製茶会社が営む、桃井原っぱ公園近くの日本茶の店。今はパンと抹茶ソフトクリームのベーカリーカフェで、犬と座れるテラス席もある。
桃井 · 確認日 2026-09-25
出典: すぎなみ学倶楽部 https://www.suginamigaku.org/2024/07/gensouen.html</description>
    <Point>
     <coordinates>139.607208,35.715725</coordinates>
    </Point>
   </Placemark>
   <Placemark>
    <name>物豆奇 · Monozuki</name>
    <description>1975年ごろ開店の喫茶店。初代が全国から集めた古時計や石油ランプ、古民家の柱が店を飾り、二代目はそのままの姿を守っている。
西荻窪 · 確認日 2026-09-25
出典: すぎなみ学倶楽部 https://www.suginamigaku.org/2014/10/monozuki.html</description>
    <Point>
     <coordinates>139.596985,35.705437</coordinates>
    </Point>
   </Placemark>
   <Placemark>
    <name>松庵文庫 · Shōan Bunko</name>
    <description>音楽家夫妻が暮らした築90年を超える一軒家をいかしたブックカフェ。庭の樹齢100年を超えるツツジを眺めながら過ごせる。
西荻窪 · 確認日 2026-09-25
出典: すぎなみ学倶楽部 https://www.suginamigaku.org/2014/10/tutuji-cafe.html</description>
    <Point>
     <coordinates>139.595505,35.701466</coordinates>
    </Point>
   </Placemark>
   <Placemark>
    <name>名曲喫茶ミニヨン · Meikyoku Kissa Mignon</name>
    <description>1961年に開店し、1971年から駅南口のこの場所で営業する名曲喫茶。LPレコードをよい音で聴かせ、奥の部屋ではコンサートや展示も開く。
荻窪 · 確認日 2026-09-25
出典: すぎなみ学倶楽部 https://www.suginamigaku.org/2015/09/mignon.html</description>
    <Point>
     <coordinates>139.622543,35.703632</coordinates>
    </Point>
   </Placemark>
  </Folder>
  <Folder>
   <name>買う</name>
   <Placemark>
    <name>さとうコロッケ店 · Satō Korokke</name>
    <description>1948年創業。闇市時代から駅前でコロッケを揚げていた店で、闇市がなくなっても常連の声で続いた。教会通りの路地の奥にあり、昼は行列ができる。
天沼 · 確認日 2026-09-25
出典: すぎなみ学倶楽部 https://www.suginamigaku.org/2014/10/satou-korokke.html</description>
    <Point>
     <coordinates>139.62027,35.706264</coordinates>
    </Point>
   </Placemark>
   <Placemark>
    <name>和菓子 榛名屋 · Harunaya</name>
    <description>1977年から教会通りで営む家族の和菓子店。店名は創業者の故郷・群馬の榛名山から。豆大福は米、小豆、砂糖、塩だけで作る。
天沼 · 確認日 2026-09-25
出典: すぎなみ学倶楽部 https://www.suginamigaku.org/2016/02/harunaya.html</description>
    <Point>
     <coordinates>139.61972,35.707432</coordinates>
    </Point>
   </Placemark>
   <Placemark>
    <name>はちみつ専門店ラベイユ · L'Abeille</name>
    <description>1969年に教会通りで始まったはちみつ専門店。世界各地のはちみつを試食して選べる。
天沼 · 確認日 2026-09-25
出典: すぎなみ学倶楽部 https://www.suginamigaku.org/2014/10/honey-raveille.html</description>
    <Point>
     <coordinates>139.620102,35.706799</coordinates>
    </Point>
   </Placemark>
   <Placemark>
    <name>とらや椿山 · Toraya Chinzan</name>
    <description>1925年創業、パールセンターの和菓子店。蜜漬けの大粒栗を丸ごと白餡で包んだ名物「大栗まん」は、昭和30年代後半に職人のコンクールから生まれた。
阿佐ヶ谷 · 確認日 2026-09-25
出典: すぎなみ学倶楽部 https://www.suginamigaku.org/2014/10/toraya-chinzan.html</description>
    <Point>
     <coordinates>139.637009,35.701286</coordinates>
    </Point>
   </Placemark>
   <Placemark>
    <name>蒲重蒲鉾店 · Kamajū</name>
    <description>1936年創業のかまぼこ店。朝5時から約30種類のさつま揚げを揚げたてで並べ、おでんは一年中。
阿佐ヶ谷 · 確認日 2026-09-25
出典: すぎなみ学倶楽部 https://www.suginamigaku.org/2014/10/kamaju-asagaya.html</description>
    <Point>
     <coordinates>139.636993,35.70369</coordinates>
    </Point>
   </Placemark>
   <Placemark>
    <name>御菓子司 栄太楼 · Eitarō</name>
    <description>1958年、阿佐谷パールセンターに開いた和菓子店で、現在は三代目。餡を蒸かしてふっくら仕上げた栗しぐれで知られる。
阿佐ヶ谷 · 確認日 2026-09-25
出典: すぎなみ学倶楽部 https://www.suginamigaku.org/2016/03/onkashitsukasa-eitaro.html</description>
    <Point>
     <coordinates>139.637131,35.699051</coordinates>
    </Point>
   </Placemark>
   <Placemark>
    <name>古書コンコ堂 · Koshō Konkodō</name>
    <description>元図書館司書の店主が2011年に開いた古書店。木の本棚やカウンターは友人と手作りした。
阿佐ヶ谷 · 確認日 2026-09-25
出典: すぎなみ学倶楽部 https://www.suginamigaku.org/2019/06/konkodo.html</description>
    <Point>
     <coordinates>139.634796,35.707752</coordinates>
    </Point>
   </Placemark>
   <Placemark>
    <name>永福 青柳 · Eifuku Aoyagi</name>
    <description>1934年創業、永福町駅前の和菓子店。毎朝5時過ぎから大福やだんごを作る。焼き菓子「永福」は内閣総理大臣賞を受けたことがある。
永福 · 確認日 2026-09-25
出典: すぎなみ学倶楽部 https://www.suginamigaku.org/2017/09/eifukuaoyagi.html</description>
    <Point>
     <coordinates>139.64296,35.676727</coordinates>
    </Point>
   </Placemark>
   <Placemark>
    <name>フランス菓子 ブルボン · Bourbon</name>
    <description>1969年開店、西永福駅の線路脇に建つ白いタイルの洋菓子店。オレンジケーキが名物。
永福 · 確認日 2026-09-25
出典: すぎなみ学倶楽部 https://www.suginamigaku.org/2014/10/bulebon.html</description>
    <Point>
     <coordinates>139.634659,35.678936</coordinates>
    </Point>
   </Placemark>
   <Placemark>
    <name>パティスリー ヴォワザン · Pâtisserie Voisin</name>
    <description>ジャン＝ポール・エヴァンやジョエル・ロブションで経験を積んだ店主のフランス菓子店。2009年に荻窪で開き、2016年に浜田山へ移った。店名は「お隣さん」の意味。
浜田山 · 確認日 2026-09-25
出典: すぎなみ学倶楽部 https://www.suginamigaku.org/2023/04/voisin.html</description>
    <Point>
     <coordinates>139.627151,35.682484</coordinates>
    </Point>
   </Placemark>
   <Placemark>
    <name>グランモンターニュ · Gran Montagne</name>
    <description>井荻駅南口で2008年から営むパンと焼き菓子の店。製菓学校で21年間教えた店主の店で、北海道産の粒あんがぎっしりの「井荻あんぱん」が名物。
上井草 · 確認日 2026-09-25
出典: すぎなみ学倶楽部 https://www.suginamigaku.org/2014/10/gran-montagne.html</description>
    <Point>
     <coordinates>139.614075,35.722286</coordinates>
    </Point>
   </Placemark>
   <Placemark>
    <name>トシ・ヨロイヅカ アトリエ · Toshi Yoroizuka Atelier</name>
    <description>ベルギーの三つ星レストランで日本人初のシェフパティシエを務めた鎧塚俊彦の工房。各店の菓子の多くをここで作り、店頭ではできたてを買える。
上高井戸 · 確認日 2026-09-25
出典: すぎなみ学倶楽部 https://www.suginamigaku.org/2025/01/toshiyoroizuka.html</description>
    <Point>
     <coordinates>139.615967,35.670132</coordinates>
    </Point>
   </Placemark>
   <Placemark>
    <name>PANSUKI · PANSUKI</name>
    <description>2023年、八幡山駅の北に開いたベーカリー。ピンクの外壁で、ガラス越しに厨房が見え、朝7時半には50種類以上のパンが並ぶ。
上高井戸 · 確認日 2026-09-25
出典: すぎなみ学倶楽部 https://www.suginamigaku.org/2026/09/pansuki.html</description>
    <Point>
     <coordinates>139.615997,35.671745</coordinates>
    </Point>
   </Placemark>
   <Placemark>
    <name>トリアノン洋菓子店 高円寺本店 · Trianon</name>
    <description>1960年創業、高円寺駅南口ロータリーに面した洋菓子店。創業時から売る「モカロール」など、バタークリームのケーキを今も作る。
高円寺 · 確認日 2026-09-25
出典: すぎなみ学倶楽部 https://www.suginamigaku.org/2017/04/trianon.html</description>
    <Point>
     <coordinates>139.649521,35.705074</coordinates>
    </Point>
   </Placemark>
   <Placemark>
    <name>大石書店 · Ōishi Shoten</name>
    <description>1931年、まだ店がまばらだった高円寺に開いた古書店。以来、家族で営業を続けている。
高円寺 · 確認日 2026-09-25
出典: すぎなみ学倶楽部 https://www.suginamigaku.org/2017/05/oishi-shoten.html</description>
    <Point>
     <coordinates>139.648239,35.702873</coordinates>
    </Point>
   </Placemark>
   <Placemark>
    <name>金子園 · Kanekoen</name>
    <description>高円寺純情商店街の入口にある日本茶の老舗の本店。茶釜から湯を入れて試飲させてくれる。
高円寺 · 確認日 2026-09-25
出典: すぎなみ学倶楽部 https://www.suginamigaku.org/2014/12/kanekoen.html</description>
    <Point>
     <coordinates>139.649643,35.706108</coordinates>
    </Point>
   </Placemark>
   <Placemark>
    <name>平田屋豆腐店 · Hirataya Tofu</name>
    <description>三代続く豆腐店。毎朝4時から国産大豆フクユタカでにがり豆腐を作り、惣菜やおからドーナツも並ぶ。
久我山 · 確認日 2026-09-25
出典: すぎなみ学倶楽部 https://www.suginamigaku.org/2014/10/hirataya-tofu.html</description>
    <Point>
     <coordinates>139.599869,35.688366</coordinates>
    </Point>
   </Placemark>
   <Placemark>
    <name>パン工房 クッペル · Kuppel</name>
    <description>1977年創業、青梅街道沿いのパン屋。独学でパンを学んだ店主が夫婦で、手頃な値段のパンを対面で売る。
桃井 · 確認日 2026-09-25
出典: すぎなみ学倶楽部 https://www.suginamigaku.org/2014/10/kuppel.html</description>
    <Point>
     <coordinates>139.609924,35.710751</coordinates>
    </Point>
   </Placemark>
   <Placemark>
    <name>好味屋 · Kōmiya</name>
    <description>五日市街道沿いの洋菓子店。約70年前の乾物屋から始まり、戦後に洋菓子店へ転じた。一番人気は洋酒が香る「インディアンプリン」。
成田 · 確認日 2026-09-25
出典: すぎなみ学倶楽部 https://www.suginamigaku.org/2014/10/koumiya.html</description>
    <Point>
     <coordinates>139.639893,35.693363</coordinates>
    </Point>
   </Placemark>
   <Placemark>
    <name>三原堂 · Miharadō</name>
    <description>1935年、四谷三原堂からのれん分けで開店した和菓子店。米粒を残して薄く焼いたパリパリの「塩せんべい」が名物。
西荻窪 · 確認日 2026-09-25
出典: すぎなみ学倶楽部 https://www.suginamigaku.org/2014/10/miharado.html</description>
    <Point>
     <coordinates>139.600586,35.704487</coordinates>
    </Point>
   </Placemark>
   <Placemark>
    <name>喜田屋 · Kidaya</name>
    <description>1948年創業の和菓子店。薄い皮に豆がぎっしりの豆大福が有名で、冬は昼前に売り切れることも。
西荻窪 · 確認日 2026-09-25
出典: すぎなみ学倶楽部 https://www.suginamigaku.org/2014/10/kidaya.html</description>
    <Point>
     <coordinates>139.60083,35.705513</coordinates>
    </Point>
   </Placemark>
   <Placemark>
    <name>盛林堂書房 · Seirindō Shobō</name>
    <description>1949年創業、翌年からこの場所で営業する古書店。ミステリーと純文学が充実し、井伏鱒二や松本清張も訪れた。
西荻窪 · 確認日 2026-09-25
出典: すぎなみ学倶楽部 https://www.suginamigaku.org/2019/03/seirindou-syobou.html</description>
    <Point>
     <coordinates>139.599808,35.702263</coordinates>
    </Point>
   </Placemark>
   <Placemark>
    <name>にわとり文庫 · Niwatori Bunko</name>
    <description>酉年の2005年に開いた古書店で、店名は干支にちなむ。店頭にこけしが並び、店内には古書に交じって昔のおもちゃも。
西荻窪 · 確認日 2026-09-25
出典: すぎなみ学倶楽部 https://www.suginamigaku.org/2022/10/niwatoribunko.html</description>
    <Point>
     <coordinates>139.602173,35.703732</coordinates>
    </Point>
   </Placemark>
   <Placemark>
    <name>御菓子司 亀屋 · Kameya</name>
    <description>関東大震災の後、1930年に四谷から荻窪へ移った和菓子の老舗。名物はコーヒー風味のこしあんと生クリームを包んだ冷凍の「カフェオレ大福」。
荻窪 · 確認日 2026-09-25
出典: すぎなみ学倶楽部 https://www.suginamigaku.org/2014/10/kameya.html</description>
    <Point>
     <coordinates>139.616364,35.707138</coordinates>
    </Point>
   </Placemark>
   <Placemark>
    <name>こがね堂 · Koganedō</name>
    <description>1947年に西荻窪から高井戸駅前に移ったせんべい店。もち米を搗くところから店の奥で手作りする。ひな祭りの「ひなあられ」は毎年売り切れる。
高井戸 · 確認日 2026-09-25
出典: すぎなみ学倶楽部 https://www.suginamigaku.org/2014/10/koganedo.html</description>
    <Point>
     <coordinates>139.615311,35.682919</coordinates>
    </Point>
   </Placemark>
  </Folder>
 </Document>
</kml>
