{"type":"FeatureCollection","attribution":"「令和2年国勢調査町丁・字等別境界データ」（総務省統計局）を加工して作成 / 出典：政府統計の総合窓口(e-Stat) https://www.e-stat.go.jp/","source":"https://www.e-stat.go.jp/gis/statmap-search/data?dlserveyId=A002005212020&code=13115&coordSys=1&format=kml&downloadType=5","features":[{"type":"Feature","properties":{"area":"honan","town":"方南一丁目","code":"13115001001"},"geometry":{"type":"Polygon","coordinates":[[[139.66199,35.67987],[139.66169,35.68023],[139.66166,35.68038],[139.65984,35.6798],[139.6586,35.68028],[139.65765,35.68036],[139.65722,35.68029],[139.6574,35.67907],[139.6607,35.67261],[139.66143,35.67281],[139.66138,35.67294],[139.6618,35.67368],[139.66161,35.67429],[139.66134,35.67462],[139.66155,35.67481],[139.6618,35.67533],[139.66174,35.67553],[139.66188,35.67568],[139.664,35.67656],[139.66368,35.67727],[139.66352,35.67722],[139.66341,35.67761],[139.6634,35.67802],[139.66453,35.67774],[139.6646,35.67794],[139.66472,35.67794],[139.6648,35.67891],[139.66384,35.67888],[139.66397,35.67936],[139.66397,35.67956],[139.66388,35.67963],[139.66305,35.6796],[139.66289,35.67953],[139.66271,35.67962],[139.66251,35.67958],[139.66219,35.67984],[139.66199,35.67987]]]}},{"type":"Feature","properties":{"area":"honan","town":"方南二丁目","code":"13115001002"},"geometry":{"type":"Polygon","coordinates":[[[139.65987,35.68478],[139.65978,35.68512],[139.65938,35.68514],[139.65953,35.68572],[139.6593,35.68601],[139.6592,35.68603],[139.65915,35.68664],[139.65728,35.68659],[139.65625,35.68632],[139.6568,35.68488],[139.65722,35.68029],[139.65765,35.68036],[139.6584,35.68031],[139.65923,35.68005],[139.65954,35.68007],[139.65978,35.68026],[139.6597,35.68031],[139.65973,35.68039],[139.66007,35.6805],[139.66061,35.68111],[139.66011,35.68132],[139.66019,35.6817],[139.65992,35.68176],[139.66001,35.68204],[139.65935,35.6822],[139.65942,35.68317],[139.65925,35.68319],[139.65935,35.68341],[139.65958,35.68365],[139.65994,35.68365],[139.66016,35.68414],[139.66052,35.68423],[139.6602,35.6849],[139.65987,35.68478]]]}},{"type":"Feature","properties":{"area":"izumi","town":"和泉一丁目","code":"13115002001"},"geometry":{"type":"Polygon","coordinates":[[[139.65846,35.67705],[139.6574,35.67907],[139.65728,35.67965],[139.65716,35.67884],[139.65719,35.67834],[139.65619,35.67757],[139.65601,35.67689],[139.65555,35.67679],[139.6543,35.67696],[139.65427,35.67691],[139.65275,35.67703],[139.65428,35.67558],[139.65496,35.67466],[139.65567,35.67338],[139.65691,35.67192],[139.65708,35.67159],[139.66071,35.67259],[139.65846,35.67705]]]}},{"type":"Feature","properties":{"area":"izumi","town":"和泉二丁目","code":"13115002002"},"geometry":{"type":"Polygon","coordinates":[[[139.65524,35.67414],[139.65496,35.67466],[139.65428,35.67558],[139.65275,35.67703],[139.6516,35.67749],[139.65035,35.67768],[139.64886,35.67833],[139.64859,35.6778],[139.64862,35.67737],[139.64847,35.67704],[139.64853,35.67657],[139.64848,35.67618],[139.64814,35.67593],[139.64798,35.67547],[139.64758,35.67477],[139.64706,35.67444],[139.64676,35.67402],[139.64636,35.67418],[139.64628,35.67412],[139.64953,35.6718],[139.64991,35.67132],[139.65016,35.67031],[139.65391,35.67089],[139.65434,35.67092],[139.65444,35.67063],[139.65464,35.67066],[139.65566,35.6709],[139.65672,35.67131],[139.65679,35.67149],[139.65708,35.67159],[139.65691,35.67192],[139.65567,35.67338],[139.65524,35.67414]]]}},{"type":"Feature","properties":{"area":"izumi","town":"和泉三丁目","code":"13115002003"},"geometry":{"type":"Polygon","coordinates":[[[139.65094,35.68262],[139.64971,35.68267],[139.64781,35.68292],[139.64335,35.68193],[139.64352,35.68137],[139.64353,35.68078],[139.64391,35.67814],[139.64411,35.67737],[139.64393,35.67647],[139.64399,35.67643],[139.64364,35.67585],[139.64457,35.6753],[139.64623,35.67413],[139.64636,35.67418],[139.64676,35.67402],[139.64706,35.67444],[139.64758,35.67477],[139.64798,35.67547],[139.64814,35.67593],[139.64848,35.67618],[139.64853,35.67657],[139.64847,35.67704],[139.64862,35.67737],[139.64859,35.6778],[139.64919,35.67916],[139.6495,35.67949],[139.64949,35.67994],[139.65042,35.68104],[139.6507,35.68168],[139.65106,35.68195],[139.65203,35.68236],[139.65227,35.68263],[139.65094,35.68262]]]}},{"type":"Feature","properties":{"area":"izumi","town":"和泉四丁目","code":"13115002004"},"geometry":{"type":"Polygon","coordinates":[[[139.65604,35.67714],[139.65628,35.67767],[139.65719,35.67834],[139.65716,35.67884],[139.65728,35.67966],[139.65694,35.68344],[139.65336,35.68297],[139.65227,35.68268],[139.65203,35.68236],[139.65091,35.68187],[139.65055,35.68143],[139.65042,35.68104],[139.64949,35.67994],[139.64952,35.67954],[139.64919,35.67916],[139.64886,35.67833],[139.65035,35.67768],[139.6516,35.67749],[139.65275,35.67703],[139.65427,35.67691],[139.6543,35.67696],[139.65555,35.67679],[139.65601,35.67689],[139.65604,35.67714]]]}},{"type":"Feature","properties":{"area":"shimo-takaido","town":"下高井戸一丁目","code":"13115003001"},"geometry":{"type":"Polygon","coordinates":[[[139.63926,35.66749],[139.63844,35.66754],[139.63785,35.66767],[139.63261,35.66947],[139.62874,35.67002],[139.62531,35.67038],[139.62479,35.67036],[139.62487,35.66925],[139.62671,35.66912],[139.62912,35.66882],[139.63269,35.66822],[139.63333,35.66797],[139.63436,35.66771],[139.63644,35.6668],[139.63694,35.66666],[139.63683,35.66626],[139.63687,35.66612],[139.63809,35.66592],[139.6393,35.66588],[139.64037,35.66635],[139.64146,35.66668],[139.64133,35.66759],[139.63926,35.66749]]]}},{"type":"Feature","properties":{"area":"shimo-takaido","town":"下高井戸二丁目","code":"13115003002"},"geometry":{"type":"Polygon","coordinates":[[[139.64153,35.67013],[139.64087,35.6702],[139.63911,35.67069],[139.63874,35.67091],[139.63711,35.67229],[139.63652,35.67255],[139.63387,35.66907],[139.6354,35.66848],[139.63831,35.66756],[139.6399,35.6675],[139.64159,35.66762],[139.64159,35.6687],[139.64222,35.67013],[139.64153,35.67013]]]}},{"type":"Feature","properties":{"area":"shimo-takaido","town":"下高井戸三丁目","code":"13115003003"},"geometry":{"type":"Polygon","coordinates":[[[139.63479,35.67491],[139.63353,35.67601],[139.63317,35.67615],[139.63075,35.67594],[139.63081,35.67468],[139.63125,35.67463],[139.63138,35.67392],[139.63139,35.67325],[139.63154,35.67325],[139.63148,35.67261],[139.63129,35.67218],[139.63141,35.67211],[139.63083,35.66971],[139.63261,35.66947],[139.63387,35.66907],[139.63507,35.67059],[139.63648,35.67249],[139.63639,35.67256],[139.63648,35.67282],[139.63573,35.67352],[139.63554,35.67416],[139.63479,35.67491]]]}},{"type":"Feature","properties":{"area":"shimo-takaido","town":"下高井戸四丁目","code":"13115003004"},"geometry":{"type":"Polygon","coordinates":[[[139.63074,35.67576],[139.63075,35.67589],[139.62983,35.67578],[139.62947,35.67563],[139.6292,35.67562],[139.62889,35.67572],[139.62757,35.67537],[139.62709,35.67531],[139.62678,35.67536],[139.6265,35.67497],[139.62555,35.67486],[139.62534,35.6747],[139.62472,35.67349],[139.62462,35.67306],[139.62491,35.67229],[139.62561,35.67128],[139.62568,35.671],[139.6256,35.67035],[139.62874,35.67002],[139.63083,35.66971],[139.63141,35.67211],[139.63129,35.67218],[139.63148,35.67261],[139.63154,35.67325],[139.63139,35.67325],[139.63138,35.67392],[139.63125,35.67463],[139.63081,35.67468],[139.63074,35.67576]]]}},{"type":"Feature","properties":{"area":"shimo-takaido","town":"下高井戸五丁目","code":"13115003005"},"geometry":{"type":"Polygon","coordinates":[[[139.62336,35.67758],[139.62296,35.67744],[139.6223,35.67744],[139.62129,35.67706],[139.61869,35.67656],[139.61846,35.67641],[139.61806,35.67595],[139.61917,35.67537],[139.62013,35.67468],[139.62344,35.67171],[139.62313,35.67145],[139.62312,35.67061],[139.62479,35.67036],[139.62482,35.67041],[139.6256,35.67035],[139.62567,35.67111],[139.62491,35.67229],[139.62467,35.67282],[139.62462,35.67306],[139.62468,35.67339],[139.62526,35.6746],[139.62545,35.67481],[139.6265,35.67497],[139.62678,35.67536],[139.6256,35.67587],[139.62336,35.67758]]]}},{"type":"Feature","properties":{"area":"eifuku","town":"永福一丁目","code":"13115004001"},"geometry":{"type":"Polygon","coordinates":[[[139.64228,35.66764],[139.64503,35.668],[139.64599,35.6682],[139.6479,35.66891],[139.64964,35.6699],[139.65018,35.67009],[139.64991,35.67132],[139.64953,35.6718],[139.64905,35.67218],[139.64457,35.6753],[139.64365,35.67584],[139.64289,35.67407],[139.64264,35.67194],[139.64222,35.67013],[139.64159,35.6687],[139.64161,35.66756],[139.64228,35.66764]]]}},{"type":"Feature","properties":{"area":"eifuku","town":"永福二丁目","code":"13115004002"},"geometry":{"type":"Polygon","coordinates":[[[139.64222,35.67013],[139.64264,35.67194],[139.64289,35.67407],[139.64384,35.67619],[139.64056,35.67787],[139.63652,35.67255],[139.63711,35.67229],[139.63874,35.67091],[139.63933,35.67059],[139.64087,35.6702],[139.64222,35.67013]]]}},{"type":"Feature","properties":{"area":"eifuku","town":"永福三丁目","code":"13115004003"},"geometry":{"type":"Polygon","coordinates":[[[139.63609,35.68013],[139.63546,35.67981],[139.63539,35.67984],[139.63492,35.67926],[139.63441,35.67939],[139.63406,35.67865],[139.63346,35.678],[139.63364,35.67778],[139.63375,35.67653],[139.63452,35.67656],[139.63454,35.67576],[139.63481,35.67505],[139.63523,35.67464],[139.63519,35.67457],[139.63554,35.67416],[139.63573,35.67352],[139.63648,35.67282],[139.63639,35.67256],[139.63648,35.67249],[139.64055,35.67786],[139.63609,35.68013]]]}},{"type":"Feature","properties":{"area":"eifuku","town":"永福四丁目","code":"13115004004"},"geometry":{"type":"Polygon","coordinates":[[[139.64391,35.67814],[139.64353,35.68078],[139.64352,35.68137],[139.64335,35.68193],[139.63609,35.68013],[139.64384,35.67619],[139.64399,35.67643],[139.64393,35.67647],[139.64411,35.67737],[139.64391,35.67814]]]}},{"type":"Feature","properties":{"area":"hamadayama","town":"浜田山一丁目","code":"13115005001"},"geometry":{"type":"Polygon","coordinates":[[[139.63354,35.67948],[139.62915,35.68104],[139.629,35.67996],[139.62872,35.67877],[139.62747,35.67635],[139.62677,35.67537],[139.62723,35.67532],[139.62889,35.67572],[139.6292,35.67562],[139.62947,35.67563],[139.62983,35.67578],[139.63075,35.67594],[139.63317,35.67615],[139.63375,35.67584],[139.63519,35.67457],[139.63523,35.67464],[139.63481,35.67505],[139.63454,35.67576],[139.63452,35.67656],[139.63375,35.67653],[139.63364,35.67778],[139.63346,35.678],[139.63393,35.67847],[139.63433,35.6792],[139.63354,35.67948]]]}},{"type":"Feature","properties":{"area":"hamadayama","town":"浜田山二丁目","code":"13115005002"},"geometry":{"type":"Polygon","coordinates":[[[139.62731,35.67611],[139.62872,35.67877],[139.629,35.67996],[139.62915,35.68105],[139.62701,35.68184],[139.62543,35.68209],[139.62514,35.68138],[139.6255,35.68003],[139.6245,35.67852],[139.62336,35.67758],[139.6256,35.67587],[139.62658,35.67541],[139.62677,35.67537],[139.62731,35.67611]]]}},{"type":"Feature","properties":{"area":"hamadayama","town":"浜田山三丁目","code":"13115005003"},"geometry":{"type":"Polygon","coordinates":[[[139.63593,35.68004],[139.63616,35.68016],[139.62706,35.68479],[139.62442,35.68576],[139.62584,35.68309],[139.62543,35.68209],[139.62647,35.68197],[139.62744,35.6817],[139.63432,35.67919],[139.63441,35.67939],[139.63492,35.67926],[139.63539,35.67984],[139.63546,35.67981],[139.63593,35.68004]]]}},{"type":"Feature","properties":{"area":"hamadayama","town":"浜田山四丁目","code":"13115005004"},"geometry":{"type":"Polygon","coordinates":[[[139.63509,35.68072],[139.63589,35.68367],[139.63364,35.68482],[139.62829,35.68697],[139.62641,35.6876],[139.62498,35.68819],[139.62399,35.68653],[139.62442,35.68576],[139.62706,35.68479],[139.63509,35.68072]]]}},{"type":"Feature","properties":{"area":"wada","town":"和田一丁目","code":"13115006001"},"geometry":{"type":"Polygon","coordinates":[[[139.6645,35.69539],[139.66226,35.69521],[139.66145,35.69506],[139.65999,35.69428],[139.65943,35.69381],[139.65827,35.6936],[139.65907,35.69191],[139.65977,35.69096],[139.6599,35.69045],[139.65969,35.6898],[139.66089,35.69013],[139.66099,35.68952],[139.66162,35.68818],[139.66188,35.68718],[139.66343,35.68802],[139.66364,35.68842],[139.66375,35.68884],[139.66396,35.68913],[139.66636,35.69041],[139.6668,35.69084],[139.667,35.69092],[139.66695,35.69119],[139.66781,35.69137],[139.66769,35.69187],[139.66752,35.69186],[139.66731,35.69281],[139.66726,35.69329],[139.66739,35.69375],[139.66669,35.69346],[139.66587,35.69479],[139.66541,35.69465],[139.66507,35.69525],[139.66492,35.69538],[139.66455,35.69533],[139.6645,35.69539]]]}},{"type":"Feature","properties":{"area":"wada","town":"和田二丁目","code":"13115006002"},"geometry":{"type":"Polygon","coordinates":[[[139.65981,35.69022],[139.6599,35.69045],[139.65977,35.69096],[139.65907,35.69191],[139.65827,35.6936],[139.65774,35.69334],[139.65651,35.69238],[139.65567,35.69219],[139.6547,35.69176],[139.65524,35.68903],[139.65624,35.68631],[139.65728,35.68659],[139.66087,35.68676],[139.66127,35.68685],[139.66188,35.68718],[139.66162,35.68818],[139.66099,35.68952],[139.66089,35.69013],[139.65969,35.6898],[139.65981,35.69022]]]}},{"type":"Feature","properties":{"area":"wada","town":"和田三丁目","code":"13115006003"},"geometry":{"type":"Polygon","coordinates":[[[139.66199,35.69738],[139.66197,35.6975],[139.66139,35.6976],[139.65785,35.69809],[139.65484,35.69809],[139.65435,35.69416],[139.65439,35.6935],[139.6547,35.69176],[139.65567,35.69219],[139.65651,35.69238],[139.65774,35.69334],[139.65827,35.6936],[139.65943,35.69381],[139.65999,35.69428],[139.66096,35.69483],[139.66083,35.69546],[139.66037,35.69646],[139.66105,35.6966],[139.66097,35.69718],[139.66193,35.697],[139.66199,35.69738]]]}},{"type":"Feature","properties":{"area":"horinouchi-umezato","town":"堀ノ内一丁目","code":"13115007001"},"geometry":{"type":"Polygon","coordinates":[[[139.65165,35.68486],[139.65134,35.68496],[139.65122,35.68513],[139.65087,35.68617],[139.64959,35.68807],[139.64934,35.68823],[139.64813,35.68868],[139.64551,35.68471],[139.64667,35.68457],[139.64752,35.68399],[139.64715,35.68363],[139.64716,35.68295],[139.64732,35.68284],[139.64801,35.68292],[139.64971,35.68267],[139.65187,35.68261],[139.65363,35.68302],[139.65694,35.68344],[139.65686,35.68435],[139.65675,35.6851],[139.65625,35.68632],[139.65402,35.68504],[139.6533,35.68485],[139.65165,35.68486]]]}},{"type":"Feature","properties":{"area":"horinouchi-umezato","town":"堀ノ内二丁目","code":"13115007002"},"geometry":{"type":"Polygon","coordinates":[[[139.64925,35.69039],[139.64882,35.69066],[139.64791,35.69097],[139.64709,35.69151],[139.64612,35.69171],[139.64602,35.69102],[139.64613,35.69031],[139.64622,35.69033],[139.64631,35.68982],[139.64607,35.68977],[139.64621,35.68922],[139.64685,35.68914],[139.64934,35.68823],[139.64959,35.68807],[139.65073,35.68642],[139.65099,35.68591],[139.65122,35.68513],[139.65142,35.68491],[139.65195,35.68483],[139.65287,35.68484],[139.6537,35.68494],[139.65429,35.68514],[139.65624,35.6863],[139.65524,35.68903],[139.65494,35.69062],[139.65405,35.69052],[139.65364,35.69055],[139.65252,35.69014],[139.65146,35.68996],[139.65077,35.6901],[139.64967,35.69013],[139.64925,35.69039]]]}},{"type":"Feature","properties":{"area":"horinouchi-umezato","town":"堀ノ内三丁目","code":"13115007003"},"geometry":{"type":"Polygon","coordinates":[[[139.65377,35.69452],[139.65338,35.69474],[139.65163,35.69478],[139.6516,35.69533],[139.65011,35.69507],[139.65001,35.69492],[139.64957,35.69472],[139.64842,35.69431],[139.64868,35.69493],[139.64797,35.6949],[139.64801,35.69502],[139.64717,35.69517],[139.64636,35.69388],[139.64633,35.69357],[139.64647,35.69257],[139.64612,35.6917],[139.64709,35.69151],[139.64791,35.69097],[139.64882,35.69066],[139.64956,35.69018],[139.6498,35.69011],[139.65077,35.6901],[139.65146,35.68996],[139.65252,35.69014],[139.65364,35.69055],[139.65405,35.69052],[139.65494,35.69062],[139.65439,35.6935],[139.65435,35.69416],[139.65377,35.69452]]]}},{"type":"Feature","properties":{"area":"omiya-matsunoki","town":"松ノ木一丁目","code":"13115008001"},"geometry":{"type":"Polygon","coordinates":[[[139.64195,35.69004],[139.64151,35.69005],[139.64154,35.68936],[139.63999,35.6893],[139.63959,35.68917],[139.63962,35.68896],[139.63985,35.68871],[139.64032,35.68792],[139.64031,35.68768],[139.64004,35.68741],[139.63976,35.68695],[139.63991,35.6861],[139.64038,35.68562],[139.64072,35.68498],[139.6412,35.68477],[139.64126,35.68499],[139.6425,35.68519],[139.64256,35.685],[139.64416,35.68484],[139.64473,35.68673],[139.64471,35.68707],[139.64426,35.68853],[139.64437,35.6889],[139.64454,35.68904],[139.64417,35.68939],[139.64388,35.69002],[139.64195,35.69004]]]}},{"type":"Feature","properties":{"area":"omiya-matsunoki","town":"松ノ木二丁目","code":"13115008002"},"geometry":{"type":"Polygon","coordinates":[[[139.64496,35.69247],[139.642,35.69251],[139.64145,35.69214],[139.64133,35.69232],[139.64123,35.69232],[139.64114,35.69201],[139.64112,35.69133],[139.64124,35.69085],[139.64109,35.69055],[139.64103,35.69046],[139.64031,35.69014],[139.63989,35.68982],[139.63971,35.6896],[139.63959,35.68917],[139.63999,35.6893],[139.64154,35.68936],[139.64151,35.69005],[139.64388,35.69002],[139.64417,35.68939],[139.64454,35.68904],[139.64479,35.68914],[139.64621,35.68922],[139.64607,35.68977],[139.64631,35.68982],[139.64622,35.69033],[139.64613,35.69031],[139.64602,35.69102],[139.64611,35.6917],[139.64642,35.69239],[139.64496,35.69247]]]}},{"type":"Feature","properties":{"area":"omiya-matsunoki","town":"松ノ木三丁目","code":"13115008003"},"geometry":{"type":"Polygon","coordinates":[[[139.64804,35.69583],[139.64798,35.69591],[139.64812,35.69675],[139.64807,35.6968],[139.64741,35.69643],[139.64625,35.6961],[139.64149,35.69447],[139.64184,35.69414],[139.64219,35.69358],[139.64216,35.69298],[139.642,35.69251],[139.64348,35.69246],[139.64436,35.69252],[139.64642,35.69239],[139.64647,35.6928],[139.64633,35.69357],[139.64636,35.69388],[139.64717,35.69517],[139.64801,35.69502],[139.64804,35.69583]]]}},{"type":"Feature","properties":{"area":"omiya-matsunoki","town":"大宮一丁目","code":"13115009001"},"geometry":{"type":"Polygon","coordinates":[[[139.64616,35.68571],[139.64813,35.68868],[139.64651,35.68922],[139.64479,35.68914],[139.64437,35.6889],[139.64426,35.68853],[139.64474,35.68692],[139.64416,35.68484],[139.64256,35.685],[139.6425,35.68311],[139.64308,35.68262],[139.64335,35.68193],[139.64732,35.68284],[139.64716,35.68295],[139.64715,35.68363],[139.64752,35.68399],[139.64667,35.68457],[139.64551,35.68471],[139.64616,35.68571]]]}},{"type":"Feature","properties":{"area":"omiya-matsunoki","town":"大宮二丁目","code":"13115009002"},"geometry":{"type":"Polygon","coordinates":[[[139.64072,35.68498],[139.64038,35.68562],[139.63965,35.6863],[139.63896,35.68642],[139.63813,35.68685],[139.63781,35.68684],[139.63745,35.68672],[139.63761,35.68609],[139.63762,35.68547],[139.63782,35.68514],[139.63765,35.6843],[139.63727,35.68346],[139.63713,35.68296],[139.63708,35.68292],[139.63589,35.68367],[139.63508,35.68071],[139.63616,35.68016],[139.64335,35.68193],[139.64308,35.68262],[139.6425,35.68311],[139.64256,35.685],[139.6425,35.68519],[139.64126,35.68499],[139.6412,35.68477],[139.64072,35.68498]]]}},{"type":"Feature","properties":{"area":"horinouchi-umezato","town":"梅里一丁目","code":"13115010001"},"geometry":{"type":"Polygon","coordinates":[[[139.65484,35.69808],[139.65129,35.69805],[139.64813,35.69789],[139.64807,35.69734],[139.64812,35.69675],[139.64798,35.69591],[139.64804,35.69583],[139.64797,35.6949],[139.64868,35.69493],[139.64842,35.69431],[139.64957,35.69472],[139.65001,35.69492],[139.65011,35.69507],[139.6516,35.69533],[139.65163,35.69478],[139.65338,35.69474],[139.65435,35.69416],[139.65484,35.69808]]]}},{"type":"Feature","properties":{"area":"horinouchi-umezato","town":"梅里二丁目","code":"13115010002"},"geometry":{"type":"Polygon","coordinates":[[[139.64242,35.69782],[139.64036,35.69795],[139.63921,35.69824],[139.63904,35.69794],[139.64054,35.69624],[139.64093,35.69547],[139.64104,35.69493],[139.64149,35.69447],[139.64625,35.6961],[139.64741,35.69643],[139.64807,35.6968],[139.64813,35.69789],[139.64242,35.69782]]]}},{"type":"Feature","properties":{"area":"koenji","town":"高円寺南一丁目","code":"13115011001"},"geometry":{"type":"Polygon","coordinates":[[[139.6571,35.70131],[139.65497,35.70171],[139.65484,35.69809],[139.65764,35.69811],[139.66197,35.6975],[139.66211,35.69803],[139.66237,35.69836],[139.6624,35.69869],[139.66217,35.69931],[139.6618,35.69932],[139.66197,35.69999],[139.66177,35.70006],[139.66178,35.70022],[139.66155,35.70022],[139.66145,35.70118],[139.65819,35.70111],[139.6571,35.70131]]]}},{"type":"Feature","properties":{"area":"koenji","town":"高円寺南二丁目","code":"13115011002"},"geometry":{"type":"Polygon","coordinates":[[[139.65323,35.69807],[139.65484,35.69808],[139.65497,35.70171],[139.64838,35.70298],[139.64785,35.70226],[139.64739,35.70018],[139.64765,35.69788],[139.65323,35.69807]]]}},{"type":"Feature","properties":{"area":"koenji","town":"高円寺南三丁目","code":"13115011003"},"geometry":{"type":"Polygon","coordinates":[[[139.64628,35.69786],[139.64765,35.69788],[139.64739,35.70018],[139.6477,35.70179],[139.64785,35.70226],[139.64871,35.70357],[139.64934,35.70546],[139.6481,35.70534],[139.6449,35.70523],[139.64487,35.70485],[139.6439,35.70325],[139.64391,35.70275],[139.64371,35.70167],[139.64367,35.70092],[139.64368,35.69912],[139.64388,35.69783],[139.64628,35.69786]]]}},{"type":"Feature","properties":{"area":"koenji","town":"高円寺南四丁目","code":"13115011004"},"geometry":{"type":"Polygon","coordinates":[[[139.6549,35.70552],[139.64934,35.70546],[139.64871,35.70357],[139.64838,35.70298],[139.65497,35.70171],[139.65503,35.70406],[139.6549,35.70552]]]}},{"type":"Feature","properties":{"area":"koenji","town":"高円寺南五丁目","code":"13115011005"},"geometry":{"type":"Polygon","coordinates":[[[139.6582,35.7056],[139.6549,35.70552],[139.65503,35.70406],[139.65497,35.70171],[139.65819,35.70111],[139.66145,35.70118],[139.66134,35.70134],[139.66108,35.70141],[139.66071,35.70137],[139.66114,35.70251],[139.66099,35.7048],[139.65801,35.70516],[139.6582,35.7056]]]}},{"type":"Feature","properties":{"area":"koenji","town":"高円寺北一丁目","code":"13115012001"},"geometry":{"type":"Polygon","coordinates":[[[139.65627,35.70925],[139.65611,35.70924],[139.65611,35.70911],[139.65593,35.70908],[139.65589,35.70916],[139.65532,35.70915],[139.65521,35.70923],[139.65517,35.70908],[139.65441,35.7091],[139.65478,35.70576],[139.6549,35.70552],[139.6582,35.7056],[139.65804,35.7076],[139.65801,35.7092],[139.65628,35.70913],[139.65627,35.70925]]]}},{"type":"Feature","properties":{"area":"koenji","town":"高円寺北二丁目","code":"13115012002"},"geometry":{"type":"Polygon","coordinates":[[[139.65096,35.70921],[139.65094,35.70942],[139.64995,35.70968],[139.64983,35.70927],[139.64961,35.70741],[139.64992,35.70738],[139.64972,35.70619],[139.64939,35.70546],[139.6549,35.70552],[139.65478,35.70576],[139.65441,35.7091],[139.65411,35.70907],[139.65405,35.70928],[139.65129,35.70897],[139.65128,35.70906],[139.65101,35.70903],[139.65096,35.70921]]]}},{"type":"Feature","properties":{"area":"koenji","town":"高円寺北三丁目","code":"13115012003"},"geometry":{"type":"Polygon","coordinates":[[[139.64545,35.70526],[139.6481,35.70534],[139.64939,35.70546],[139.64972,35.70619],[139.64992,35.70738],[139.64961,35.70741],[139.64983,35.70927],[139.64995,35.70968],[139.64601,35.7108],[139.64583,35.70945],[139.64585,35.70846],[139.64562,35.70712],[139.64493,35.70524],[139.64545,35.70526]]]}},{"type":"Feature","properties":{"area":"koenji","town":"高円寺北四丁目","code":"13115012004"},"geometry":{"type":"Polygon","coordinates":[[[139.64584,35.70911],[139.64585,35.70974],[139.64601,35.7108],[139.64352,35.71148],[139.64251,35.70812],[139.6419,35.70641],[139.64199,35.70563],[139.64256,35.70518],[139.64493,35.70524],[139.64562,35.70712],[139.64585,35.70846],[139.64584,35.70911]]]}},{"type":"Feature","properties":{"area":"asagaya","town":"阿佐谷南一丁目","code":"13115013001"},"geometry":{"type":"Polygon","coordinates":[[[139.64056,35.70246],[139.63915,35.7033],[139.63826,35.70363],[139.6374,35.70412],[139.63701,35.70424],[139.63675,35.70423],[139.63561,35.69947],[139.638,35.69859],[139.6401,35.698],[139.64217,35.69783],[139.64388,35.69783],[139.64367,35.69929],[139.64371,35.70167],[139.64264,35.70208],[139.64106,35.70212],[139.64056,35.70246]]]}},{"type":"Feature","properties":{"area":"asagaya","town":"阿佐谷南二丁目","code":"13115013002"},"geometry":{"type":"Polygon","coordinates":[[[139.6449,35.70508],[139.6449,35.70523],[139.63671,35.70506],[139.63675,35.70423],[139.63733,35.70415],[139.63826,35.70363],[139.63915,35.7033],[139.64106,35.70212],[139.64264,35.70208],[139.64372,35.70167],[139.64391,35.70275],[139.6439,35.70325],[139.64487,35.70485],[139.6449,35.70508]]]}},{"type":"Feature","properties":{"area":"asagaya","town":"阿佐谷南三丁目","code":"13115013003"},"geometry":{"type":"Polygon","coordinates":[[[139.63574,35.70002],[139.63675,35.70423],[139.63669,35.70508],[139.63304,35.70486],[139.6245,35.70462],[139.62747,35.70332],[139.62982,35.70192],[139.63288,35.70059],[139.63562,35.69949],[139.63574,35.70002]]]}},{"type":"Feature","properties":{"area":"asagaya","town":"阿佐谷北一丁目","code":"13115014001"},"geometry":{"type":"Polygon","coordinates":[[[139.64149,35.7066],[139.64088,35.70696],[139.63989,35.70734],[139.63957,35.70765],[139.63952,35.70833],[139.63937,35.7086],[139.63876,35.70908],[139.63842,35.70984],[139.63839,35.71009],[139.63752,35.71034],[139.63622,35.71041],[139.63541,35.71022],[139.63441,35.70966],[139.63458,35.70941],[139.63471,35.70788],[139.63615,35.70647],[139.63637,35.70648],[139.63672,35.70506],[139.64256,35.70518],[139.64199,35.70563],[139.64199,35.706],[139.64189,35.70636],[139.64149,35.7066]]]}},{"type":"Feature","properties":{"area":"asagaya","town":"阿佐谷北二丁目","code":"13115014002"},"geometry":{"type":"Polygon","coordinates":[[[139.63497,35.7076],[139.63471,35.70788],[139.63463,35.7084],[139.63293,35.70789],[139.6327,35.70778],[139.63236,35.70746],[139.63184,35.70767],[139.63065,35.70773],[139.63067,35.70718],[139.63041,35.70704],[139.62995,35.7062],[139.62938,35.70559],[139.62897,35.70473],[139.63377,35.70489],[139.63669,35.70508],[139.63637,35.70648],[139.63615,35.70647],[139.63497,35.7076]]]}},{"type":"Feature","properties":{"area":"asagaya","town":"阿佐谷北三丁目","code":"13115014003"},"geometry":{"type":"Polygon","coordinates":[[[139.6327,35.70778],[139.63463,35.7084],[139.63458,35.70941],[139.63425,35.70986],[139.63396,35.71064],[139.63384,35.71126],[139.63402,35.71269],[139.63129,35.71211],[139.62911,35.71178],[139.6298,35.70979],[139.62997,35.70906],[139.63065,35.70773],[139.63184,35.70767],[139.63236,35.70746],[139.6327,35.70778]]]}},{"type":"Feature","properties":{"area":"asagaya","town":"阿佐谷北四丁目","code":"13115014004"},"geometry":{"type":"Polygon","coordinates":[[[139.63857,35.71067],[139.63879,35.71166],[139.63917,35.71277],[139.63718,35.71332],[139.63486,35.71415],[139.63455,35.71338],[139.63413,35.71272],[139.63402,35.71269],[139.63386,35.71169],[139.6339,35.71085],[139.63425,35.70986],[139.63441,35.70966],[139.63541,35.71022],[139.63622,35.71041],[139.63752,35.71034],[139.6384,35.71008],[139.63857,35.71067]]]}},{"type":"Feature","properties":{"area":"asagaya","town":"阿佐谷北五丁目","code":"13115014005"},"geometry":{"type":"Polygon","coordinates":[[[139.6432,35.71047],[139.64352,35.71148],[139.63917,35.71277],[139.63879,35.71166],[139.63838,35.71001],[139.63876,35.70908],[139.63945,35.70847],[139.63955,35.7082],[139.63957,35.70765],[139.63989,35.70734],[139.64088,35.70696],[139.64189,35.70636],[139.64251,35.70812],[139.6432,35.71047]]]}},{"type":"Feature","properties":{"area":"asagaya","town":"阿佐谷北六丁目","code":"13115014006"},"geometry":{"type":"Polygon","coordinates":[[[139.64248,35.71194],[139.64214,35.7123],[139.64142,35.71277],[139.6416,35.71486],[139.64009,35.71543],[139.63816,35.71598],[139.6373,35.71651],[139.63602,35.7167],[139.63537,35.71506],[139.63486,35.71415],[139.63718,35.71332],[139.6428,35.7117],[139.64248,35.71194]]]}},{"type":"Feature","properties":{"area":"amanuma","town":"天沼一丁目","code":"13115015001"},"geometry":{"type":"Polygon","coordinates":[[[139.62911,35.71178],[139.62693,35.71166],[139.62696,35.70994],[139.62719,35.70847],[139.62592,35.70587],[139.62588,35.70528],[139.62612,35.7049],[139.62642,35.70467],[139.62897,35.70473],[139.62938,35.70559],[139.62995,35.7062],[139.63041,35.70704],[139.63067,35.70718],[139.63065,35.70774],[139.62997,35.70906],[139.6298,35.70979],[139.62911,35.71178]]]}},{"type":"Feature","properties":{"area":"amanuma","town":"天沼二丁目","code":"13115015002"},"geometry":{"type":"Polygon","coordinates":[[[139.62527,35.70465],[139.62642,35.70467],[139.62612,35.7049],[139.62588,35.70528],[139.62592,35.70587],[139.62719,35.70847],[139.62696,35.70994],[139.62693,35.71166],[139.62363,35.71124],[139.62267,35.71103],[139.62269,35.70889],[139.62285,35.70778],[139.62304,35.70775],[139.62314,35.70757],[139.62269,35.70524],[139.62339,35.70509],[139.6245,35.70462],[139.62527,35.70465]]]}},{"type":"Feature","properties":{"area":"amanuma","town":"天沼三丁目","code":"13115015003"},"geometry":{"type":"Polygon","coordinates":[[[139.62281,35.70834],[139.62269,35.70889],[139.62267,35.71103],[139.62115,35.71062],[139.61739,35.70899],[139.61561,35.70785],[139.618,35.70646],[139.61948,35.70575],[139.62079,35.70535],[139.62269,35.70524],[139.62314,35.70757],[139.62304,35.70775],[139.62285,35.70778],[139.62281,35.70834]]]}},{"type":"Feature","properties":{"area":"amanuma","town":"本天沼一丁目","code":"13115016001"},"geometry":{"type":"Polygon","coordinates":[[[139.62984,35.71189],[139.63129,35.71211],[139.63413,35.71272],[139.63455,35.71338],[139.63487,35.71416],[139.63121,35.71509],[139.62955,35.71569],[139.62817,35.71336],[139.62877,35.71274],[139.62911,35.71178],[139.62984,35.71189]]]}},{"type":"Feature","properties":{"area":"amanuma","town":"本天沼二丁目","code":"13115016002"},"geometry":{"type":"Polygon","coordinates":[[[139.62815,35.71173],[139.62911,35.71178],[139.62877,35.71274],[139.62817,35.71336],[139.62955,35.71569],[139.62783,35.71633],[139.62463,35.71731],[139.62418,35.71621],[139.62406,35.71532],[139.62408,35.7143],[139.62348,35.71307],[139.62282,35.71106],[139.6251,35.71144],[139.62815,35.71173]]]}},{"type":"Feature","properties":{"area":"amanuma","town":"本天沼三丁目","code":"13115016003"},"geometry":{"type":"Polygon","coordinates":[[[139.62305,35.71778],[139.62111,35.71836],[139.62154,35.71633],[139.62124,35.71518],[139.62087,35.71463],[139.61916,35.71288],[139.61979,35.71125],[139.62021,35.71088],[139.62087,35.71077],[139.62112,35.7106],[139.62282,35.71106],[139.62348,35.71307],[139.62408,35.7143],[139.62406,35.71532],[139.62418,35.71621],[139.62466,35.7173],[139.62305,35.71778]]]}},{"type":"Feature","properties":{"area":"narita","town":"成田西一丁目","code":"13115017001"},"geometry":{"type":"Polygon","coordinates":[[[139.63509,35.68609],[139.63478,35.68614],[139.63337,35.68688],[139.63251,35.68777],[139.63238,35.68804],[139.6324,35.68843],[139.63276,35.6896],[139.63277,35.69028],[139.63344,35.69185],[139.63299,35.69183],[139.6308,35.69097],[139.63024,35.69004],[139.63022,35.68989],[139.63045,35.68932],[139.6304,35.68883],[139.63012,35.68786],[139.63024,35.68749],[139.63002,35.68623],[139.63364,35.68482],[139.63589,35.68367],[139.63708,35.68292],[139.63765,35.6843],[139.63782,35.68514],[139.63762,35.68547],[139.63764,35.68581],[139.63666,35.68611],[139.63509,35.68609]]]}},{"type":"Feature","properties":{"area":"narita","town":"成田西二丁目","code":"13115017002"},"geometry":{"type":"Polygon","coordinates":[[[139.63073,35.69084],[139.6308,35.69097],[139.62972,35.69072],[139.62782,35.69063],[139.62558,35.69082],[139.62495,35.69071],[139.62453,35.69055],[139.62273,35.69054],[139.62141,35.6901],[139.62219,35.68952],[139.6235,35.68897],[139.62498,35.68818],[139.62641,35.6876],[139.62829,35.68697],[139.63002,35.68623],[139.63024,35.68749],[139.63012,35.68786],[139.6304,35.68883],[139.63045,35.68932],[139.63022,35.68989],[139.63024,35.69004],[139.63073,35.69084]]]}},{"type":"Feature","properties":{"area":"narita","town":"成田西三丁目","code":"13115017003"},"geometry":{"type":"Polygon","coordinates":[[[139.63365,35.69233],[139.63404,35.69332],[139.63402,35.69382],[139.63314,35.69512],[139.63272,35.69536],[139.63243,35.69538],[139.6305,35.69419],[139.63013,35.69346],[139.62979,35.69317],[139.62779,35.69244],[139.62658,35.69139],[139.62618,35.69131],[139.6258,35.69141],[139.6255,35.69164],[139.62516,35.69211],[139.62475,35.69289],[139.62442,35.69289],[139.62403,35.69242],[139.62364,35.6921],[139.62224,35.69137],[139.62132,35.69017],[139.62141,35.6901],[139.62158,35.69014],[139.62273,35.69054],[139.62453,35.69055],[139.62495,35.69071],[139.62558,35.69082],[139.62782,35.69063],[139.63013,35.69078],[139.63156,35.69122],[139.63299,35.69183],[139.63345,35.69185],[139.63365,35.69233]]]}},{"type":"Feature","properties":{"area":"narita","town":"成田西四丁目","code":"13115017004"},"geometry":{"type":"Polygon","coordinates":[[[139.62846,35.69269],[139.62979,35.69317],[139.63013,35.69346],[139.6304,35.69407],[139.63068,35.69434],[139.63225,35.69532],[139.63243,35.69536],[139.632,35.6977],[139.631,35.69718],[139.63042,35.6966],[139.62901,35.69591],[139.62835,35.69479],[139.62789,35.6943],[139.62771,35.69379],[139.62702,35.69313],[139.6262,35.69269],[139.62592,35.69266],[139.62566,35.69265],[139.62475,35.69289],[139.6255,35.69164],[139.6259,35.69136],[139.62618,35.69131],[139.62658,35.69139],[139.62779,35.69244],[139.62846,35.69269]]]}},{"type":"Feature","properties":{"area":"narita","town":"成田東一丁目","code":"13115018001"},"geometry":{"type":"Polygon","coordinates":[[[139.64197,35.69249],[139.64216,35.69298],[139.64219,35.69358],[139.64184,35.69414],[139.64149,35.69447],[139.6411,35.69429],[139.63839,35.69245],[139.63792,35.69227],[139.63725,35.69217],[139.63649,35.68966],[139.6372,35.68787],[139.63745,35.68672],[139.63781,35.68684],[139.63813,35.68685],[139.63896,35.68642],[139.63965,35.6863],[139.63991,35.6861],[139.63976,35.68695],[139.64033,35.68775],[139.64032,35.68792],[139.63997,35.68853],[139.6396,35.68901],[139.63971,35.6896],[139.64031,35.69014],[139.64103,35.69046],[139.64124,35.69085],[139.64112,35.69133],[139.64114,35.69201],[139.64123,35.69232],[139.64133,35.69232],[139.64145,35.69214],[139.64197,35.69249]]]}},{"type":"Feature","properties":{"area":"narita","town":"成田東二丁目","code":"13115018002"},"geometry":{"type":"Polygon","coordinates":[[[139.63715,35.6918],[139.63725,35.69217],[139.63628,35.69212],[139.63419,35.69179],[139.63344,35.69185],[139.63277,35.69028],[139.63276,35.6896],[139.63237,35.68818],[139.63251,35.68777],[139.63337,35.68688],[139.63478,35.68614],[139.63666,35.68611],[139.63764,35.68581],[139.6372,35.68787],[139.63649,35.68966],[139.63715,35.6918]]]}},{"type":"Feature","properties":{"area":"narita","town":"成田東三丁目","code":"13115018003"},"geometry":{"type":"Polygon","coordinates":[[[139.64094,35.69541],[139.64054,35.69623],[139.63844,35.69533],[139.63784,35.69518],[139.6372,35.69513],[139.63658,35.69493],[139.63602,35.69501],[139.63576,35.69497],[139.63477,35.69472],[139.63376,35.69426],[139.63402,35.69382],[139.63406,35.69345],[139.63345,35.69185],[139.63419,35.69179],[139.63628,35.69212],[139.63761,35.69221],[139.63839,35.69245],[139.6411,35.69429],[139.64149,35.69447],[139.64104,35.69493],[139.64094,35.69541]]]}},{"type":"Feature","properties":{"area":"narita","town":"成田東四丁目","code":"13115018004"},"geometry":{"type":"Polygon","coordinates":[[[139.638,35.69859],[139.63561,35.69947],[139.63519,35.69853],[139.63485,35.69862],[139.63338,35.69864],[139.6328,35.69842],[139.63189,35.69792],[139.63207,35.6975],[139.6324,35.69538],[139.63272,35.69536],[139.63314,35.69512],[139.63376,35.69426],[139.63477,35.69472],[139.63576,35.69497],[139.63602,35.69501],[139.63658,35.69493],[139.6372,35.69513],[139.63784,35.69518],[139.63844,35.69533],[139.64054,35.69623],[139.63903,35.69789],[139.63919,35.69822],[139.638,35.69859]]]}},{"type":"Feature","properties":{"area":"narita","town":"成田東五丁目","code":"13115018005"},"geometry":{"type":"Polygon","coordinates":[[[139.63536,35.69884],[139.63562,35.69949],[139.63104,35.70135],[139.62982,35.70192],[139.6284,35.70274],[139.62828,35.70261],[139.62803,35.70138],[139.62825,35.70124],[139.62815,35.69958],[139.62851,35.69768],[139.62851,35.69722],[139.62895,35.69594],[139.62901,35.69591],[139.63042,35.6966],[139.631,35.69718],[139.632,35.6977],[139.63189,35.69792],[139.6328,35.69842],[139.63363,35.69868],[139.63485,35.69862],[139.63519,35.69853],[139.63536,35.69884]]]}},{"type":"Feature","properties":{"area":"ogikubo","town":"荻窪一丁目","code":"13115019001"},"geometry":{"type":"Polygon","coordinates":[[[139.62868,35.69528],[139.62801,35.69558],[139.62718,35.69569],[139.62551,35.69562],[139.62425,35.69525],[139.62225,35.69549],[139.6211,35.69512],[139.62016,35.69506],[139.61804,35.69438],[139.61739,35.69451],[139.61693,35.69274],[139.61839,35.69182],[139.61938,35.69147],[139.61982,35.69123],[139.62086,35.69058],[139.62132,35.69017],[139.62224,35.69137],[139.62364,35.6921],[139.62403,35.69242],[139.62442,35.69289],[139.62464,35.69291],[139.62566,35.69265],[139.62592,35.69266],[139.6262,35.69269],[139.62702,35.69313],[139.62763,35.69368],[139.62789,35.6943],[139.62835,35.69479],[139.62868,35.69528]]]}},{"type":"Feature","properties":{"area":"ogikubo","town":"荻窪二丁目","code":"13115019002"},"geometry":{"type":"Polygon","coordinates":[[[139.62348,35.69574],[139.62351,35.69768],[139.62365,35.69813],[139.62354,35.69881],[139.62371,35.69927],[139.62371,35.69952],[139.62393,35.69988],[139.62265,35.70043],[139.62195,35.69939],[139.62165,35.69924],[139.61933,35.6989],[139.61742,35.69884],[139.61787,35.69622],[139.61739,35.69451],[139.61804,35.69438],[139.62016,35.69506],[139.6211,35.69512],[139.62225,35.69549],[139.62342,35.69533],[139.62348,35.69574]]]}},{"type":"Feature","properties":{"area":"ogikubo","town":"荻窪三丁目","code":"13115019003"},"geometry":{"type":"Polygon","coordinates":[[[139.62667,35.70352],[139.62552,35.70373],[139.62526,35.7031],[139.62461,35.70208],[139.62416,35.70162],[139.62265,35.70043],[139.62393,35.69988],[139.62371,35.69952],[139.62371,35.69927],[139.62354,35.69881],[139.62365,35.69813],[139.62351,35.69768],[139.62353,35.69603],[139.62342,35.69533],[139.62425,35.69525],[139.62551,35.69562],[139.62718,35.69569],[139.62801,35.69558],[139.62867,35.69529],[139.62901,35.69591],[139.62888,35.69605],[139.62882,35.69642],[139.62851,35.69722],[139.62851,35.69768],[139.62815,35.69958],[139.62825,35.70124],[139.62803,35.70138],[139.62821,35.70242],[139.6284,35.70274],[139.62704,35.70352],[139.62667,35.70352]]]}},{"type":"Feature","properties":{"area":"ogikubo","town":"荻窪四丁目","code":"13115019004"},"geometry":{"type":"Polygon","coordinates":[[[139.62581,35.70405],[139.62443,35.70464],[139.62241,35.70458],[139.62244,35.70384],[139.62237,35.70359],[139.62198,35.70329],[139.62124,35.70249],[139.61933,35.70117],[139.61725,35.69992],[139.61742,35.69884],[139.61933,35.6989],[139.62151,35.69921],[139.62195,35.69939],[139.62265,35.70043],[139.62416,35.70162],[139.62461,35.70208],[139.62526,35.7031],[139.62552,35.70373],[139.62634,35.70354],[139.62704,35.70352],[139.62581,35.70405]]]}},{"type":"Feature","properties":{"area":"ogikubo","town":"荻窪五丁目","code":"13115019005"},"geometry":{"type":"Polygon","coordinates":[[[139.62193,35.70458],[139.61945,35.70461],[139.61611,35.70439],[139.61725,35.69992],[139.61933,35.70117],[139.62124,35.70249],[139.62198,35.70329],[139.62232,35.70354],[139.62244,35.70384],[139.62241,35.70458],[139.62193,35.70458]]]}},{"type":"Feature","properties":{"area":"ogikubo","town":"南荻窪一丁目","code":"13115020001"},"geometry":{"type":"Polygon","coordinates":[[[139.617,35.69308],[139.61787,35.69622],[139.61742,35.69881],[139.61662,35.69881],[139.61445,35.69814],[139.61232,35.6976],[139.61067,35.69643],[139.61318,35.69542],[139.61387,35.69505],[139.61565,35.69384],[139.61693,35.69276],[139.617,35.69308]]]}},{"type":"Feature","properties":{"area":"ogikubo","town":"南荻窪二丁目","code":"13115020002"},"geometry":{"type":"Polygon","coordinates":[[[139.61422,35.69857],[139.61346,35.70021],[139.60854,35.701],[139.60722,35.70129],[139.60587,35.69849],[139.61067,35.69643],[139.61232,35.6976],[139.61445,35.69814],[139.61422,35.69857]]]}},{"type":"Feature","properties":{"area":"ogikubo","town":"南荻窪三丁目","code":"13115020003"},"geometry":{"type":"Polygon","coordinates":[[[139.61328,35.70075],[139.61299,35.70166],[139.61336,35.70433],[139.60867,35.70417],[139.60807,35.70354],[139.60815,35.70348],[139.60791,35.70315],[139.60722,35.70129],[139.60854,35.701],[139.61346,35.70021],[139.61328,35.70075]]]}},{"type":"Feature","properties":{"area":"ogikubo","town":"南荻窪四丁目","code":"13115020004"},"geometry":{"type":"Polygon","coordinates":[[[139.61682,35.70171],[139.6161,35.70442],[139.61336,35.70433],[139.61299,35.70166],[139.61365,35.69972],[139.61443,35.69814],[139.61662,35.69881],[139.61742,35.69881],[139.61725,35.69992],[139.61682,35.70171]]]}},{"type":"Feature","properties":{"area":"ogikubo","town":"上荻一丁目","code":"13115021001"},"geometry":{"type":"Polygon","coordinates":[[[139.62173,35.70528],[139.62066,35.70538],[139.61919,35.70587],[139.61734,35.70682],[139.61509,35.70816],[139.61535,35.7069],[139.61581,35.70556],[139.61611,35.70439],[139.61945,35.70461],[139.62442,35.70463],[139.62311,35.70518],[139.62173,35.70528]]]}},{"type":"Feature","properties":{"area":"ogikubo","town":"上荻二丁目","code":"13115021002"},"geometry":{"type":"Polygon","coordinates":[[[139.61335,35.70433],[139.6161,35.70442],[139.61581,35.70556],[139.61535,35.7069],[139.61509,35.70816],[139.61326,35.70921],[139.61143,35.71005],[139.60991,35.70518],[139.61033,35.70492],[139.61088,35.70423],[139.61335,35.70433]]]}},{"type":"Feature","properties":{"area":"ogikubo","town":"上荻三丁目","code":"13115021003"},"geometry":{"type":"Polygon","coordinates":[[[139.61006,35.70564],[139.61143,35.71005],[139.60957,35.71082],[139.6078,35.71118],[139.60678,35.70859],[139.60738,35.70856],[139.60779,35.70829],[139.60786,35.70792],[139.60751,35.70701],[139.60744,35.70663],[139.60762,35.70631],[139.60988,35.70519],[139.61006,35.70564]]]}},{"type":"Feature","properties":{"area":"ogikubo","town":"上荻四丁目","code":"13115021004"},"geometry":{"type":"Polygon","coordinates":[[[139.60692,35.70893],[139.60779,35.71119],[139.6051,35.71152],[139.60186,35.7123],[139.60164,35.71148],[139.60197,35.71059],[139.60186,35.70807],[139.6026,35.70823],[139.60331,35.70865],[139.60678,35.70859],[139.60692,35.70893]]]}},{"type":"Feature","properties":{"area":"nishi-ogikubo","town":"西荻南一丁目","code":"13115022001"},"geometry":{"type":"Polygon","coordinates":[[[139.60369,35.69531],[139.60515,35.69902],[139.60217,35.70112],[139.60026,35.69685],[139.60361,35.6951],[139.60369,35.69531]]]}},{"type":"Feature","properties":{"area":"nishi-ogikubo","town":"西荻南二丁目","code":"13115022002"},"geometry":{"type":"Polygon","coordinates":[[[139.60075,35.69794],[139.60217,35.70112],[139.5998,35.70288],[139.59764,35.69836],[139.60026,35.69685],[139.60075,35.69794]]]}},{"type":"Feature","properties":{"area":"nishi-ogikubo","town":"西荻南三丁目","code":"13115022003"},"geometry":{"type":"Polygon","coordinates":[[[139.6037,35.70131],[139.60501,35.70406],[139.59812,35.70388],[139.59813,35.70364],[139.59853,35.70362],[139.5998,35.70288],[139.60156,35.70154],[139.60325,35.70039],[139.6037,35.70131]]]}},{"type":"Feature","properties":{"area":"nishi-ogikubo","town":"西荻南四丁目","code":"13115022004"},"geometry":{"type":"Polygon","coordinates":[[[139.60588,35.69851],[139.60722,35.70129],[139.60791,35.70315],[139.60815,35.70348],[139.60807,35.70354],[139.60867,35.70417],[139.60501,35.70406],[139.60325,35.70039],[139.60571,35.69856],[139.60588,35.69851]]]}},{"type":"Feature","properties":{"area":"nishi-ogikubo","town":"西荻北一丁目","code":"13115023001"},"geometry":{"type":"Polygon","coordinates":[[[139.60559,35.70409],[139.61088,35.70423],[139.61063,35.70461],[139.61019,35.70502],[139.60762,35.70631],[139.60743,35.70671],[139.60786,35.70792],[139.60779,35.70829],[139.60738,35.70856],[139.60678,35.70859],[139.60501,35.70406],[139.60559,35.70409]]]}},{"type":"Feature","properties":{"area":"nishi-ogikubo","town":"西荻北二丁目","code":"13115023002"},"geometry":{"type":"Polygon","coordinates":[[[139.60192,35.70396],[139.60501,35.70406],[139.60678,35.70859],[139.60331,35.70865],[139.6026,35.70823],[139.60186,35.70807],[139.60181,35.70749],[139.60081,35.70521],[139.60059,35.70395],[139.60192,35.70396]]]}},{"type":"Feature","properties":{"area":"nishi-ogikubo","town":"西荻北三丁目","code":"13115023003"},"geometry":{"type":"Polygon","coordinates":[[[139.59988,35.70753],[139.59938,35.70772],[139.59864,35.70836],[139.59789,35.70764],[139.59647,35.70501],[139.59549,35.70568],[139.59443,35.70374],[139.60059,35.70395],[139.60081,35.70521],[139.60181,35.70749],[139.60186,35.70805],[139.60134,35.70794],[139.60037,35.70755],[139.59988,35.70753]]]}},{"type":"Feature","properties":{"area":"nishi-ogikubo","town":"西荻北四丁目","code":"13115023004"},"geometry":{"type":"Polygon","coordinates":[[[139.598,35.70923],[139.59744,35.71006],[139.59601,35.70954],[139.59411,35.70922],[139.5908,35.70914],[139.5931,35.70713],[139.59492,35.70608],[139.59647,35.70501],[139.59789,35.70764],[139.59864,35.70836],[139.598,35.70923]]]}},{"type":"Feature","properties":{"area":"nishi-ogikubo","town":"西荻北五丁目","code":"13115023005"},"geometry":{"type":"Polygon","coordinates":[[[139.60037,35.70755],[139.60134,35.70794],[139.60186,35.70805],[139.60197,35.71059],[139.60164,35.71148],[139.59931,35.71083],[139.59744,35.71006],[139.59855,35.70843],[139.59952,35.70764],[139.59988,35.70753],[139.60037,35.70755]]]}},{"type":"Feature","properties":{"area":"momoi-imagawa","town":"今川一丁目","code":"13115024001"},"geometry":{"type":"Polygon","coordinates":[[[139.61106,35.71486],[139.61441,35.71507],[139.6141,35.7191],[139.61086,35.71911],[139.61106,35.71486]]]}},{"type":"Feature","properties":{"area":"momoi-imagawa","town":"今川二丁目","code":"13115024002"},"geometry":{"type":"Polygon","coordinates":[[[139.60596,35.7191],[139.60627,35.71773],[139.60768,35.71576],[139.60801,35.71466],[139.61105,35.71486],[139.61086,35.71911],[139.60596,35.7191]]]}},{"type":"Feature","properties":{"area":"momoi-imagawa","town":"今川三丁目","code":"13115024003"},"geometry":{"type":"Polygon","coordinates":[[[139.60787,35.71513],[139.60768,35.71576],[139.60627,35.71773],[139.60596,35.7191],[139.602,35.71824],[139.60234,35.71463],[139.60801,35.71466],[139.60787,35.71513]]]}},{"type":"Feature","properties":{"area":"momoi-imagawa","town":"今川四丁目","code":"13115024004"},"geometry":{"type":"Polygon","coordinates":[[[139.59933,35.71449],[139.60234,35.71463],[139.602,35.71824],[139.59667,35.71708],[139.5971,35.71674],[139.59886,35.71447],[139.59933,35.71449]]]}},{"type":"Feature","properties":{"area":"shimizu","town":"清水一丁目","code":"13115025001"},"geometry":{"type":"Polygon","coordinates":[[[139.61596,35.70808],[139.61739,35.70899],[139.62112,35.7106],[139.62087,35.71077],[139.62021,35.71088],[139.61979,35.71125],[139.61942,35.7123],[139.61782,35.71249],[139.6147,35.71235],[139.61509,35.70816],[139.61563,35.70784],[139.61596,35.70808]]]}},{"type":"Feature","properties":{"area":"shimizu","town":"清水二丁目","code":"13115025002"},"geometry":{"type":"Polygon","coordinates":[[[139.61934,35.71251],[139.61916,35.71288],[139.62087,35.71463],[139.62127,35.71527],[139.62038,35.71545],[139.61443,35.71507],[139.6147,35.71235],[139.61782,35.71249],[139.61942,35.7123],[139.61934,35.71251]]]}},{"type":"Feature","properties":{"area":"shimizu","town":"清水三丁目","code":"13115025003"},"geometry":{"type":"Polygon","coordinates":[[[139.6186,35.71908],[139.61796,35.71928],[139.61408,35.71911],[139.61441,35.71507],[139.62038,35.71545],[139.62127,35.71527],[139.62154,35.71633],[139.62112,35.71836],[139.6186,35.71908]]]}},{"type":"Feature","properties":{"area":"momoi-imagawa","town":"桃井一丁目","code":"13115026001"},"geometry":{"type":"Polygon","coordinates":[[[139.61504,35.70868],[139.61443,35.71507],[139.61106,35.71486],[139.61132,35.7101],[139.61326,35.70921],[139.61509,35.70816],[139.61504,35.70868]]]}},{"type":"Feature","properties":{"area":"momoi-imagawa","town":"桃井二丁目","code":"13115026002"},"geometry":{"type":"Polygon","coordinates":[[[139.61132,35.71025],[139.61106,35.71486],[139.60801,35.71466],[139.60835,35.71353],[139.60779,35.71119],[139.60957,35.71082],[139.61132,35.7101],[139.61132,35.71025]]]}},{"type":"Feature","properties":{"area":"momoi-imagawa","town":"桃井三丁目","code":"13115026003"},"geometry":{"type":"Polygon","coordinates":[[[139.60801,35.71466],[139.60474,35.71465],[139.60431,35.71171],[139.6051,35.71152],[139.60779,35.71119],[139.60835,35.71353],[139.60801,35.71466]]]}},{"type":"Feature","properties":{"area":"momoi-imagawa","town":"桃井四丁目","code":"13115026004"},"geometry":{"type":"Polygon","coordinates":[[[139.60474,35.71465],[139.60204,35.71463],[139.59886,35.71447],[139.60003,35.71312],[139.60058,35.71276],[139.60244,35.71211],[139.60431,35.71171],[139.60474,35.71465]]]}},{"type":"Feature","properties":{"area":"igusa","town":"井草一丁目","code":"13115027001"},"geometry":{"type":"Polygon","coordinates":[[[139.62721,35.72408],[139.62425,35.72953],[139.62443,35.73008],[139.62186,35.73042],[139.62151,35.72435],[139.62752,35.72361],[139.62721,35.72408]]]}},{"type":"Feature","properties":{"area":"igusa","town":"井草二丁目","code":"13115027002"},"geometry":{"type":"Polygon","coordinates":[[[139.62023,35.73145],[139.61782,35.73093],[139.61683,35.73055],[139.61713,35.73004],[139.617,35.73003],[139.61697,35.72965],[139.61704,35.72939],[139.61766,35.72896],[139.61746,35.7284],[139.61722,35.72482],[139.6172,35.72463],[139.61711,35.72463],[139.62151,35.72435],[139.62186,35.73042],[139.62075,35.73042],[139.62032,35.73037],[139.61987,35.73019],[139.62023,35.73145]]]}},{"type":"Feature","properties":{"area":"igusa","town":"井草三丁目","code":"13115027003"},"geometry":{"type":"Polygon","coordinates":[[[139.61574,35.73015],[139.61548,35.73008],[139.61531,35.73014],[139.61349,35.72959],[139.61366,35.72957],[139.6138,35.7293],[139.61358,35.72482],[139.6154,35.72478],[139.6172,35.72463],[139.61746,35.7284],[139.61766,35.72896],[139.61704,35.72939],[139.61697,35.72965],[139.617,35.73003],[139.61591,35.72979],[139.61582,35.72985],[139.61591,35.72994],[139.61574,35.73015]]]}},{"type":"Feature","properties":{"area":"igusa","town":"井草四丁目","code":"13115027004"},"geometry":{"type":"Polygon","coordinates":[[[139.61358,35.72499],[139.6138,35.7293],[139.61366,35.72957],[139.6096,35.72856],[139.6087,35.72818],[139.60988,35.72496],[139.61358,35.72482],[139.61358,35.72499]]]}},{"type":"Feature","properties":{"area":"igusa","town":"井草五丁目","code":"13115027005"},"geometry":{"type":"Polygon","coordinates":[[[139.6097,35.72546],[139.6087,35.72818],[139.6083,35.72793],[139.60766,35.72772],[139.60434,35.72684],[139.60179,35.72577],[139.60192,35.72542],[139.60368,35.72532],[139.6037,35.72539],[139.60387,35.72526],[139.60988,35.72496],[139.6097,35.72546]]]}},{"type":"Feature","properties":{"area":"igusa","town":"下井草一丁目","code":"13115028001"},"geometry":{"type":"Polygon","coordinates":[[[139.63602,35.7167],[139.6321,35.71712],[139.63207,35.71734],[139.63189,35.71743],[139.63136,35.71811],[139.62697,35.71682],[139.62701,35.71657],[139.63121,35.71509],[139.63487,35.71416],[139.63537,35.71506],[139.63602,35.7167]]]}},{"type":"Feature","properties":{"area":"igusa","town":"下井草二丁目","code":"13115028002"},"geometry":{"type":"Polygon","coordinates":[[[139.62413,35.72407],[139.62387,35.72405],[139.62479,35.72255],[139.62551,35.72232],[139.62557,35.72135],[139.6257,35.72072],[139.62579,35.72039],[139.62652,35.71894],[139.62697,35.71682],[139.63136,35.71811],[139.63111,35.71849],[139.6313,35.71911],[139.63154,35.7194],[139.63163,35.71973],[139.63155,35.71998],[139.63076,35.72065],[139.6306,35.72063],[139.63043,35.72084],[139.6295,35.72039],[139.62882,35.72097],[139.62816,35.72191],[139.62806,35.72247],[139.62752,35.72361],[139.62413,35.72407]]]}},{"type":"Feature","properties":{"area":"igusa","town":"下井草三丁目","code":"13115028003"},"geometry":{"type":"Polygon","coordinates":[[[139.62676,35.71779],[139.62652,35.71894],[139.62579,35.72039],[139.62557,35.72135],[139.62551,35.72232],[139.62479,35.72255],[139.62387,35.72405],[139.62154,35.72434],[139.62139,35.72223],[139.62219,35.71807],[139.62701,35.71659],[139.62676,35.71779]]]}},{"type":"Feature","properties":{"area":"igusa","town":"下井草四丁目","code":"13115028004"},"geometry":{"type":"Polygon","coordinates":[[[139.61936,35.72452],[139.6172,35.72462],[139.61719,35.72328],[139.61705,35.72248],[139.6169,35.71924],[139.61796,35.71928],[139.62219,35.71807],[139.62139,35.72223],[139.62154,35.72434],[139.61936,35.72452]]]}},{"type":"Feature","properties":{"area":"igusa","town":"下井草五丁目","code":"13115028005"},"geometry":{"type":"Polygon","coordinates":[[[139.61626,35.7247],[139.61434,35.72482],[139.61408,35.71911],[139.6169,35.71924],[139.61705,35.72248],[139.61719,35.72328],[139.6172,35.72462],[139.61626,35.7247]]]}},{"type":"Feature","properties":{"area":"kami-igusa","town":"上井草一丁目","code":"13115029001"},"geometry":{"type":"Polygon","coordinates":[[[139.61358,35.72482],[139.60988,35.72496],[139.61031,35.7238],[139.61086,35.71911],[139.61408,35.7191],[139.61434,35.72482],[139.61358,35.72482]]]}},{"type":"Feature","properties":{"area":"kami-igusa","town":"上井草二丁目","code":"13115029002"},"geometry":{"type":"Polygon","coordinates":[[[139.61037,35.7233],[139.61031,35.7238],[139.60988,35.72496],[139.60387,35.72526],[139.60596,35.7191],[139.61086,35.71911],[139.61037,35.7233]]]}},{"type":"Feature","properties":{"area":"kami-igusa","town":"上井草三丁目","code":"13115029003"},"geometry":{"type":"Polygon","coordinates":[[[139.60192,35.72542],[139.60195,35.72534],[139.60147,35.72536],[139.60022,35.72402],[139.60001,35.72389],[139.59824,35.7232],[139.60016,35.71784],[139.60596,35.7191],[139.60387,35.72526],[139.6037,35.72539],[139.60368,35.72532],[139.60192,35.72542]]]}},{"type":"Feature","properties":{"area":"kami-igusa","town":"上井草四丁目","code":"13115029004"},"geometry":{"type":"Polygon","coordinates":[[[139.59692,35.71714],[139.60018,35.71784],[139.59824,35.7232],[139.59756,35.72283],[139.59675,35.72219],[139.59577,35.72203],[139.59582,35.72157],[139.59392,35.71803],[139.5945,35.71768],[139.59622,35.71727],[139.59667,35.71708],[139.59692,35.71714]]]}},{"type":"Feature","properties":{"area":"zenpukuji","town":"善福寺一丁目","code":"13115030001"},"geometry":{"type":"Polygon","coordinates":[[[139.5955,35.70945],[139.59652,35.70969],[139.59931,35.71083],[139.60164,35.71148],[139.60186,35.7123],[139.60058,35.71276],[139.60003,35.71312],[139.59908,35.71418],[139.5971,35.71674],[139.59672,35.71706],[139.59384,35.71623],[139.59383,35.71544],[139.59435,35.71391],[139.5955,35.70945]]]}},{"type":"Feature","properties":{"area":"zenpukuji","town":"善福寺二丁目","code":"13115030002"},"geometry":{"type":"Polygon","coordinates":[[[139.59421,35.71429],[139.59383,35.71544],[139.59384,35.71623],[139.59042,35.71458],[139.58702,35.71263],[139.58671,35.71174],[139.58749,35.71143],[139.58894,35.71033],[139.5908,35.70914],[139.59353,35.70918],[139.59547,35.70944],[139.59421,35.71429]]]}},{"type":"Feature","properties":{"area":"zenpukuji","town":"善福寺三丁目","code":"13115030003"},"geometry":{"type":"Polygon","coordinates":[[[139.5942,35.71783],[139.59288,35.71796],[139.5912,35.71769],[139.59009,35.71779],[139.5877,35.71708],[139.58539,35.71595],[139.58587,35.71515],[139.58652,35.71431],[139.58679,35.71365],[139.58702,35.71263],[139.59042,35.71458],[139.5935,35.71608],[139.59672,35.71706],[139.59622,35.71727],[139.5945,35.71768],[139.5942,35.71783]]]}},{"type":"Feature","properties":{"area":"zenpukuji","town":"善福寺四丁目","code":"13115030004"},"geometry":{"type":"Polygon","coordinates":[[[139.59392,35.71803],[139.59349,35.71812],[139.59273,35.71849],[139.59088,35.71998],[139.59021,35.72027],[139.58852,35.72014],[139.58712,35.71973],[139.58607,35.71912],[139.58515,35.7179],[139.58504,35.7169],[139.58511,35.71634],[139.58539,35.71595],[139.5877,35.71708],[139.59009,35.71779],[139.5912,35.71769],[139.59288,35.71796],[139.5942,35.71783],[139.59392,35.71803]]]}},{"type":"Feature","properties":{"area":"nishi-ogikubo","town":"松庵一丁目","code":"13115031001"},"geometry":{"type":"Polygon","coordinates":[[[139.59698,35.6944],[139.59756,35.69564],[139.5914,35.69789],[139.59007,35.69482],[139.594,35.69333],[139.59622,35.6928],[139.59698,35.6944]]]}},{"type":"Feature","properties":{"area":"nishi-ogikubo","town":"松庵二丁目","code":"13115031002"},"geometry":{"type":"Polygon","coordinates":[[[139.59777,35.69616],[139.59841,35.69789],[139.59562,35.69952],[139.59271,35.70094],[139.5914,35.69789],[139.59756,35.69564],[139.59777,35.69616]]]}},{"type":"Feature","properties":{"area":"nishi-ogikubo","town":"松庵三丁目","code":"13115031003"},"geometry":{"type":"Polygon","coordinates":[[[139.59794,35.69898],[139.5998,35.70288],[139.59853,35.70362],[139.59813,35.70364],[139.59812,35.70388],[139.59443,35.70374],[139.59436,35.70349],[139.59411,35.70321],[139.59284,35.70087],[139.59562,35.69952],[139.59764,35.69836],[139.59794,35.69898]]]}},{"type":"Feature","properties":{"area":"miyamae","town":"宮前一丁目","code":"13115032001"},"geometry":{"type":"Polygon","coordinates":[[[139.61654,35.69008],[139.61498,35.69031],[139.61405,35.69053],[139.60948,35.69234],[139.60864,35.68884],[139.60992,35.68904],[139.61285,35.68969],[139.61441,35.68947],[139.61634,35.68876],[139.61654,35.69008]]]}},{"type":"Feature","properties":{"area":"miyamae","town":"宮前二丁目","code":"13115032002"},"geometry":{"type":"Polygon","coordinates":[[[139.6166,35.69052],[139.61693,35.69276],[139.61565,35.69384],[139.61387,35.69505],[139.61318,35.69542],[139.61175,35.696],[139.60947,35.6924],[139.61009,35.69205],[139.61323,35.69082],[139.61439,35.69044],[139.61654,35.69012],[139.6166,35.69052]]]}},{"type":"Feature","properties":{"area":"miyamae","town":"宮前三丁目","code":"13115032003"},"geometry":{"type":"Polygon","coordinates":[[[139.60947,35.6924],[139.61175,35.696],[139.60571,35.69856],[139.60515,35.69902],[139.60361,35.6951],[139.60662,35.69375],[139.60948,35.69234],[139.60947,35.6924]]]}},{"type":"Feature","properties":{"area":"miyamae","town":"宮前四丁目","code":"13115032004"},"geometry":{"type":"Polygon","coordinates":[[[139.60895,35.69021],[139.60948,35.69234],[139.60662,35.69375],[139.60347,35.69517],[139.60187,35.69126],[139.6038,35.69003],[139.60476,35.68953],[139.60599,35.68906],[139.60737,35.68877],[139.60768,35.68873],[139.60864,35.68884],[139.60895,35.69021]]]}},{"type":"Feature","properties":{"area":"miyamae","town":"宮前五丁目","code":"13115032005"},"geometry":{"type":"Polygon","coordinates":[[[139.60223,35.69216],[139.60347,35.69517],[139.60091,35.69648],[139.59843,35.69791],[139.59753,35.69557],[139.59622,35.6928],[139.59872,35.69218],[139.59956,35.69209],[139.60058,35.69183],[139.6013,35.6916],[139.60187,35.69126],[139.60223,35.69216]]]}},{"type":"Feature","properties":{"area":"kugayama","town":"久我山一丁目","code":"13115033001"},"geometry":{"type":"Polygon","coordinates":[[[139.5961,35.68454],[139.59151,35.68578],[139.59149,35.68542],[139.59255,35.68512],[139.59241,35.6848],[139.59258,35.68473],[139.59242,35.68447],[139.59222,35.68455],[139.59203,35.68432],[139.59241,35.68402],[139.5931,35.68321],[139.59291,35.68288],[139.59403,35.6823],[139.5945,35.68234],[139.59582,35.68223],[139.5988,35.68187],[139.60064,35.6814],[139.60281,35.68073],[139.60302,35.68062],[139.60351,35.68013],[139.60374,35.68019],[139.60362,35.68035],[139.60365,35.68052],[139.60401,35.68053],[139.60412,35.68082],[139.60314,35.68113],[139.60257,35.6814],[139.59922,35.6835],[139.5981,35.68397],[139.5961,35.68454]]]}},{"type":"Feature","properties":{"area":"kugayama","town":"久我山二丁目","code":"13115033002"},"geometry":{"type":"Polygon","coordinates":[[[139.60651,35.68031],[139.60655,35.68075],[139.60636,35.68164],[139.60645,35.6824],[139.6067,35.68288],[139.60795,35.68459],[139.60168,35.68685],[139.59985,35.68788],[139.59971,35.68751],[139.59971,35.68694],[139.5995,35.68627],[139.5981,35.68395],[139.5996,35.68329],[139.60257,35.6814],[139.60314,35.68113],[139.60557,35.68039],[139.60648,35.6802],[139.60651,35.68031]]]}},{"type":"Feature","properties":{"area":"kugayama","town":"久我山三丁目","code":"13115033003"},"geometry":{"type":"Polygon","coordinates":[[[139.5981,35.68894],[139.59659,35.68966],[139.59128,35.69148],[139.59141,35.69128],[139.59239,35.69052],[139.59239,35.69043],[139.59286,35.68994],[139.5935,35.6894],[139.59341,35.68926],[139.5938,35.68882],[139.59362,35.68868],[139.59309,35.68903],[139.59281,35.68899],[139.59289,35.68846],[139.59304,35.68828],[139.59282,35.68795],[139.59188,35.68783],[139.59128,35.68751],[139.59054,35.68687],[139.59168,35.68606],[139.5917,35.68593],[139.59152,35.6859],[139.59151,35.68578],[139.59811,35.68396],[139.59954,35.68636],[139.59971,35.68694],[139.59971,35.68751],[139.59985,35.68789],[139.59863,35.68861],[139.59842,35.68884],[139.59832,35.68889],[139.5983,35.68881],[139.5981,35.68894]]]}},{"type":"Feature","properties":{"area":"kugayama","town":"久我山四丁目","code":"13115033004"},"geometry":{"type":"Polygon","coordinates":[[[139.60011,35.68893],[139.60106,35.69168],[139.59956,35.69209],[139.59872,35.69218],[139.594,35.69333],[139.58817,35.69559],[139.58675,35.69414],[139.587,35.69382],[139.58753,35.69357],[139.58804,35.6931],[139.58964,35.6925],[139.59128,35.69148],[139.59659,35.68966],[139.5974,35.68932],[139.5983,35.68881],[139.59832,35.68889],[139.59842,35.68884],[139.59863,35.68861],[139.59985,35.68789],[139.60011,35.68893]]]}},{"type":"Feature","properties":{"area":"kugayama","town":"久我山五丁目","code":"13115033005"},"geometry":{"type":"Polygon","coordinates":[[[139.60351,35.69021],[139.60158,35.69145],[139.60106,35.69168],[139.60011,35.68894],[139.59985,35.68788],[139.60168,35.68685],[139.60795,35.68459],[139.60864,35.68884],[139.60768,35.68873],[139.60624,35.68899],[139.60476,35.68953],[139.60351,35.69021]]]}},{"type":"Feature","properties":{"area":"takaido-fujimigaoka","town":"高井戸東一丁目","code":"13115034001"},"geometry":{"type":"Polygon","coordinates":[[[139.62296,35.67744],[139.62336,35.67758],[139.6245,35.67852],[139.6255,35.68003],[139.62514,35.68138],[139.62543,35.68209],[139.61926,35.68292],[139.61901,35.68192],[139.61873,35.68148],[139.61904,35.68073],[139.61895,35.67987],[139.61864,35.67874],[139.61745,35.67623],[139.61806,35.67595],[139.61846,35.67641],[139.61869,35.67656],[139.62129,35.67706],[139.6223,35.67744],[139.62296,35.67744]]]}},{"type":"Feature","properties":{"area":"takaido-fujimigaoka","town":"高井戸東二丁目","code":"13115034002"},"geometry":{"type":"Polygon","coordinates":[[[139.61756,35.67643],[139.61864,35.67874],[139.61895,35.67987],[139.61904,35.68073],[139.61873,35.68148],[139.61901,35.68192],[139.61926,35.68292],[139.61714,35.68326],[139.61574,35.68335],[139.61466,35.68021],[139.61442,35.67739],[139.61606,35.67688],[139.61745,35.67623],[139.61756,35.67643]]]}},{"type":"Feature","properties":{"area":"takaido-fujimigaoka","town":"高井戸東三丁目","code":"13115034003"},"geometry":{"type":"Polygon","coordinates":[[[139.62584,35.68309],[139.6244,35.68578],[139.61634,35.68873],[139.61571,35.68483],[139.61574,35.68335],[139.61714,35.68326],[139.62045,35.68274],[139.62543,35.68209],[139.62584,35.68309]]]}},{"type":"Feature","properties":{"area":"takaido-fujimigaoka","town":"高井戸東四丁目","code":"13115034004"},"geometry":{"type":"Polygon","coordinates":[[[139.62399,35.68653],[139.62498,35.68819],[139.6235,35.68897],[139.62219,35.68952],[139.62086,35.69058],[139.61982,35.69123],[139.61938,35.69147],[139.61839,35.69182],[139.61693,35.69274],[139.6168,35.6922],[139.61634,35.68873],[139.6244,35.68578],[139.62399,35.68653]]]}},{"type":"Feature","properties":{"area":"takaido-fujimigaoka","town":"高井戸西一丁目","code":"13115035001"},"geometry":{"type":"Polygon","coordinates":[[[139.61444,35.67759],[139.61466,35.68021],[139.61571,35.68327],[139.61199,35.68345],[139.61102,35.68357],[139.60795,35.68459],[139.6067,35.68288],[139.60645,35.6824],[139.60636,35.68164],[139.60655,35.68075],[139.60652,35.68042],[139.60922,35.67959],[139.61228,35.67848],[139.61441,35.67744],[139.61444,35.67759]]]}},{"type":"Feature","properties":{"area":"takaido-fujimigaoka","town":"高井戸西二丁目","code":"13115035002"},"geometry":{"type":"Polygon","coordinates":[[[139.61574,35.68335],[139.61568,35.68452],[139.61595,35.68642],[139.61275,35.68701],[139.61046,35.68765],[139.60847,35.68808],[139.60804,35.68484],[139.60795,35.68459],[139.61073,35.68366],[139.61144,35.6835],[139.61571,35.68327],[139.61574,35.68335]]]}},{"type":"Feature","properties":{"area":"takaido-fujimigaoka","town":"高井戸西三丁目","code":"13115035003"},"geometry":{"type":"Polygon","coordinates":[[[139.61334,35.68961],[139.61271,35.68967],[139.6117,35.6894],[139.60864,35.68884],[139.60847,35.68808],[139.61046,35.68765],[139.61275,35.68701],[139.61595,35.68642],[139.61634,35.68876],[139.61441,35.68947],[139.61334,35.68961]]]}},{"type":"Feature","properties":{"area":"kami-takaido","town":"上高井戸一丁目","code":"13115036001"},"geometry":{"type":"Polygon","coordinates":[[[139.60911,35.67646],[139.6088,35.6768],[139.6068,35.67758],[139.60721,35.67698],[139.6075,35.67605],[139.60771,35.67606],[139.60768,35.67637],[139.60848,35.67643],[139.60849,35.67612],[139.60865,35.67611],[139.60914,35.67508],[139.60912,35.6749],[139.60882,35.67489],[139.60883,35.67477],[139.60928,35.67473],[139.60936,35.67405],[139.60894,35.67404],[139.60902,35.67273],[139.60896,35.67187],[139.60909,35.67066],[139.60922,35.67023],[139.6094,35.67025],[139.60936,35.67067],[139.6106,35.67087],[139.6107,35.67052],[139.6114,35.67046],[139.61143,35.6703],[139.61126,35.67027],[139.61129,35.66998],[139.61347,35.67049],[139.61349,35.67066],[139.6136,35.67064],[139.61374,35.67019],[139.61421,35.66962],[139.61479,35.66916],[139.61565,35.66957],[139.61564,35.66942],[139.61529,35.66912],[139.61539,35.66902],[139.6156,35.66914],[139.61595,35.66915],[139.61606,35.66941],[139.61647,35.66991],[139.61638,35.67039],[139.61649,35.67158],[139.61664,35.67156],[139.61668,35.67255],[139.61336,35.67282],[139.61343,35.67372],[139.61331,35.67389],[139.61282,35.67426],[139.61177,35.67465],[139.61012,35.67665],[139.61,35.67674],[139.60998,35.67668],[139.60995,35.67567],[139.60944,35.67608],[139.60911,35.67646]]]}},{"type":"Feature","properties":{"area":"kami-takaido","town":"上高井戸二丁目","code":"13115036002"},"geometry":{"type":"Polygon","coordinates":[[[139.60589,35.68032],[139.60412,35.68082],[139.60401,35.68053],[139.60365,35.68052],[139.60362,35.68035],[139.60374,35.68019],[139.60351,35.68013],[139.60543,35.67881],[139.60566,35.67851],[139.6068,35.67758],[139.6088,35.6768],[139.60944,35.67608],[139.60995,35.67567],[139.61,35.67674],[139.61022,35.67652],[139.6106,35.67655],[139.61188,35.67622],[139.61193,35.6755],[139.6122,35.67549],[139.61249,35.67603],[139.61327,35.67555],[139.61329,35.67545],[139.61396,35.67532],[139.61441,35.67744],[139.6126,35.67835],[139.60922,35.67959],[139.60652,35.68042],[139.60648,35.6802],[139.60589,35.68032]]]}},{"type":"Feature","properties":{"area":"kami-takaido","town":"上高井戸三丁目","code":"13115036003"},"geometry":{"type":"Polygon","coordinates":[[[139.62344,35.67171],[139.62035,35.67449],[139.61946,35.67519],[139.61666,35.67663],[139.61442,35.67739],[139.61444,35.67759],[139.61396,35.67532],[139.61493,35.6749],[139.61725,35.67423],[139.62078,35.67295],[139.62213,35.67223],[139.62318,35.67149],[139.62344,35.67171]]]}}]}
